{"type":"FeatureCollection", "features": [
{"type":"Feature","geometry":{"type":"Polygon","coordinates":[[[120.69,22.05],[121.33,23.4],[121.59,24.65],[121.78,24.9],[121.43,25.13],[120.97,24.89],[120.56,24.39],[120.12,23.63],[120.05,23.06],[120.69,22.05]]]},"properties":{"NAME":"Dapenkeng culture","SUBJECTO":"Dakapeng culture","BORDERPRECISION":1}},
{"type":"Feature","geometry":{"type":"MultiPolygon","coordinates":[[[[118.65,-8.54],[118.39,-8.32],[117.71,-8.25],[117.9,-8.7],[116.96,-8.53],[116.81,-9.04],[117.04,-9.11],[117.88,-8.93],[118.65,-8.54]]],[[[106.95,-6.09],[105.93,-6.03],[105.63,-6.76],[106.54,-7],[106.57,-7.42],[107.47,-7.51],[108.42,-7.81],[108.58,-7.69],[109.4,-7.72],[110.06,-7.9],[110.71,-8.2],[111.78,-8.26],[112.64,-8.43],[113.2,-8.28],[114.06,-8.64],[114.23,-7.93],[113.95,-7.82],[113.07,-7.88],[112.68,-7.72],[112.54,-7.26],[112.27,-7.03],[111.04,-6.85],[110.81,-6.53],[110.48,-6.95],[110.03,-7.04],[108.56,-6.92],[108.17,-6.36],[107.77,-6.45],[107.34,-6.15],[106.95,-6.09]]],[[[106.53,-3.11],[106.64,-2.71],[106.33,-2.57],[106.04,-2.2],[105.9,-1.8],[105.43,-1.71],[105.21,-2.1],[105.74,-2.13],[105.98,-2.82],[106.53,-3.11]]],[[[97.17,5.16],[96.75,5.06],[96.19,5.15],[95.74,5.47],[95.28,5.55],[95.23,5.28],[95.53,4.68],[96.56,3.74],[96.79,3.74],[97.63,2.76],[97.66,2.4],[98.52,1.93],[98.77,1.54],[99.1,0.58],[99.13,0.27],[99.74,-0.03],[99.8,-0.29],[100.34,-0.87],[100.44,-1.24],[100.85,-1.89],[100.83,-2.15],[101.32,-2.73],[101.63,-3.25],[102.24,-3.68],[102.34,-4.01],[103.44,-4.86],[103.72,-4.96],[104.34,-5.67],[104.7,-5.52],[105.07,-5.76],[105.26,-5.45],[105.62,-5.82],[105.8,-5.35],[105.71,-4.1],[105.94,-3.21],[105.44,-2.6],[104.99,-2.47],[104.81,-2.16],[104.35,-1.89],[104.3,-1.36],[104.12,-1.14],[103.75,-1.12],[103.38,-0.89],[103.41,-0.5],[103.6,-0.03],[103.24,0.46],[102.47,0.62],[102.14,0.94],[101.87,1.43],[101.47,1.55],[100.95,1.88],[100.73,1.87],[99.86,2.9],[98.63,3.66],[98.15,4.07],[97.94,4.52],[97.38,5.18],[97.17,5.16]]],[[[117.52,3.93],[117.69,4.37],[118,4.22],[118.39,4.37],[117.99,4.68],[118.35,5.04],[118.7,4.94],[119,5.28],[118.38,5.64],[117.76,5.58],[117.37,5.79],[117.51,6.39],[117.17,6.61],[116.64,6.69],[116.11,6.11],[116.04,5.83],[115.72,5.47],[115.36,4.88],[114.67,4.83],[114.45,4.56],[113.98,4.4],[113.04,3.19],[112.76,3.01],[111.43,2.62],[110.82,1.24],[110.29,1.52],[109.72,1.62],[109.43,1.87],[109.18,1.62],[108.85,0.81],[108.93,0.31],[109.19,-0.2],[109.11,-0.45],[110.05,-1.31],[109.95,-1.86],[110.13,-2.05],[110.28,-3.01],[110.49,-2.88],[110.91,-3.09],[111.34,-2.92],[111.83,-3.03],[111.84,-3.42],[112.64,-3.33],[112.8,-2.97],[113.06,-2.99],[113.61,-3.45],[114.1,-3.35],[114.61,-3.68],[114.61,-4.13],[115.59,-3.78],[116.2,-2.91],[116.35,-2.42],[116.05,-1.93],[117.05,-0.93],[117.39,-0.86],[117.32,-0.14],[117.53,0.61],[117.71,0.82],[118.13,0.89],[118.77,0.82],[118.52,1.17],[117.91,1.59],[117.7,1.9],[117.83,2.31],[117.34,3.02],[117.14,3.17],[117.2,3.62],[117.52,3.93]]],[[[126.22,6.95],[126.37,7.54],[126.27,8.43],[125.93,9.17],[125.27,8.98],[124.75,8.51],[124.37,8.56],[124.22,8.21],[123.83,8.09],[123.49,8.5],[122.98,8.38],[122.46,7.69],[123.57,7.85],[124.01,7.65],[124.27,7.36],[123.99,7.02],[124.04,6.43],[124.33,6.11],[125.34,5.56],[125.53,5.94],[125.28,6.59],[125.61,7.24],[125.97,6.95],[126.22,6.95]]],[[[122.94,9.07],[123.13,9.25],[122.96,9.59],[123.31,10.74],[122.95,10.86],[122.86,10.09],[122.42,9.84],[122.41,9.66],[122.94,9.07]]],[[[118.8,10.03],[119.56,10.5],[119.47,10.76],[118.8,10.03]]],[[[122.26,10.65],[122.9,11.15],[122.9,11.52],[122.47,11.45],[122.1,11.67],[121.96,10.56],[122.26,10.65]]],[[[121.1,12.28],[121.27,12.53],[121.3,13.13],[121.04,13.41],[120.65,13.19],[120.8,12.72],[121.1,12.28]]],[[[122.14,13.91],[121.73,14.11],[121.24,15.31],[121.44,15.92],[122.06,16.33],[122.4,17.11],[122.07,17.44],[122.03,18.01],[121.04,18.53],[120.59,18.45],[120.44,17.73],[120.45,16.97],[120.32,16.63],[120.43,16.17],[119.91,15.84],[119.91,15.4],[120.08,14.79],[120.84,14.76],[120.82,14.37],[120.62,13.91],[121.06,13.66],[121.72,13.97],[122.33,13.58],[122.78,14.17],[122.44,14.31],[122.14,13.91]]],[[[125.17,11.25],[125.33,11.56],[125.25,12.29],[124.95,12.53],[124.3,12.42],[124.39,12.19],[125.04,11.73],[124.85,11.49],[125.17,11.25]]]]},"properties":{"NAME":"Austronesians","SUBJECTO":"Austronesians","BORDERPRECISION":1}},
{"type":"Feature","geometry":{"type":"MultiPolygon","coordinates":[[[[173.08,-41.29],[172.77,-40.85],[172.21,-41.04],[172.15,-41.58],[171.46,-41.99],[171.4,-42.51],[171.02,-42.89],[170.2,-43.22],[169.65,-43.74],[168.42,-44.22],[167.14,-45.2],[167.32,-45.5],[166.83,-45.6],[166.62,-46.09],[168.49,-46.61],[169.56,-46.6],[170.62,-45.84],[171.17,-44.94],[171.32,-44.32],[172.5,-43.72],[172.44,-43.51],[173.33,-42.91],[173.57,-42.48],[174.2,-41.88],[174.06,-41.29],[173.7,-41.25],[173.26,-41.54],[173.08,-41.29]]],[[[174.47,-35.65],[174.22,-35.34],[173.47,-35.03],[173.09,-35.21],[173.86,-36.07],[174.44,-36.41],[174.39,-36.74],[174.72,-37.15],[174.95,-37.93],[174.71,-38.44],[174.65,-38.98],[173.8,-39.42],[174.97,-39.92],[175.35,-40.3],[174.9,-41.3],[175.32,-41.61],[176.08,-41.13],[176.81,-40.22],[177.02,-39.77],[176.9,-39.44],[177.43,-39.06],[177.89,-39.06],[178.3,-38.54],[178.24,-37.83],[177.53,-38.2],[177.13,-38.19],[176.13,-37.8],[175.64,-37.41],[174.98,-37.08],[174.53,-36.05],[174.47,-35.65]]]]},"properties":{"NAME":"Kelteminar","SUBJECTO":"Kelteminar","BORDERPRECISION":1}},
{"type":"Feature","geometry":{"type":"Polygon","coordinates":[[[148.27,-41.16],[148.06,-40.92],[147.6,-41.16],[146.38,-41.31],[144.78,-40.84],[144.7,-41.16],[145.05,-41.85],[145.51,-42.32],[145.25,-42.61],[145.97,-43.41],[146.88,-43.63],[147.25,-43.18],[147.83,-42.93],[148.08,-42.11],[148.28,-41.89],[148.27,-41.16]]]},"properties":{"NAME":"Aboriginal Tasmanians","SUBJECTO":"Aboriginal Tasmanians","BORDERPRECISION":1}},
{"type":"Feature","geometry":{"type":"MultiPolygon","coordinates":[[[[131.59,33.35],[130.44,33.68],[130.18,33.34],[129.59,33.21],[129.86,32.72],[130.14,33.11],[130.59,32.81],[130.57,32.44],[130.18,31.77],[130.65,31.62],[130.9,31.11],[131.32,31.51],[131.41,32.08],[131.83,32.69],[131.41,33.11],[131.59,33.35]]],[[[134.4,33.63],[134.54,34.01],[133.81,34.18],[133.46,33.88],[132.69,33.74],[132.39,33.45],[132.48,32.9],[132.97,32.77],[133.29,33.37],[133.61,33.51],[134.12,33.28],[134.4,33.63]]],[[[137.89,37.02],[137.18,36.64],[136.77,36.88],[136.5,36.46],[135.98,35.97],[136.1,35.76],[135.36,35.32],[135.16,35.65],[133.01,35.25],[132.68,35.38],[131.67,34.5],[131.33,34.29],[131.17,33.93],[132,34.09],[132.36,34.35],[132.82,34.31],[133.94,34.45],[134.65,34.78],[135.44,34.53],[135.11,34.26],[135.07,33.87],[135.46,33.54],[135.85,33.5],[136.29,34.14],[136.67,34.3],[136.52,34.7],[136.67,34.99],[137.33,34.64],[138.17,34.6],[138.56,35.09],[139.03,34.72],[139.16,35.22],[139.54,35.29],[137.89,37.02]]]]},"properties":{"NAME":"Jōmon","SUBJECTO":"Jōmon","BORDERPRECISION":1}},
{"type":"Feature","geometry":{"type":"Polygon","coordinates":[[[-78.26,-9.74],[-77.76,-10.66],[-77.62,-11.32],[-77.3,-11.51],[-77,-12.18],[-76.8,-12.39],[-76.49,-13.05],[-76.18,-13.46],[-76.24,-14.11],[-75.79,-14.73],[-75.23,-15.22],[-74.33,-15.86],[-73.12,-16.46],[-72.22,-15.43],[-72,-14.31],[-72.17,-12.95],[-73.36,-10.93],[-74.62,-9.98],[-76.39,-9.71],[-78.26,-9.74]]]},"properties":{"NAME":"Norte Chico","SUBJECTO":"Norte Chico","BORDERPRECISION":1}},
{"type":"Feature","geometry":{"type":"Polygon","coordinates":[[[13.48,-8.49],[13.43,-8.82],[13.09,-9.26],[13.22,-9.66],[13.64,-10.3],[13.85,-11.01],[13.81,-11.66],[13.65,-12.2],[13.34,-12.65],[13.05,-12.75],[12.59,-13.46],[12.35,-14.26],[12.25,-14.95],[12.06,-15.59],[11.78,-15.87],[11.82,-16.67],[11.77,-17.6],[12.08,-18.49],[12.46,-18.93],[12.93,-19.74],[13.78,-21.39],[14.42,-22.27],[14.58,-22.73],[14.42,-23.05],[14.67,-24.42],[14.91,-25.02],[14.85,-25.64],[15.15,-26.33],[15.09,-26.64],[15.4,-27.45],[15.68,-27.91],[16.44,-28.62],[16.82,-29.09],[17.08,-29.79],[17.57,-30.83],[18.18,-31.67],[18.35,-32.3],[18.23,-32.9],[17.95,-32.92],[18.47,-33.82],[19,-34.34],[19.64,-34.77],[20.09,-34.73],[20.55,-34.45],[21.06,-34.36],[21.72,-34.4],[22.15,-34.09],[22.78,-34.01],[23.37,-34.1],[23.65,-33.98],[24.79,-34.19],[25.16,-33.96],[25.97,-33.71],[26.45,-33.77],[27.1,-33.53],[27.9,-33.04],[28.93,-32.22],[29.41,-31.7],[29.83,-31.43],[30.39,-30.81],[31.21,-29.54],[31.77,-28.95],[32.35,-28.58],[32.35,-28.03],[32.59,-27.89],[32.82,-27.17],[32.9,-26.37],[32.5,-26.07],[32.88,-25.54],[33.71,-25.11],[34.91,-24.7],[35.49,-24.1],[35.3,-23.83],[35.43,-23.46],[35.53,-22.46],[35.23,-22.2],[34.99,-21.27],[35.11,-20.98],[34.7,-20.57],[34.73,-19.86],[36.12,-18.83],[36.89,-18],[37.85,-17.39],[38.88,-17.04],[39.61,-16.6],[40.57,-15.48],[40.53,-15.19],[40.76,-14.95],[40.62,-14.48],[40.53,-13.31],[40.37,-12.99],[40.53,-12.58],[40.31,-11.34],[40.6,-10.82],[40.39,-10.37],[39.84,-10.01],[39.58,-9.54],[39.31,-8.3],[39.44,-7.92],[32.53,-8.07],[32.48,-8.07],[30.94,-8.11],[31.2,-8.65],[31.02,-8.79],[30.67,-8.5],[30.57,-8.12],[13.48,-8.49]],[[28.32,-9.36],[28.37,-9.1],[28.87,-8.51],[29.13,-8.66],[28.7,-9.4],[28.32,-9.36]],[[34.71,-12.36],[34.96,-14.15],[34.54,-13.98],[34.62,-13.75],[34.32,-13.38],[34.33,-12.94],[34.07,-12.35],[34.06,-12.05],[34.32,-11.65],[34.23,-11.23],[34.26,-10.45],[33.91,-9.8],[34,-9.5],[34.52,-10.03],[34.66,-10.71],[34.6,-11.04],[34.94,-11.46],[34.93,-11.87],[34.71,-12.36]]]},"properties":{"NAME":"Khoiasan","SUBJECTO":"Khoiasan","BORDERPRECISION":1}},
{"type":"Feature","geometry":{"type":"Polygon","coordinates":[[[41.98,37.68],[42.94,36.49],[43.29,35.67],[45.24,35.47],[45.62,35.16],[46.54,35.85],[46.2,36.39],[45.6,36.67],[44.27,37.85],[42.82,38.42],[42.24,38.45],[41.98,37.68]]]},"properties":{"NAME":"Hurrian Kingdoms","SUBJECTO":"Hurrian Kingdoms","BORDERPRECISION":1}},
{"type":"Feature","geometry":{"type":"Polygon","coordinates":[[[-78.61,2.12],[-78.92,1.79],[-78.89,1.24],[-79.78,0.86],[-80.07,0.82],[-80.07,0.06],[-80.43,-0.29],[-80.34,-0.66],[-80.91,-1.03],[-80.76,-1.32],[-80.79,-2.23],[-80.33,-2.71],[-79.84,-2.35],[-79.76,-2.79],[-77.17,-1.28],[-77.12,-0.48],[-75.9,0.85],[-78.61,2.12]]]},"properties":{"NAME":"Valdivia","SUBJECTO":"Valdivia","BORDERPRECISION":1}},
{"type":"Feature","geometry":{"type":"MultiPolygon","coordinates":[[[[139.54,35.29],[139.84,34.98],[139.91,34.9],[140.34,35.13],[140.63,35.65],[140.55,36.29],[140.98,37.27],[140.87,37.92],[141.06,38.34],[141.5,38.42],[141.64,39],[141.89,39.13],[141.98,39.7],[141.68,40.32],[141.13,40.86],[140.66,40.72],[140.47,40.99],[139.92,40.57],[139.91,39.89],[140.05,39.46],[139.75,38.68],[139.42,38.15],[138.86,37.74],[138.7,37.45],[137.89,37.02],[139.54,35.29]]],[[[144.88,43.97],[144.61,43.84],[143.51,44.16],[142.54,44.84],[141.88,45.44],[141.58,45.18],[141.77,44.83],[141.71,43.91],[141.35,43.74],[141.37,43.25],[141.06,43.1],[140.57,43.32],[140.5,42.9],[139.84,42.56],[139.78,42.25],[140.14,41.98],[139.99,41.53],[140.44,41.53],[140.77,42.01],[140.25,42.23],[140.46,42.57],[141,42.3],[141.45,42.57],[141.92,42.56],[143.12,42.02],[143.65,42.66],[144.36,43],[144.91,42.97],[145.44,43.18],[144.88,43.97]]]]},"properties":{"NAME":"Ainu","SUBJECTO":"Ainu","BORDERPRECISION":1}},
{"type":"Feature","geometry":{"type":"Polygon","coordinates":[[[74.21,14.75],[74.73,13.68],[75.21,12.1],[75.69,11.44],[76.4,9.82],[76.69,8.75],[77.18,8.21],[77.54,8.07],[78.06,8.39],[78.17,8.86],[78.43,9.11],[78.96,9.27],[78.94,9.59],[79.22,10.19],[79.83,10.36],[79.71,11.44],[79.87,12.03],[80.22,12.83],[80.32,13.33],[80.06,13.59],[80.17,13.89],[80.14,14.49],[74.21,14.75]]]},"properties":{"NAME":"Dravidians","SUBJECTO":"Dravidians","BORDERPRECISION":1}},
{"type":"Feature","geometry":{"type":"Polygon","coordinates":[[[30.57,-8.12],[30.29,-7.87],[30.15,-7.3],[29.51,-6.72],[29.19,-5.92],[29.37,-5.62],[29.12,-5.12],[29.14,-3.41],[29.65,-4.42],[29.61,-4.91],[29.81,-5.11],[29.76,-5.47],[29.95,-5.86],[29.75,-6.29],[30.14,-6.46],[30.53,-6.92],[30.6,-7.54],[30.94,-8.11],[32.48,-8.07],[31.96,-7.99],[32.03,-7.63],[32.53,-8.07],[39.44,-7.92],[39.27,-7.58],[39.54,-7.03],[38.85,-6.33],[38.78,-6.03],[39.26,-4.61],[39.41,-4.63],[40.12,-3.28],[40.24,-2.66],[40.64,-2.55],[40.89,-2.02],[41.32,-1.96],[41.97,-1.02],[42.56,-0.31],[43.49,0.65],[44.54,1.55],[45.89,2.35],[46.29,2.71],[-16.87,21.84],[-16.91,21.15],[-16.35,20.52],[-16.2,20.22],[-16.23,19.8],[-16.47,19.37],[-16.19,19.03],[-15.98,18.18],[-16.13,17.3],[-16.38,16.72],[-16.55,15.76],[-17.13,14.93],[-17.05,14.59],[-16.47,13.72],[-16.77,13.36],[-16.77,12.6],[-16.57,12.31],[-15.81,11.84],[-15.43,11.96],[-15.1,11.81],[-15.36,11.52],[-15.34,11.22],[-15.02,10.92],[-14.59,10.79],[-14.59,10.47],[-13.68,9.92],[-13.63,9.62],[-13.14,9.03],[-12.93,8.63],[-13.01,8.23],[-12.87,7.97],[-12.27,7.63],[-12.26,7.35],[-11.82,7.14],[-11.23,6.65],[-10.87,6.48],[-9.94,5.86],[-9.25,5.17],[-8.24,4.64],[-7.55,4.35],[-6.91,4.66],[-5.58,5.13],[-5,5.24],[-3.91,5.32],[-2.72,5.04],[-2.08,4.73],[-1.63,5.01],[-0.72,5.28],[0.31,5.78],[0.92,5.77],[1.14,6.07],[1.56,6.24],[2.88,6.38],[3.4,6.55],[3.95,6.58],[4.53,6.3],[4.89,6],[5.35,5.33],[5.61,4.63],[6.09,4.33],[6.95,4.37],[7.24,4.56],[8.28,4.54],[8.33,4.84],[8.87,4.62],[9.03,4.14],[9.65,4.02],[9.61,3.7],[9.97,3.09],[9.81,2.35],[9.85,1.88],[9.37,1.17],[9.62,1.09],[9.57,0.61],[9.84,0.18],[9.47,0.12],[9.2,-0.63],[8.83,-0.89],[9.24,-1.77],[9.66,-2.42],[10.3,-2.98],[11.01,-3.81],[11.77,-4.54],[12.26,-5.47],[12.2,-5.75],[12.37,-6.26],[12.8,-6.86],[12.96,-7.45],[13.39,-8.16],[13.48,-8.49],[30.57,-8.12]],[[29.25,-1.74],[29.36,-2.02],[28.86,-2.37],[29.07,-1.61],[29.25,-1.74]],[[29.37,-0.64],[29.5,-0.18],[29.87,-0.3],[29.37,-0.64]],[[30.49,1.17],[30.48,1.47],[31.38,2.26],[31.4,1.9],[30.49,1.17]],[[-1.15,8.87],[-0.72,8.4],[-0.13,8.01],[0.26,7.9],[0.25,6.67],[-0.01,6.38],[-0.32,6.62],[0.12,6.98],[0.18,7.27],[-0.53,8.06],[-1.15,8.87]],[[32.76,-2.98],[32.81,-2.52],[31.68,-2.28],[31.66,-1.93],[31.87,-1.09],[31.72,-0.79],[32.21,0.01],[33.14,0.25],[33.97,0.21],[34.28,-0.35],[34.16,-0.88],[33.68,-1.64],[33.28,-2.12],[33.81,-2.19],[33.42,-2.53],[32.89,-2.48],[32.96,-2.85],[32.76,-2.98]],[[36.63,2.42],[36.15,3.04],[35.85,3.78],[35.95,4.55],[36.17,4.63],[36.22,3.47],[36.43,3.01],[36.65,2.86],[36.63,2.42]]]},"properties":{"NAME":"Bantu","SUBJECTO":"Bantu","BORDERPRECISION":1}},
{"type":"Feature","geometry":{"type":"Polygon","coordinates":[[[143.15,-12.07],[142.82,-11.92],[142.64,-11.09],[142.16,-11.12],[141.95,-11.95],[141.69,-12.38],[141.92,-12.7],[141.6,-13.05],[141.68,-13.29],[141.51,-13.81],[141.67,-14.11],[141.52,-14.5],[141.71,-15.23],[141.41,-15.83],[141.43,-16.06],[141.13,-16.96],[140.8,-17.56],[140.25,-17.8],[139.82,-17.76],[139.25,-17.43],[138.96,-16.99],[138.26,-16.84],[137.76,-16.4],[137.07,-16.03],[136.69,-16.03],[136.09,-15.45],[135.42,-14.97],[135.41,-14.73],[135.96,-13.89],[135.89,-13.34],[136.47,-13.22],[136.66,-12.62],[136.86,-12.44],[136.43,-12.12],[136.3,-12.51],[135.44,-12.18],[134.94,-12.34],[134.76,-12.06],[134.41,-12.12],[133.56,-11.95],[132.93,-11.53],[132.66,-11.53],[132.75,-12.17],[132.4,-12.33],[131.54,-12.4],[131.18,-12.24],[130.86,-12.45],[130.84,-12.71],[130.46,-12.76],[130.27,-13.36],[129.78,-13.8],[129.43,-14.31],[129.84,-14.93],[129.63,-15.28],[129.19,-14.99],[128.46,-14.89],[128.07,-15.38],[127.96,-14.7],[127.53,-14.2],[126.85,-13.78],[126.55,-14.35],[126.14,-14.2],[125.86,-14.69],[125.16,-14.8],[125.02,-15.64],[124.69,-15.47],[124.42,-15.66],[124.59,-16.11],[124.28,-16.52],[123.71,-16.4],[123.61,-16.67],[123.91,-16.97],[123.3,-17.47],[122.87,-16.66],[122.62,-16.8],[122.15,-17.33],[122.34,-18.13],[121.78,-18.52],[121.24,-19.43],[120.71,-19.77],[119.81,-20.12],[119,-20.03],[118.61,-20.38],[118.19,-20.41],[117.6,-20.76],[116.42,-20.84],[115.35,-21.6],[114.55,-22.03],[114.31,-22.56],[113.66,-22.6],[113.82,-23.03],[113.67,-23.78],[113.38,-24.25],[114.04,-25.64],[114.26,-25.84],[114.19,-26.38],[113.59,-26.69],[114.07,-27.45],[114.16,-28.1],[114.59,-28.64],[114.98,-29.49],[114.94,-30.06],[115.05,-30.51],[115.74,-31.87],[115.71,-33.24],[115.41,-33.77],[114.96,-33.87],[115.02,-34.28],[115.65,-34.47],[115.97,-34.82],[116.46,-35],[117.53,-35.09],[118.08,-34.99],[118.94,-34.45],[119.21,-34.5],[119.62,-34.1],[120.03,-33.93],[121.93,-33.83],[123.54,-33.91],[124.28,-32.99],[124.75,-32.9],[125.96,-32.27],[127.33,-32.27],[128,-32.09],[128.95,-31.7],[130.26,-31.58],[130.75,-31.61],[131.12,-31.47],[131.67,-31.67],[132.2,-32.03],[132.59,-31.94],[133.14,-32.19],[133.59,-32.1],[134.3,-32.67],[134.33,-33.2],[134.71,-33.18],[134.84,-33.64],[135.26,-34],[135.43,-34.71],[135.79,-34.86],[135.94,-34.53],[136.58,-33.93],[137.21,-33.67],[137.6,-33.03],[137.9,-32.79],[138.17,-33.19],[137.51,-34.46],[138.23,-34.33],[138.57,-34.93],[138.53,-35.66],[139.36,-35.37],[139.42,-35.96],[139.86,-36.67],[139.82,-37.25],[140.36,-37.87],[140.97,-38.06],[141.57,-38.42],[141.72,-38.27],[142.39,-38.36],[143.55,-38.86],[144.98,-37.89],[145.44,-38.23],[145.9,-38.86],[146.87,-38.65],[147.54,-38.11],[148.31,-37.82],[149.46,-37.78],[149.95,-37.42],[149.9,-36.92],[150.22,-35.69],[150.7,-35.13],[150.93,-34.33],[151.27,-33.97],[151.36,-33.52],[151.81,-32.89],[152.46,-32.45],[152.56,-32.03],[152.83,-31.7],[153,-31.06],[152.94,-30.7],[153.49,-28.84],[153.4,-28.13],[152.95,-27.34],[153.09,-27.01],[153.07,-26.23],[152.89,-25.61],[152.53,-25.36],[152.32,-24.82],[152.07,-24.74],[151.73,-24.16],[151.2,-23.94],[150.8,-23.6],[150.75,-22.81],[150.61,-22.62],[149.94,-22.32],[149.56,-22.43],[149.1,-21.06],[148.57,-20.65],[148.76,-20.29],[148.19,-20.17],[147.59,-19.86],[147.41,-19.56],[147.08,-19.51],[146.32,-19.08],[145.92,-18.26],[146.02,-17.86],[145.87,-17.19],[145.33,-16.49],[145.35,-16.01],[145.18,-15.05],[144.53,-14.67],[144.39,-14.37],[144.06,-14.59],[143.74,-14.47],[143.47,-13.67],[143.44,-13.08],[143.29,-12.69],[142.97,-12.53],[143.15,-12.07]],[[136.15,-31.5],[136.05,-31.9],[135.64,-31.59],[135.61,-31.19],[136.08,-31.25],[136.15,-31.5]],[[137.48,-30.38],[137.93,-30.72],[138.13,-31.26],[137.83,-31.72],[137.63,-30.67],[137.48,-30.38]],[[137.71,-28.54],[137.91,-28.99],[137.02,-29.01],[136.89,-28.83],[137.03,-27.86],[137.7,-28.14],[137.71,-28.54]],[[129.16,-22.45],[128.82,-22.68],[128.34,-22.4],[128.79,-22.22],[129.16,-22.45]]]},"properties":{"NAME":"Aboriginal tribes","SUBJECTO":"Aboriginal tribes","BORDERPRECISION":1}},
{"type":"Feature","geometry":{"type":"Polygon","coordinates":[[[59.09,38.46],[58.42,37.76],[58.84,36.78],[60.39,36.34],[62.1,37.02],[62.58,38.28],[61.74,38.69],[60.84,38.49],[59.09,38.46]]]},"properties":{"NAME":"Namazga","SUBJECTO":"Namazga","BORDERPRECISION":1}},
{"type":"Feature","geometry":{"type":"Polygon","coordinates":[[[61.74,38.69],[62.74,38.92],[63.84,40.29],[64.75,42.28],[65.03,44.18],[64.2,46.08],[61.08,48.7],[56.69,50.34],[53.72,49.66],[52.7,48.28],[52.58,46.98],[53.28,46.68],[53.15,45.96],[52.56,45.4],[51.48,45.33],[51.1,44.88],[51.49,44.63],[50.33,44.56],[50.38,44.3],[50.96,44.2],[51.17,43.72],[52.03,42.87],[52.76,42.76],[52.56,41.76],[53.09,42.07],[53.99,42.11],[54.17,41.48],[54.75,41.14],[54.82,40.88],[53.75,40.62],[53.11,40.77],[52.83,40.47],[52.95,39.98],[53.52,39.78],[53.58,39.32],[54.07,38.9],[53.94,38.39],[55.27,38.36],[59.09,38.46],[60.84,38.49],[61.74,38.69]],[[57.43,41.58],[57.05,41.77],[57.18,42.19],[57.55,42.26],[57.82,41.7],[57.43,41.58]],[[58.63,45.6],[58.72,45.85],[59.86,46.07],[60.65,46.07],[60.36,46.64],[61.26,46.45],[61.22,46.27],[60.42,45.85],[60.04,45.52],[60.03,44.41],[59.81,44.18],[59.2,44.75],[59.45,45.16],[59.16,45.79],[58.72,45.43],[58.77,44.76],[58.23,44.85],[58.63,45.6]]]},"properties":{"NAME":"Kelteminar culture","SUBJECTO":" Kelteminar culture","BORDERPRECISION":1}},
{"type":"Feature","geometry":{"type":"MultiPolygon","coordinates":[[[[32.86,22.98],[32.33,22.58],[32.06,22.66],[31.54,22.2],[31.97,22.23],[32.86,22.98]]],[[[31.44,22.19],[31.88,22.64],[32.5,22.76],[32.92,23.03],[33.28,24.12],[32.91,25.11],[32.79,26.17],[31.78,26.93],[30.98,26.86],[31.03,26.08],[31.8,25.76],[32,23.83],[31.47,23.17],[31.44,22.19]]]]},"properties":{"NAME":"Naquada I","SUBJECTO":"Naquada I","BORDERPRECISION":1}},
{"type":"Feature","geometry":{"type":"Polygon","coordinates":[[[47.49,30.66],[47.47,30.81],[47.02,31.63],[45.3,32.6],[44.64,33.15],[45.14,34.54],[44.43,33.39],[43.42,33.71],[41.71,34.44],[41.74,33.82],[43.95,32.94],[44.05,32.06],[44.9,31.51],[45.92,30.21],[47.49,30.66]]]},"properties":{"NAME":"Ubaid","SUBJECTO":"Ubaid","BORDERPRECISION":1}},
{"type":"Feature","geometry":{"type":"Polygon","coordinates":[[[35.98,34.63],[35.65,34.24],[34.67,31.88],[35.15,31.49],[35.72,31.93],[36.19,32.8],[37.08,33.21],[36.61,34.32],[36.34,34.46],[35.98,34.63]]]},"properties":{"NAME":"Ghassul","SUBJECTO":"Ghassul","BORDERPRECISION":1}},
{"type":"Feature","geometry":{"type":"Polygon","coordinates":[[[36.34,34.46],[36.52,34.93],[37.48,35.22],[39,35.88],[38.6,36.75],[37.05,37.69],[35.4,37.26],[35.37,36.56],[36.06,36.91],[36.1,36.48],[35.79,36.28],[35.98,36],[35.73,35.58],[35.92,35.42],[35.98,34.63],[36.34,34.46]]]},"properties":{"NAME":"Amuq D","SUBJECTO":"Amuq D","BORDERPRECISION":1}},
{"type":"Feature","geometry":{"type":"Polygon","coordinates":[[[-6.89,37.16],[-6.05,36.19],[-5.64,36.02],[-5.22,36.41],[-4.76,36.49],[-4.45,36.72],[-2.93,36.75],[-1.94,36.95],[-1.63,37.44],[-2.31,37.81],[-3.84,38.2],[-6.26,37.95],[-6.89,37.16]]]},"properties":{"NAME":"La Almagra culture","SUBJECTO":"La Almagra culture","BORDERPRECISION":1}},
{"type":"Feature","geometry":{"type":"Polygon","coordinates":[[[21.12,39.04],[20.99,38.67],[21.17,38.35],[21.83,38.46],[22.46,38.43],[22.93,38.19],[22.75,37.95],[21.91,38.27],[21.44,38.18],[21.22,37.83],[22.03,37.02],[22.52,36.72],[22.89,37.05],[22.64,37.49],[23.05,37.64],[22.98,37.96],[23.42,38.07],[23.56,38.35],[22.91,38.76],[22.87,39.04],[21.69,39.13],[21.12,39.04]]]},"properties":{"NAME":"Dimini","SUBJECTO":"Dimini","BORDERPRECISION":1}},
{"type":"Feature","geometry":{"type":"MultiPolygon","coordinates":[[[[49.88,-12.94],[49.54,-12.7],[49.18,-12.27],[48.96,-12.46],[48.86,-13.25],[48.44,-13.65],[47.92,-13.74],[48.05,-14.16],[47.74,-14.31],[47.88,-14.72],[47.63,-14.98],[47.21,-15.01],[46.92,-15.36],[46.14,-15.83],[45.43,-16.09],[44.45,-16.24],[44.45,-16.73],[43.97,-17.55],[44.16,-18.4],[44.39,-18.79],[44.25,-19.1],[44.59,-19.53],[44.47,-20.17],[43.82,-21.32],[43.5,-21.49],[43.32,-22.11],[43.38,-22.63],[43.83,-23.41],[43.67,-24.23],[43.93,-24.52],[44.04,-24.99],[44.96,-25.39],[45.21,-25.59],[45.65,-25.51],[46.34,-25.17],[46.73,-25.17],[47.09,-24.97],[47.52,-23.97],[47.91,-22.46],[48.49,-20.84],[49.34,-18.23],[49.42,-17.2],[49.85,-16.57],[49.6,-15.65],[49.75,-15.4],[50.09,-15.9],[50.42,-15.6],[50.5,-15.31],[50.15,-14.42],[49.88,-12.94]]],[[[14.23,42.46],[13.99,42.71],[13.6,43.53],[12.7,43.93],[12.37,44.25],[12.25,44.72],[12.51,44.9],[12.18,45.21],[13.22,45.78],[13.84,44.88],[14.17,44.99],[14.33,45.35],[14.84,45.11],[14.91,44.72],[15.28,44.36],[15.45,43.93],[15.94,43.68],[16.88,43.4],[17.6,42.89],[18.89,42.27],[19.15,41.95],[19.59,41.81],[19.44,41.4],[19.53,40.87],[19.78,42.09],[19.07,44.86],[17.18,45.31],[14.51,46.31],[13.37,47.47],[6.6,46.31],[6.03,48.64],[4.64,48.19],[2.68,48.14],[2.04,47.26],[2.72,45.41],[2.36,44.23],[0.33,43.82],[0.01,42.73],[-1.49,42.38],[-1.38,41.48],[0.23,40.24],[0.88,41.02],[2.08,41.3],[3.13,41.86],[2.96,42.84],[3.26,43.23],[4.05,43.56],[4.65,43.36],[5.36,43.34],[5.96,43.12],[6.58,43.19],[7.16,43.66],[7.98,43.96],[8.67,44.42],[9.69,44.22],[10.24,43.87],[10.77,42.83],[12.64,41.53],[13.7,41.25],[13.76,41.85],[14.23,42.46]]],[[[9.73,40.37],[9.79,40.55],[9.31,41.18],[8.77,40.86],[8.24,40.86],[8.51,39.95],[8.39,39.35],[8.7,39],[9.02,39.27],[9.48,39.14],[9.63,39.42],[9.73,40.37]]],[[[9.27,41.52],[9.49,42.41],[9.15,42.71],[8.67,42.52],[8.57,42.22],[8.79,41.56],[9.27,41.52]]]]},"properties":{"NAME":"      ","SUBJECTO":"Cardial Ware culture","BORDERPRECISION":1}},
{"type":"Feature","geometry":{"type":"Polygon","coordinates":[[[48.91,54.55],[50.09,54.62],[54.15,55.17],[56.43,56.41],[57.12,58.19],[56.62,59.63],[55.48,59.5],[54.27,58.16],[50.28,57.18],[47.67,55.95],[47.54,54.84],[48.44,54.61],[48.91,54.55]]]},"properties":{"NAME":"Volga-Kamm","SUBJECTO":"Volga-Kamm","BORDERPRECISION":1}},
{"type":"Feature","geometry":{"type":"MultiPolygon","coordinates":[[[[13.7,41.25],[14.07,40.82],[14.37,40.85],[14.95,40.55],[14.94,40.23],[15.42,39.99],[15.67,40.09],[16.03,39.34],[15.94,38.7],[15.64,38],[16.05,37.93],[16.57,38.46],[16.52,38.73],[17.09,38.92],[17.14,39.4],[16.5,39.82],[16.95,40.48],[17.91,40.25],[18.04,39.93],[18.51,40.11],[18.03,40.6],[16.95,41.09],[15.99,41.41],[16.01,41.9],[15.45,41.86],[14.92,41.97],[14.23,42.46],[13.76,41.85],[13.7,41.25]]],[[[15.09,37.35],[15.39,38.21],[14.77,38.06],[13.71,37.98],[13.38,38.11],[12.66,38.07],[12.45,37.77],[14.62,36.78],[15.03,36.75],[15.3,37.06],[15.09,37.35]]]]},"properties":{"NAME":"Stentinello culture","SUBJECTO":"Stentinello culture","BORDERPRECISION":1}},
{"type":"Feature","geometry":{"type":"Polygon","coordinates":[[[38.89,61.24],[38.65,61.32],[37.34,61.75],[36.38,61.23],[35.76,60.89],[35.37,60.68],[34.41,60.94],[32.83,60.73],[32.61,60.25],[31.7,60.24],[31.1,59.93],[30.51,59.7],[30.08,57.95],[32.28,56.98],[34.41,56.04],[37.34,56.79],[38.56,57.76],[39.04,57.92],[40.04,57.38],[43.49,57.27],[42.18,59.35],[39.74,60.96],[38.89,61.24]],[[37.77,58.62],[38.12,58.95],[39.01,58.36],[38.38,58.12],[37.9,58.29],[37.77,58.62]]]},"properties":{"NAME":"Early combware","SUBJECTO":"Early combware","BORDERPRECISION":1}},
{"type":"Feature","geometry":{"type":"Polygon","coordinates":[[[30.51,59.7],[30.57,59.99],[29.98,60.46],[29.05,60.18],[29.88,60.15],[29.96,59.74],[29.08,59.91],[28.44,59.73],[27.7,59.3],[25.72,59.46],[23.48,59.13],[23.51,58.58],[24.11,58.23],[24.41,57.27],[23.77,56.87],[23.22,56.98],[22.56,57.62],[21.68,57.46],[20.97,56.36],[21.22,55.19],[25.5,55.55],[26.74,53.8],[28.16,53.82],[29.39,54.87],[29.51,55.67],[29.62,56.47],[30.08,57.95],[30.51,59.7]],[[27.88,57.92],[27.62,58.01],[26.97,58.81],[27.75,58.91],[27.58,58.31],[27.88,57.92]]]},"properties":{"NAME":"Narva","SUBJECTO":"Narva","BORDERPRECISION":1}},
{"type":"Feature","geometry":{"type":"Polygon","coordinates":[[[29.51,55.67],[29.39,54.87],[28.16,53.82],[26.74,53.8],[25.5,55.55],[21.22,55.19],[20.99,54.81],[19.94,54.85],[20.19,54.52],[19.73,54.31],[19.99,53.99],[22.68,52.72],[26.45,52.13],[26.99,51.88],[28.4,52.41],[29.88,54.52],[29.51,55.67]]]},"properties":{"NAME":"Nemay","SUBJECTO":"Nemay","BORDERPRECISION":1}},
{"type":"Feature","geometry":{"type":"MultiPolygon","coordinates":[[[[13.92,59.33],[13.98,58.87],[13.04,58.6],[12.7,59.02],[11.52,59.87],[10.38,60.39],[8.6,59.21],[8.35,58.24],[10.36,59.26],[11.19,59.07],[11.2,58.4],[11.89,58.21],[11.7,57.72],[12.09,57.43],[12.35,56.91],[12.94,56.52],[12.45,56.29],[13.06,55.69],[12.98,55.4],[14.19,55.39],[14.22,55.83],[14.72,56.16],[16.01,56.22],[16.37,56.72],[16.78,57.92],[16.77,58.37],[17.16,58.73],[18.31,59.13],[18.31,59.39],[18.93,59.92],[17.95,60.6],[17.28,60.68],[17.15,60.95],[17.34,61.82],[16.83,61.73],[15.95,60.49],[13.92,59.33]]],[[[26.99,51.88],[26.45,52.13],[22.68,52.72],[19.99,53.99],[19.73,54.31],[19.33,54.16],[18.51,54.32],[18.28,54.72],[17.66,54.69],[16.47,54.42],[15.9,54.13],[13.78,53.78],[12.65,54.32],[11.58,54.04],[10.14,54.34],[9.42,54.98],[9.59,55.42],[10.17,55.83],[10.22,56.85],[9.37,56.88],[9.31,56.48],[8.15,56.11],[8.39,55.89],[8.09,55.55],[8.6,55.44],[8.61,54.84],[9.02,54.5],[8.85,53.75],[8.17,53.32],[7.97,53.64],[7.17,53.59],[6.75,53.39],[5.97,53.34],[5.41,53.15],[5.42,52.87],[5.86,52.61],[5.47,52.18],[4.58,52.46],[4.26,52.07],[3.52,51.58],[3.82,51.34],[3.45,50.92],[3.25,50.34],[4.93,49.85],[6.81,50.57],[7.98,50.02],[7.11,47.61],[12.66,47.74],[13.78,48.52],[15.92,48.22],[18.51,48.15],[19.37,48.93],[21.26,48.89],[21.51,49.56],[23.19,50.12],[27.41,50.41],[28.38,51.24],[26.99,51.88]]],[[[12.5,55.6],[12.62,56.04],[12.28,56.13],[11.09,55.66],[11.24,55.2],[12.04,55.17],[12.5,55.6]]],[[[10.14,55.12],[10.83,55.29],[10.31,55.62],[9.92,55.51],[10.14,55.12]]]]},"properties":{"NAME":"Funnel-Beaker","SUBJECTO":"Funnel-Beaker","BORDERPRECISION":1}},
{"type":"Feature","geometry":{"type":"Polygon","coordinates":[[[47.64,32.56],[48.05,31.9],[48.78,31.95],[49.25,32.1],[48.72,32.69],[47.52,33.5],[46.74,33.77],[46.37,33.5],[47.01,32.78],[47.64,32.56]]]},"properties":{"NAME":"Elam","SUBJECTO":"Elam","BORDERPRECISION":1}}
]}