{"type":"FeatureCollection", "features": [
{"type":"Feature","geometry":{"type":"MultiPolygon","coordinates":[[[[17,-29.63],[18.49,-34.4],[26.66,-33.85],[32.23,-28.74],[34.88,-24.72],[34.73,-19.86],[39.47,-16.72],[40.6,-14.4],[38.92,-6.34],[40.23,-3.19],[43.72,0.8],[48.47,5.2],[51.18,11.78],[44.28,10.4],[42.08,13.86],[39.52,15.46],[37.4,18.92],[32.65,29.85],[33.56,30.97],[29.25,30.75],[20.37,32.3],[18.92,30.2],[10.02,34.08],[10.13,37.1],[1.06,36.46],[-2.04,35.05],[-5.93,35.73],[-9.22,32.58],[-11.72,28.17],[-11.12,25.03],[0.15,22.19],[10.43,19.06],[15.01,17.42],[21.33,16.23],[27.15,12.03],[31.49,5.05],[31.36,-1.63],[28.89,-8.05],[25.54,-14.36],[24.68,-22.69],[23.07,-26.18],[17,-29.63]]],[[[41.33,18.6],[43.84,12.66],[52.14,15.69],[57.84,19.03],[59.84,22.28],[54.83,24.79],[56.63,20.17],[50.63,16.59],[45.3,15.93],[41.33,18.6]]]]},"properties":{"NAME":"Homo heidelbergensis","SUBJECTO":"Homo heidelbergensis","BORDERPRECISION":1}},
{"type":"Feature","geometry":{"type":"Polygon","coordinates":[[[49.23,27.3],[51.35,28.04],[57.1,26.14],[64.27,26.49],[69.23,31.98],[66.02,34.5],[70.1,36.02],[67.56,40.25],[57.97,41.19],[52.92,40.63],[47.25,40.91],[41.65,42.11],[38.65,40.92],[33.56,41.98],[26.13,39.88],[27.16,37.36],[30.47,36.19],[35.71,36.21],[33.89,31.06],[37.93,28.51],[49.23,27.3]]]},"properties":{"NAME":"Neanderthal","SUBJECTO":"Neanderthal","BORDERPRECISION":1}},
{"type":"Feature","geometry":{"type":"Polygon","coordinates":[[[-2.8,51.56],[-3.95,47.9],[-1.08,46.01],[-1.56,43.52],[-7.64,43.72],[-9.55,38.77],[-8.67,37.12],[-2.24,36.73],[4.08,43.49],[8.9,44.44],[12.64,41.53],[15.41,43.93],[19.37,40.26],[28.83,40.91],[27.5,42.52],[30.26,46.03],[24.69,49.88],[19.83,49.9],[14.07,51.04],[3.73,49.86],[1.54,50.63],[0.63,50.91],[-2.8,51.56]]]},"properties":{"NAME":"Neanderthal","SUBJECTO":"Neanderthal","BORDERPRECISION":1}},
{"type":"Feature","geometry":{"type":"Polygon","coordinates":[[[63.89,25.38],[66.7,24.75],[69.49,22.25],[73.48,14.8],[76.7,8.71],[79.95,8.35],[80.14,14.49],[85.16,18.37],[90.87,20.5],[92.75,19.84],[95.02,15.37],[97.51,15.33],[97.6,5.15],[100.81,-2.34],[106.48,-7.5],[112.41,-8.49],[113.73,-4.81],[115.57,-3.8],[117.91,1.59],[115.68,6.7],[111.1,5.22],[106.28,4.63],[107.84,9.84],[109.39,11.15],[108.79,15.09],[112.47,20.85],[118.42,23.6],[121.83,24.03],[122.5,29.41],[120.98,33.77],[108.47,33.35],[104.01,32.41],[102.28,29.33],[92.37,26.37],[85.56,27.36],[79.24,30.61],[73.17,34.07],[69.23,31.98],[64.27,26.49],[63.89,25.38]]]},"properties":{"NAME":"Homo erectus","SUBJECTO":"Homo erectus","BORDERPRECISION":1}}
]}