{"type":"FeatureCollection", "features": [
{"type":"Feature","geometry":{"type":"MultiPolygon","coordinates":[[[[-160.24,70.86],[-143.61,68.65],[-128.37,66.88],[-112.03,66.19],[-92.89,62.13],[-92.46,62.79],[-90,63.3],[-93.32,63.97],[-90,63.61],[-85.99,66.16],[-92.96,69.08],[-101.91,67.71],[-112.5,67.69],[-119.98,69.38],[-120.22,69.42],[-124.6,69.46],[-124.71,69.94],[-125.39,69.82],[-125.19,69.41],[-126.62,69.68],[-127.35,70.38],[-128.01,70.64],[-127.73,70.19],[-132.79,68.71],[-133.34,68.8],[-133.72,68.92],[-130.24,70.21],[-136.04,69.34],[-135.5,68.72],[-152.49,70.7],[-152.65,70.82],[-156.14,70.93],[-156.04,71.22],[-160.24,70.86]]],[[[-107.59,71.9],[-114.65,73.35],[-118.99,72.03],[-117.57,69.99],[-113.15,68.6],[-101.06,70.03],[-107.59,71.9]]],[[[-101.81,76.44],[-101.68,76.06],[-102.52,75.92],[-99.9,75.61],[-100.13,75.49],[-98.16,75.44],[-97.82,76.48],[-100.5,76.65],[-99.91,76.17],[-101.81,76.44]]],[[[-75.92,82.52],[-90,82.02],[-85.81,78.91],[-71.45,79.85],[-75.92,82.52]]],[[[-72.55,78.32],[-69.04,76.29],[-58.64,75.79],[-55.99,73.92],[-52.06,74.7],[-58.83,78.24],[-72.55,78.32]]],[[[-79.08,70.65],[-79.07,72.01],[-81.53,73.69],[-88.1,73.64],[-90,71.54],[-82.27,69.86],[-79.08,70.65]]]]},"properties":{"NAME":"Thule","SUBJECTO":"Thule","BORDERPRECISION":1}},
{"type":"Feature","geometry":{"type":"Polygon","coordinates":[[[-58.13,49.5],[-56.08,47.87],[-54.13,48.84],[-56.66,50.06],[-58.13,49.5]]]},"properties":{"NAME":"Beothuk","SUBJECTO":"Beothuk","BORDERPRECISION":1}},
{"type":"Feature","geometry":{"type":"Polygon","coordinates":[[[-155.93,20.28],[-156.03,19.11],[-154.95,19.48],[-155.93,20.28]]]},"properties":{"NAME":"Polynesians","SUBJECTO":"Polynesians","BORDERPRECISION":1}},
{"type":"Feature","geometry":{"type":"Polygon","coordinates":[[[33.78,35.21],[32.82,35.28],[32.6,34.61],[33.92,34.95],[33.78,35.21]]]},"properties":{"NAME":"Cyprus","SUBJECTO":"Cyprus","BORDERPRECISION":1}},
{"type":"Feature","geometry":{"type":"Polygon","coordinates":[[[140.01,41.38],[143.21,41.93],[145.06,43.79],[141.88,45.44],[140.01,41.38]]]},"properties":{"NAME":"Ainus","SUBJECTO":"Ainus","BORDERPRECISION":1}},
{"type":"Feature","geometry":{"type":"Polygon","coordinates":[[[44.67,-16.24],[44.47,-20.17],[43.5,-21.49],[43.67,-24.23],[45.58,-25.62],[47.26,-24.77],[49.34,-18.23],[50.5,-15.31],[49.82,-12.83],[46.92,-15.36],[44.67,-16.24]],[[48.01,-17.02],[48.49,-20.04],[47.19,-23.12],[45.29,-22.65],[46.65,-17.73],[48.01,-17.02]]]},"properties":{"NAME":"Madagascar","SUBJECTO":"Madagascar","BORDERPRECISION":1}},
{"type":"Feature","geometry":{"type":"MultiPolygon","coordinates":[[[[175.31,-37.32],[174.65,-38.98],[176.01,-41.26],[178.41,-38.77],[175.31,-37.32]]],[[[172.06,-43.92],[171.46,-41.99],[166.52,-46.23],[169.4,-46.71],[172.06,-43.92]]]]},"properties":{"NAME":"Maori","SUBJECTO":"Maori","BORDERPRECISION":1}},
{"type":"Feature","geometry":{"type":"Polygon","coordinates":[[[-7.49,37.21],[-6.71,41.96],[-8.81,41.89],[-9.55,38.77],[-7.49,37.21]]]},"properties":{"NAME":"Portugal","SUBJECTO":"Portugal","BORDERPRECISION":1}},
{"type":"Feature","geometry":{"type":"Polygon","coordinates":[[[48.01,-17.02],[46.65,-17.73],[45.29,-22.65],[47.19,-23.12],[48.49,-20.04],[48.01,-17.02]]]},"properties":{"NAME":"Expansionist Kingdom of Merina","SUBJECTO":"Expansionist Kingdom of Merina","BORDERPRECISION":1}},
{"type":"Feature","geometry":{"type":"Polygon","coordinates":[[[8.82,38.98],[9.79,40.56],[8.24,40.86],[8.82,38.98]]]},"properties":{"NAME":"Sardinia","SUBJECTO":"Sardinia","BORDERPRECISION":1}},
{"type":"Feature","geometry":{"type":"Polygon","coordinates":[[[109.43,18.1],[110.26,18.63],[110.62,20.02],[108.58,19.19],[109.43,18.1]]]},"properties":{"NAME":"Hainan","SUBJECTO":"Hainan","BORDERPRECISION":1}},
{"type":"Feature","geometry":{"type":"Polygon","coordinates":[[[80.56,5.93],[81.87,7.08],[80.66,9.3],[79.67,8.8],[80.56,5.93]]]},"properties":{"NAME":"Sinhalese kingdom","SUBJECTO":"Sinhalese kingdom","BORDERPRECISION":1}},
{"type":"Feature","geometry":{"type":"Polygon","coordinates":[[[23.95,59.17],[21.68,57.46],[21.14,54.85],[18.68,54.25],[21.46,53.82],[22.23,54.13],[21.9,56.35],[27.37,55.72],[27.61,56.71],[27.66,58.96],[23.95,59.17]]]},"properties":{"NAME":"Teutonic Knights","SUBJECTO":"Teutonic Knights","BORDERPRECISION":1}},
{"type":"Feature","geometry":{"type":"Polygon","coordinates":[[[-2.14,43.33],[-2.13,41.82],[-0.91,42.88],[-1.91,43.31],[-2.14,43.33]]]},"properties":{"NAME":"Navarre","SUBJECTO":"Navarre","BORDERPRECISION":1}},
{"type":"Feature","geometry":{"type":"Polygon","coordinates":[[[44.28,10.4],[42.81,11.78],[41.57,10.29],[44.28,10.4]]]},"properties":{"NAME":"Shoa","SUBJECTO":"Shoa","BORDERPRECISION":1}},
{"type":"Feature","geometry":{"type":"Polygon","coordinates":[[[6.76,5.83],[6.88,8.64],[5.34,8.72],[3.95,6.58],[5.45,5.48],[6.09,4.33],[6.76,5.83]]]},"properties":{"NAME":"Benin","SUBJECTO":"Benin","BORDERPRECISION":1}},
{"type":"Feature","geometry":{"type":"Polygon","coordinates":[[[10.46,12.47],[12.35,11.2],[14.71,12.51],[15.01,15.04],[13.31,20.97],[12.64,21],[11.77,16.21],[10.07,14.22],[10.46,12.47]]]},"properties":{"NAME":"Bornu-Kanem","SUBJECTO":"Bornu-Kanem","BORDERPRECISION":1}},
{"type":"Feature","geometry":{"type":"Polygon","coordinates":[[[46.88,13.47],[46.66,15.42],[45.24,17.69],[42.76,16.65],[43.84,12.66],[46.88,13.47]]]},"properties":{"NAME":"Yemen","SUBJECTO":"Yemen","BORDERPRECISION":1}},
{"type":"Feature","geometry":{"type":"Polygon","coordinates":[[[85.38,19.61],[84.3,20.75],[79.33,17.23],[80.46,15.77],[82.23,16.65],[85.38,19.61]]]},"properties":{"NAME":"Orissa","SUBJECTO":"Orissa","BORDERPRECISION":1}},
{"type":"Feature","geometry":{"type":"Polygon","coordinates":[[[-90,19.38],[-88.74,16.27],[-87.2,21.53],[-90,21.16],[-90,19.38]]]},"properties":{"NAME":"Maya city-states","SUBJECTO":"Maya city-states","BORDERPRECISION":1}},
{"type":"Feature","geometry":{"type":"Polygon","coordinates":[[[-98.7,19],[-101.98,21.02],[-102.19,19.52],[-99.11,17.49],[-98.7,19]]]},"properties":{"NAME":"Mixtec Empire","SUBJECTO":"Mixtec Empire","BORDERPRECISION":1}},
{"type":"Feature","geometry":{"type":"Polygon","coordinates":[[[-99.11,17.49],[-99.21,16.72],[-96.33,15.75],[-95.13,16.3],[-98.7,19],[-99.11,17.49]]]},"properties":{"NAME":"Zapotec Empire","SUBJECTO":"Zapotec Empire","BORDERPRECISION":1}},
{"type":"Feature","geometry":{"type":"Polygon","coordinates":[[[-76.71,-12.76],[-76.4,-10.5],[-77.93,-7.91],[-80.07,-6.76],[-76.71,-12.76]]]},"properties":{"NAME":"Chimú Empire","SUBJECTO":"Chimú Empire","BORDERPRECISION":1}},
{"type":"Feature","geometry":{"type":"Polygon","coordinates":[[[-71.61,-17.22],[-70.21,-19.07],[-70.49,-25.47],[-68.06,-26.47],[-68.03,-26.03],[-67.82,-22.47],[-67.36,-19.19],[-67.94,-15.43],[-69.54,-13.82],[-71.61,-17.22]]]},"properties":{"NAME":"Aymara kingdoms","SUBJECTO":"Aymara kingdoms","BORDERPRECISION":1}},
{"type":"Feature","geometry":{"type":"Polygon","coordinates":[[[-76.71,-12.76],[-74.05,-16.04],[-71.61,-17.22],[-69.54,-13.82],[-75.58,-10.61],[-80.04,-4.27],[-81.04,-4.05],[-80.07,-6.76],[-77.93,-7.91],[-76.4,-10.5],[-76.71,-12.76]]]},"properties":{"NAME":"Andean states and chiefdoms","SUBJECTO":"Andean states and chiefdoms","BORDERPRECISION":1}},
{"type":"Feature","geometry":{"type":"Polygon","coordinates":[[[-5.03,35.34],[-9.22,32.58],[-9.63,30.41],[-4.81,31.65],[-5.03,35.34]]]},"properties":{"NAME":"Merinides","SUBJECTO":"Merinides","BORDERPRECISION":1}},
{"type":"Feature","geometry":{"type":"Polygon","coordinates":[[[-15.33,11.93],[-6.83,10.11],[-1.36,10.82],[2.88,13.2],[4.29,13.99],[5.34,17.17],[4.29,18.05],[-0.48,18.76],[-7.71,17.88],[-16.04,17.67],[-17.03,14.56],[-15.81,11.84],[-15.33,11.93]]]},"properties":{"NAME":"Mali","SUBJECTO":"Mali","BORDERPRECISION":1}},
{"type":"Feature","geometry":{"type":"Polygon","coordinates":[[[40.72,10.12],[39.14,13.88],[36.72,13.88],[35.51,10.01],[35.97,8.08],[38.72,7.11],[40.72,10.12]]]},"properties":{"NAME":"Ethiopia","SUBJECTO":"Ethiopia","BORDERPRECISION":1}},
{"type":"Feature","geometry":{"type":"Polygon","coordinates":[[[33.4,-20.02],[31.28,-18.64],[29.69,-18.82],[28.63,-19.88],[28.62,-19.95],[28.28,-21.47],[29.34,-23.05],[31.1,-23.05],[32.87,-22],[33.4,-20.02]]]},"properties":{"NAME":"Great Zimbabwe","SUBJECTO":"Great Zimbabwe","BORDERPRECISION":1}},
{"type":"Feature","geometry":{"type":"Polygon","coordinates":[[[37.48,18.82],[33.12,20.59],[29.51,20.03],[30.98,15.62],[35.16,15.51],[38.9,17.36],[37.48,18.82]]]},"properties":{"NAME":"Makkura","SUBJECTO":"Makkura","BORDERPRECISION":1}},
{"type":"Feature","geometry":{"type":"Polygon","coordinates":[[[30.98,15.62],[30.75,12.35],[33.91,12.01],[35.16,15.51],[30.98,15.62]]]},"properties":{"NAME":"Alwa","SUBJECTO":"Alwa","BORDERPRECISION":1}},
{"type":"Feature","geometry":{"type":"Polygon","coordinates":[[[46.88,13.47],[55.19,17.15],[57.84,19.03],[57.93,20.4],[53.96,19.73],[50.51,17.15],[46.66,15.42],[46.88,13.47]]]},"properties":{"NAME":"Hadramaut","SUBJECTO":"Hadramaut","BORDERPRECISION":1}},
{"type":"Feature","geometry":{"type":"Polygon","coordinates":[[[54.77,24.73],[57.93,20.4],[59.84,22.28],[54.77,24.73]]]},"properties":{"NAME":"Muscat","SUBJECTO":"Muscat","BORDERPRECISION":1}},
{"type":"Feature","geometry":{"type":"Polygon","coordinates":[[[40.4,-11.23],[38.92,-6.34],[40.23,-3.19],[43.72,0.8],[46.23,2.55],[46.36,2.67],[47.64,4.1],[44.28,3.36],[43.41,2.51],[39.42,-1.38],[37.73,-4.58],[37.98,-6.93],[38.74,-10.22],[40.4,-11.23]]]},"properties":{"NAME":"Islamic city-states","SUBJECTO":"Islamic city-states","BORDERPRECISION":1}},
{"type":"Feature","geometry":{"type":"Polygon","coordinates":[[[76.08,10.55],[77.9,8.26],[79.71,11.44],[78.16,11.06],[76.08,10.55]]]},"properties":{"NAME":"Pandya state","SUBJECTO":"Pandya state","BORDERPRECISION":1}},
{"type":"Feature","geometry":{"type":"Polygon","coordinates":[[[79.71,11.44],[80.09,14.95],[77.45,14.2],[78.16,11.06],[79.71,11.44]]]},"properties":{"NAME":"Chola state","SUBJECTO":"Chola state","BORDERPRECISION":1}},
{"type":"Feature","geometry":{"type":"MultiPolygon","coordinates":[[[[84.3,20.75],[82,22.87],[75.14,21.21],[73.55,21.78],[73.19,24.68],[68.88,23],[69.13,21.97],[72.76,20.06],[73.84,15.39],[76.08,10.55],[78.16,11.06],[77.45,14.2],[80.09,14.95],[80.46,15.77],[79.33,17.23],[84.3,20.75]]],[[[110.97,1.23],[111.26,0.79],[114.57,3.5],[116.43,1.36],[114.63,-1.66],[115.96,-3.2],[116.05,-1.93],[118.52,1.17],[117.07,3.51],[119.04,5.17],[116.6,6.9],[110.97,1.23]]],[[[120.43,0.64],[118.68,-2.9],[120.42,-2.88],[120.11,-0.99],[120.45,0.38],[120.43,0.64]]]]},"properties":{"NAME":"minor Hindu kingdoms","SUBJECTO":"minor Hindu kingdoms","BORDERPRECISION":1}},
{"type":"Feature","geometry":{"type":"Polygon","coordinates":[[[91.41,22.72],[94.05,19.06],[95.33,15.68],[97.57,16.45],[100.23,20.39],[100.5,24.31],[98.59,25.76],[92.03,25.43],[91.41,22.72]]]},"properties":{"NAME":"Pagan","SUBJECTO":"Pagan","BORDERPRECISION":1}},
{"type":"Feature","geometry":{"type":"Polygon","coordinates":[[[107.02,15.02],[107.01,17.04],[105.53,18.84],[107.47,20.98],[105.41,21.9],[101.66,19.66],[101.65,18],[104.93,17.45],[105.88,14.46],[107.02,15.02]]]},"properties":{"NAME":"Đại Việt","SUBJECTO":"Đại Việt","BORDERPRECISION":1}},
{"type":"Feature","geometry":{"type":"Polygon","coordinates":[[[105.88,14.46],[100.91,13.45],[103.04,10.9],[104.98,9.98],[108.94,11.41],[107.51,11.67],[107.02,15.02],[105.88,14.46]]]},"properties":{"NAME":"Khmer Empire","SUBJECTO":"Khmer Empire","BORDERPRECISION":1}},
{"type":"Feature","geometry":{"type":"Polygon","coordinates":[[[107.02,15.02],[107.51,11.67],[108.94,11.41],[108.79,15.09],[107.01,17.04],[107.02,15.02]]]},"properties":{"NAME":"Champa","SUBJECTO":"Champa","BORDERPRECISION":1}},
{"type":"Feature","geometry":{"type":"Polygon","coordinates":[[[100.91,13.45],[100.21,14.2],[99.93,13.26],[100.91,13.45]]]},"properties":{"NAME":"Luva","SUBJECTO":"Luva","BORDERPRECISION":1}},
{"type":"Feature","geometry":{"type":"Polygon","coordinates":[[[98.64,27.48],[100.68,28.69],[102.41,33.72],[101.69,36.31],[95.52,37.1],[91.69,36.36],[89.92,35.19],[81.79,34.77],[79.9,34.05],[80.05,29.98],[86.23,27],[88.66,26.41],[95.08,28.72],[97.61,28.94],[98.64,27.48]]]},"properties":{"NAME":"Tibet","SUBJECTO":"Mongol Empire","BORDERPRECISION":1}},
{"type":"Feature","geometry":{"type":"Polygon","coordinates":[[[85.38,19.61],[90,22.98],[90,25.69],[88.66,26.41],[86.23,27],[80.05,29.98],[73.48,32.99],[72.79,34.22],[69.83,31.76],[66.3,25.49],[68.88,23],[73.19,24.68],[73.55,21.78],[75.14,21.21],[82,22.87],[84.3,20.75],[85.38,19.61]]]},"properties":{"NAME":"Sultanate of Delhi","SUBJECTO":"Sultanate of Delhi","BORDERPRECISION":1}},
{"type":"Feature","geometry":{"type":"Polygon","coordinates":[[[81.79,34.77],[81.25,35.32],[76.01,35.5],[72.79,34.22],[73.48,32.99],[80.05,29.98],[79.9,34.05],[81.79,34.77]]]},"properties":{"NAME":"Kashmir and Ladakh","SUBJECTO":"Kashmir and Ladakh","BORDERPRECISION":1}},
{"type":"Feature","geometry":{"type":"Polygon","coordinates":[[[72.79,34.22],[76.01,35.5],[81.25,35.32],[92,41.91],[90,43.9],[90,46.43],[93.81,48.05],[93.81,49.68],[90,50.07],[85.68,50.31],[79.18,49.41],[70.5,50.13],[63.55,45.25],[60.03,42.36],[62.1,40.37],[67.88,36.85],[69.83,31.76],[72.79,34.22]]]},"properties":{"NAME":"Chagatai Khanate","SUBJECTO":"Mongol Empire","BORDERPRECISION":1}},
{"type":"Feature","geometry":{"type":"Polygon","coordinates":[[[18.68,54.25],[17.66,54.69],[14.97,50.98],[18.71,49.59],[21.77,49.74],[21.46,53.82],[18.68,54.25]]]},"properties":{"NAME":"Poland","SUBJECTO":"Poland","BORDERPRECISION":1}},
{"type":"Feature","geometry":{"type":"Polygon","coordinates":[[[22.23,54.13],[23.38,52.35],[27.04,52.94],[27.37,55.72],[21.9,56.35],[22.23,54.13]]]},"properties":{"NAME":"Lithuania","SUBJECTO":"Lithuania","BORDERPRECISION":1}},
{"type":"Feature","geometry":{"type":"Polygon","coordinates":[[[20.99,44.7],[21.49,42.88],[24.3,42.03],[27.89,43.06],[29.71,45.26],[24.23,43.79],[22.66,44.64],[20.99,44.7]]]},"properties":{"NAME":"Bulgar Khanate","SUBJECTO":"Bulgar Khanate","BORDERPRECISION":1}},
{"type":"Feature","geometry":{"type":"Polygon","coordinates":[[[27.61,56.71],[38.86,58.36],[41.21,61.16],[46.04,62.08],[45.96,57.73],[54.92,58.11],[53.1,61.49],[48,64.95],[44.05,66.04],[37.41,63.75],[34.29,65.4],[27.23,63.35],[29.69,60.13],[27.7,59.3],[27.66,58.96],[27.61,56.71]]]},"properties":{"NAME":"Novgorod","SUBJECTO":"Mongol Empire","BORDERPRECISION":1}},
{"type":"Feature","geometry":{"type":"Polygon","coordinates":[[[27.37,55.72],[27.04,52.94],[23.38,52.35],[22.23,54.13],[21.46,53.82],[21.77,49.74],[27.43,47.38],[29.85,49.28],[34.68,48.56],[38.27,50.91],[43.63,52.22],[43.63,54.96],[45.96,57.73],[46.04,62.08],[41.21,61.16],[38.86,58.36],[27.61,56.71],[27.37,55.72]]]},"properties":{"NAME":"Ryazan","SUBJECTO":"Mongol Empire","BORDERPRECISION":1}},
{"type":"Feature","geometry":{"type":"Polygon","coordinates":[[[54.92,58.11],[58.29,58.42],[70.69,62.54],[77.04,61.97],[85.08,58.16],[93.98,56.89],[109.08,57.6],[118.11,56.89],[126.44,54.92],[136.49,53.65],[134.99,54.85],[142.85,59.27],[148.42,59.1],[154.32,59.98],[157.1,61.63],[160.64,60.72],[156.78,57.58],[155.47,54.92],[156.7,50.96],[161.5,55.29],[163.39,59.81],[170.34,60.28],[179.29,62.82],[180,64.95],[180,65.05],[180,65.31],[180,65.38],[180,65.96],[180,66.96],[180,67.96],[180,68.92],[175.61,69.78],[159.44,69.76],[152.13,70.66],[141.29,72.79],[137.63,71.08],[126.22,72.38],[108.34,73.69],[113.53,76.09],[103.39,77.56],[99.47,75.97],[90,75.6],[87.69,73.9],[72.71,72.77],[62.28,69.71],[53.89,68.79],[44.05,66.04],[48,64.95],[53.1,61.49],[54.92,58.11]]]},"properties":{"NAME":"Siberians","SUBJECTO":"Siberians","BORDERPRECISION":1}},
{"type":"Feature","geometry":{"type":"Polygon","coordinates":[[[20.99,44.7],[16.64,43.39],[19.61,41.76],[21.49,42.88],[20.99,44.7]]]},"properties":{"NAME":"Serbia","SUBJECTO":"Serbia","BORDERPRECISION":1}},
{"type":"Feature","geometry":{"type":"Polygon","coordinates":[[[24.69,34.94],[24.39,35.37],[23.53,35.57],[23.57,35.25],[24.32,35.21],[24.69,34.94]]]},"properties":{"NAME":"Venice","SUBJECTO":"Venice","BORDERPRECISION":1}},
{"type":"Feature","geometry":{"type":"Polygon","coordinates":[[[9.43,42.79],[8.61,42.49],[8.73,41.56],[9.45,42.05],[9.43,42.79]]]},"properties":{"NAME":"Corsica","SUBJECTO":"Corsica","BORDERPRECISION":1}},
{"type":"Feature","geometry":{"type":"Polygon","coordinates":[[[12.7,43.93],[11.96,42.01],[13.76,41.21],[14.08,42.63],[12.7,43.93]]]},"properties":{"NAME":"Papal States","SUBJECTO":"Papal States","BORDERPRECISION":1}},
{"type":"Feature","geometry":{"type":"Polygon","coordinates":[[[13.76,41.21],[15.67,40.09],[17.08,40.53],[14.08,42.63],[13.76,41.21]]]},"properties":{"NAME":"Sicily","SUBJECTO":"Sicily","BORDERPRECISION":1}},
{"type":"Feature","geometry":{"type":"Polygon","coordinates":[[[18.71,49.59],[14.35,45.32],[16.64,43.39],[20.99,44.7],[22.66,44.64],[26.52,45.82],[27.43,47.38],[21.77,49.74],[18.71,49.59]]]},"properties":{"NAME":"Hungary","SUBJECTO":"Hungary","BORDERPRECISION":1}},
{"type":"Feature","geometry":{"type":"Polygon","coordinates":[[[7.4,43.76],[5.53,46.1],[5.36,49.7],[1.8,50.92],[0.03,49.33],[-4.76,48.55],[-2.01,47.75],[-1.26,46.31],[1.64,45.8],[-0.41,42.79],[1.32,42.61],[1.46,42.62],[2.95,42.88],[7.4,43.76]]]},"properties":{"NAME":"France","SUBJECTO":"France","BORDERPRECISION":1}},
{"type":"Feature","geometry":{"type":"Polygon","coordinates":[[[-2.62,36.81],[-6.63,37.02],[-5.66,36.01],[-2.62,36.81]]]},"properties":{"NAME":"Granada","SUBJECTO":"Granada","BORDERPRECISION":1}},
{"type":"Feature","geometry":{"type":"Polygon","coordinates":[[[-7.49,37.21],[-6.63,37.02],[-2.62,36.81],[-1.94,36.95],[-2.13,41.82],[-2.14,43.33],[-7.64,43.72],[-8.81,41.89],[-6.71,41.96],[-7.49,37.21]]]},"properties":{"NAME":"Castile","SUBJECTO":"Castile","BORDERPRECISION":1}},
{"type":"Feature","geometry":{"type":"Polygon","coordinates":[[[38.37,35.14],[35.81,36.3],[35.87,34.42],[33.56,30.97],[29.25,30.75],[21.67,32.82],[20.12,30.96],[17.96,30.77],[17.97,28.61],[25.44,28.01],[27.43,27.2],[29.34,24.03],[32.51,23.73],[35.19,24.4],[33.93,26.56],[34.89,28.36],[40.82,19.68],[41.81,21.71],[37.42,27.83],[36.52,31.16],[38.37,35.14]]]},"properties":{"NAME":"Mamluke Sultanate","SUBJECTO":"Mamluke Sultanate","BORDERPRECISION":1}},
{"type":"Feature","geometry":{"type":"Polygon","coordinates":[[[17.97,28.61],[17.96,30.77],[12.56,32.74],[10.13,37.1],[1.06,36.46],[-2.19,35.05],[-1.8,32.43],[5.68,32.82],[10.54,31.57],[17.97,28.61]]]},"properties":{"NAME":"Hafsid Caliphate","SUBJECTO":"Hafsid Caliphate","BORDERPRECISION":1}},
{"type":"Feature","geometry":{"type":"MultiPolygon","coordinates":[[[[36.16,41.36],[34.66,41.88],[34.66,41.87],[36.16,41.36]]],[[[37.25,41.03],[38.81,40.15],[41.48,41.44],[37.25,41.03]]]]},"properties":{"NAME":"Trebizond","SUBJECTO":"Trebizond","BORDERPRECISION":1}},
{"type":"Feature","geometry":{"type":"Polygon","coordinates":[[[51.59,24],[48.86,27.52],[51.35,28.04],[54.65,26.39],[61.34,25.03],[66.3,25.49],[69.83,31.76],[67.88,36.85],[62.1,40.37],[60.03,42.36],[56.77,41.37],[54.07,38.9],[53.8,36.68],[48.84,37.51],[49.81,40.58],[47.84,42.62],[45.26,42.44],[41.48,41.44],[41.21,40.24],[35.89,36.77],[35.81,36.3],[38.37,35.14],[40.03,34.39],[44.08,30.34],[48.62,25.69],[51.59,24]]]},"properties":{"NAME":"Ilkhanate","SUBJECTO":"Mongol Empire","BORDERPRECISION":1}},
{"type":"Feature","geometry":{"type":"Polygon","coordinates":[[[45.26,42.44],[41.12,43.02],[41.48,41.44],[45.26,42.44]]]},"properties":{"NAME":"Georgia","SUBJECTO":"Georgia","BORDERPRECISION":1}},
{"type":"Feature","geometry":{"type":"Polygon","coordinates":[[[90,50.07],[93.98,56.89],[85.08,58.16],[77.04,61.97],[70.69,62.54],[58.29,58.42],[54.92,58.11],[45.96,57.73],[43.63,54.96],[43.63,52.22],[38.27,50.91],[34.68,48.56],[29.85,49.28],[27.43,47.38],[26.52,45.82],[22.66,44.64],[24.23,43.79],[29.71,45.26],[37.42,47.08],[37.47,44.69],[41.12,43.02],[45.26,42.44],[47.84,42.62],[47.56,45.45],[50.87,44.63],[54.07,38.9],[56.77,41.37],[60.03,42.36],[63.55,45.25],[70.5,50.13],[79.18,49.41],[85.68,50.31],[90,50.07]]]},"properties":{"NAME":"Khanate of the Golden Horde","SUBJECTO":"Mongol Empire","BORDERPRECISION":1}},
{"type":"Feature","geometry":{"type":"Polygon","coordinates":[[[98.63,3.66],[99.4,0.09],[99.68,1.52],[98.63,3.66]]]},"properties":{"NAME":"Aceh","SUBJECTO":"Aceh","BORDERPRECISION":1}},
{"type":"Feature","geometry":{"type":"MultiPolygon","coordinates":[[[[110.97,1.23],[108.81,0.81],[110.1,-3.08],[111.33,-1.37],[111.26,0.79],[110.97,1.23]]],[[[99.4,0.09],[100.81,-2.34],[104.57,-6.07],[105.94,-3.21],[101.06,2.08],[98.63,3.66],[99.68,1.52],[99.4,0.09]]],[[[98.54,8.26],[100.14,6.18],[101.34,2.78],[103.43,1.38],[103.34,4.81],[100.61,6.98],[99.72,9.26],[98.54,8.26]]]]},"properties":{"NAME":"Srivijaya Empire","SUBJECTO":"Srivijaya Empire","BORDERPRECISION":1}},
{"type":"Feature","geometry":{"type":"Polygon","coordinates":[[[114.63,-1.66],[111.33,-1.37],[110.1,-3.08],[112.8,-2.97],[114.71,-4.21],[115.96,-3.2],[114.63,-1.66]]]},"properties":{"NAME":"Kediri","SUBJECTO":"Kediri","BORDERPRECISION":1}},
{"type":"Feature","geometry":{"type":"Polygon","coordinates":[[[97.57,16.45],[98.74,11.44],[98.54,8.26],[99.72,9.26],[99.93,13.26],[100.21,14.2],[100.91,13.45],[105.88,14.46],[104.93,17.45],[101.65,18],[101.66,19.66],[100.23,20.39],[97.57,16.45]]]},"properties":{"NAME":"Sukhothai","SUBJECTO":"Sukhothai","BORDERPRECISION":1}},
{"type":"Feature","geometry":{"type":"Polygon","coordinates":[[[-3.15,54.84],[-2.25,55.81],[-2.15,57.57],[-5.76,57.62],[-5.63,55.94],[-3.15,54.84]]]},"properties":{"NAME":"Scotland","SUBJECTO":"Scotland","BORDERPRECISION":1}},
{"type":"Feature","geometry":{"type":"MultiPolygon","coordinates":[[[[-0.91,42.88],[-0.41,42.79],[1.64,45.8],[-1.26,46.31],[-1.91,43.31],[-0.91,42.88]]],[[[-3.15,54.84],[-4.32,53.09],[-3.52,50.62],[0.19,50.73],[1.69,52.31],[-2.25,55.81],[-3.15,54.84]]]]},"properties":{"NAME":"English territory","SUBJECTO":"England","BORDERPRECISION":1}},
{"type":"Feature","geometry":{"type":"MultiPolygon","coordinates":[[[[27.66,58.96],[27.7,59.3],[23.95,59.17],[27.66,58.96]]],[[[16.06,56.4],[11.88,57.33],[13.3,55.3],[16.06,56.4]]]]},"properties":{"NAME":"Denmark","SUBJECTO":"Denmark","BORDERPRECISION":1}},
{"type":"Feature","geometry":{"type":"Polygon","coordinates":[[[17.66,54.69],[14.47,53.88],[12.65,54.32],[10.14,54.34],[8.88,54.23],[1.8,50.92],[5.36,49.7],[5.53,46.1],[7.4,43.76],[9.91,44.11],[11.96,42.01],[12.7,43.93],[12.18,45.21],[13.37,45.69],[13.8,45.57],[14.17,45.01],[14.35,45.32],[18.71,49.59],[14.97,50.98],[17.66,54.69]]]},"properties":{"NAME":"Holy Roman Empire","SUBJECTO":"Holy Roman Empire","BORDERPRECISION":1}},
{"type":"Feature","geometry":{"type":"Polygon","coordinates":[[[-14.51,28.05],[-13.88,28.2],[-14.15,28.39],[-14.51,28.05]]]},"properties":{"NAME":"Guanches","SUBJECTO":"Guanches","BORDERPRECISION":1}},
{"type":"Feature","geometry":{"type":"Polygon","coordinates":[[[137.31,37.43],[134.43,34.63],[140.32,35.03],[140.87,37.92],[137.31,37.43]]]},"properties":{"NAME":"Shogun Japan (Kamakura)","SUBJECTO":"Shogun Japan (Kamakura)","BORDERPRECISION":1}},
{"type":"Feature","geometry":{"type":"Polygon","coordinates":[[[34.29,65.4],[39.19,66.04],[40.83,67.66],[24.57,70.74],[19.82,69.37],[17.26,64.21],[20.87,64.03],[23.13,63.78],[27.23,63.35],[34.29,65.4]]]},"properties":{"NAME":"Sámi","SUBJECTO":"Sámi","BORDERPRECISION":1}},
{"type":"Feature","geometry":{"type":"Polygon","coordinates":[[[-60.94,14.74],[-61.23,14.81],[-61.03,14.47],[-60.94,14.74]]]},"properties":{"NAME":"Arawaks","SUBJECTO":"Arawaks","BORDERPRECISION":1}},
{"type":"Feature","geometry":{"type":"MultiPolygon","coordinates":[[[[-68.05,65.83],[-73.48,66.46],[-71.32,63.06],[-64.47,63.74],[-68.05,65.83]]],[[[-76.46,56.58],[-69.21,58.75],[-70.03,60.88],[-77.36,62.52],[-78.34,58.55],[-76.46,56.58]]]]},"properties":{"NAME":"Dorset","SUBJECTO":"Dorset","BORDERPRECISION":1}},
{"type":"Feature","geometry":{"type":"Polygon","coordinates":[[[-61.85,56.23],[-62.81,54.68],[-62.59,54.57],[-64.33,50.3],[-60.14,50.41],[-55.66,52.19],[-55.88,53.35],[-61.85,56.23]]]},"properties":{"NAME":"Innu","SUBJECTO":"Innu","BORDERPRECISION":1}},
{"type":"Feature","geometry":{"type":"Polygon","coordinates":[[[-77.9,-3.11],[-77.25,-2.76],[-77.85,-1.67],[-78.56,-2.13],[-77.9,-3.11]]]},"properties":{"NAME":"Shuar","SUBJECTO":"Shuar","BORDERPRECISION":1}},
{"type":"Feature","geometry":{"type":"Polygon","coordinates":[[[142.34,-10.92],[141.71,-15.23],[140.8,-17.56],[139.25,-17.43],[135.39,-14.9],[136.66,-12.62],[133.56,-11.95],[130.46,-12.76],[129.2,-14.99],[126.85,-13.78],[122.74,-16.58],[120.87,-19.68],[116.42,-20.84],[113.63,-22.57],[113.43,-26.57],[115.75,-32.21],[115.05,-34.42],[118.21,-35.09],[119.77,-34.12],[123.62,-33.92],[126.06,-32.43],[131.28,-31.63],[133.84,-32.34],[135.53,-35.05],[137.46,-33.31],[140.01,-37.64],[143.36,-38.97],[149.5,-37.93],[151.36,-33.52],[152.97,-31.42],[153.07,-26.23],[150.75,-22.81],[146.32,-19.08],[145.18,-15.05],[143.74,-14.47],[142.34,-10.92]]]},"properties":{"NAME":"Australian aboriginal hunter-gatherers","SUBJECTO":"Australian aboriginal hunter-gatherers","BORDERPRECISION":1}},
{"type":"Feature","geometry":{"type":"Polygon","coordinates":[[[146.71,-43.72],[148.27,-41.09],[144.78,-40.84],[146.71,-43.72]]]},"properties":{"NAME":"Tasmanian hunter-gatherers","SUBJECTO":"Tasmanian hunter-gatherers","BORDERPRECISION":1}},
{"type":"Feature","geometry":{"type":"Polygon","coordinates":[[[-82.04,22.39],[-81.35,22.15],[-81.36,23.12],[-82.96,23.03],[-84.59,21.92],[-81.66,22.51],[-82.04,22.39]]]},"properties":{"NAME":"Guanahatabeyes","SUBJECTO":"Guanahatabeyes","BORDERPRECISION":1}},
{"type":"Feature","geometry":{"type":"MultiPolygon","coordinates":[[[[-81.36,23.12],[-81.35,22.15],[-78.51,21.31],[-77.1,20.53],[-77.5,20.07],[-74.34,20.32],[-75.76,20.75],[-75.75,21.12],[-81.36,23.12]]],[[[-73.47,19.84],[-72.68,19.39],[-72.3,18.66],[-74.42,18.61],[-71.98,18.26],[-68.48,18.71],[-70.88,19.93],[-73.47,19.84]]],[[[-65.78,18.4],[-67.21,18.44],[-67.16,18.33],[-67.15,17.99],[-65.78,18.4]]]]},"properties":{"NAME":"Taino","SUBJECTO":"Taino","BORDERPRECISION":1}},
{"type":"Feature","geometry":{"type":"Polygon","coordinates":[[[-141.59,60.14],[-141.14,59.84],[-140.05,62.5],[-150.13,63.32],[-160.94,63.98],[-163.31,63.04],[-163.97,63.2],[-165.51,61.26],[-165.42,61.26],[-164.3,60.94],[-163.89,61.04],[-163.63,60.6],[-164.53,60.75],[-163.54,59.84],[-162.38,60.16],[-161.12,58.75],[-160.43,59],[-158.86,58.45],[-158.52,59],[-157.99,58.72],[-157.14,58.86],[-159.61,55.89],[-153.45,58.88],[-150.31,61.31],[-149.42,60.86],[-149.91,60.91],[-151.39,59.21],[-149.33,60.03],[-148.49,59.9],[-147.94,61.21],[-145.14,60.45],[-145,60.55],[-141.96,60.04],[-141.59,60.14]]]},"properties":{"NAME":"Thule","SUBJECTO":"Thule","BORDERPRECISION":1}},
{"type":"Feature","geometry":{"type":"Polygon","coordinates":[[[-141.14,59.84],[-140.13,59.77],[-139.57,59.9],[-136.36,58.52],[-136.94,58.94],[-136.39,58.84],[-136.15,58.9],[-135.28,58.44],[-135.31,59.35],[-132.03,55.89],[-131.19,56.03],[-130.41,55.02],[-130,55.29],[-129.06,53.74],[-128.81,53.76],[-127.87,52.41],[-125.76,53.13],[-122.49,54.24],[-111.28,58.55],[-118.2,62.71],[-124.94,64.83],[-132.43,62.5],[-140.05,62.5],[-141.14,59.84]]]},"properties":{"NAME":"Athabaskan","SUBJECTO":"Athabaskan","BORDERPRECISION":1}},
{"type":"Feature","geometry":{"type":"Polygon","coordinates":[[[-62.81,54.68],[-62.89,54.73],[-71.03,55.2],[-74.2,52.93],[-78.74,52.74],[-82.34,52.98],[-82.2,54.97],[-89.73,56.93],[-90.44,57.14],[-92.4,56.98],[-102.14,57.21],[-111.28,58.55],[-122.49,54.24],[-114.47,52],[-105.19,51.45],[-95.57,50],[-87.79,49.93],[-81.93,48.9],[-72.32,46.3],[-71.03,46.75],[-66.37,50.31],[-64.33,50.3],[-62.59,54.57],[-62.81,54.68]]]},"properties":{"NAME":"Subarctic forest hunter-gatherers","SUBJECTO":"Subarctic forest hunter-gatherers","BORDERPRECISION":1}},
{"type":"Feature","geometry":{"type":"Polygon","coordinates":[[[-68.06,-26.47],[-69.28,-29.35],[-67.48,-31.66],[-63.56,-30.04],[-57.35,-29.68],[-52.14,-31.74],[-52.04,-31.56],[-48.85,-28.56],[-49.84,-26.8],[-48.47,-23.75],[-53.12,-14.28],[-60.27,-13.81],[-64.19,-14.69],[-65.91,-18.31],[-67.12,-25.03],[-68.03,-26.03],[-68.06,-26.47]]]},"properties":{"NAME":"Savanna hunter-gatherers","SUBJECTO":"Savanna hunter-gatherers","BORDERPRECISION":1}},
{"type":"Feature","geometry":{"type":"Polygon","coordinates":[[[-69.11,-51.35],[-71.17,-51.56],[-72.19,-45.99],[-70.58,-40.58],[-72.07,-40.55],[-72.73,-41.55],[-74.31,-48.75],[-71.87,-53.7],[-69.08,-51.5],[-69.11,-51.35]]]},"properties":{"NAME":"Patagonian shellfish and marine mammal hunters","SUBJECTO":"Patagonian shellfish and marine mammal hunters","BORDERPRECISION":1}},
{"type":"Feature","geometry":{"type":"MultiPolygon","coordinates":[[[[-68.03,-26.03],[-67.12,-25.03],[-65.91,-18.31],[-67.36,-19.19],[-67.82,-22.47],[-68.03,-26.03]]],[[[-69.28,-29.35],[-71.52,-32.18],[-73.67,-37.5],[-72.73,-41.55],[-72.07,-40.55],[-69.44,-37.16],[-67.48,-31.66],[-69.28,-29.35]]]]},"properties":{"NAME":"Andean hunter-gatherers","SUBJECTO":"Andean hunter-gatherers","BORDERPRECISION":1}},
{"type":"Feature","geometry":{"type":"Polygon","coordinates":[[[-53.12,-14.28],[-46.28,-3.55],[-49.07,-4.74],[-56.33,-4.33],[-58.44,-2.29],[-57.97,-0.59],[-55.86,1.7],[-58.56,3.98],[-62.66,4.15],[-66.41,3.04],[-70.16,-5.74],[-69.05,-8.24],[-64.19,-14.69],[-60.27,-13.81],[-53.12,-14.28]]]},"properties":{"NAME":"Amazon hunter-gatherers","SUBJECTO":"Amazon hunter-gatherers","BORDERPRECISION":1}},
{"type":"Feature","geometry":{"type":"Polygon","coordinates":[[[-71.1,9.33],[-70.68,8.56],[-65.97,8.18],[-61.7,8.61],[-61.53,9.85],[-67.98,10.54],[-69.75,11.53],[-71.1,9.33]]]},"properties":{"NAME":"Caribbean hunter-gatherers","SUBJECTO":"Caribbean hunter-gatherers","BORDERPRECISION":1}},
{"type":"Feature","geometry":{"type":"Polygon","coordinates":[[[-67.48,-31.66],[-69.44,-37.16],[-72.07,-40.55],[-70.58,-40.58],[-72.19,-45.99],[-71.17,-51.56],[-69.11,-51.35],[-69.17,-51.15],[-65.78,-47.23],[-64.94,-40.83],[-62.96,-41.14],[-61.36,-39.03],[-57.81,-38.39],[-56.34,-35],[-54.07,-34.65],[-52.14,-31.75],[-52.14,-31.74],[-57.35,-29.68],[-63.56,-30.04],[-67.48,-31.66]]]},"properties":{"NAME":"Pampas cultures","SUBJECTO":"Pampas cultures","BORDERPRECISION":1}},
{"type":"Feature","geometry":{"type":"MultiPolygon","coordinates":[[[[-132.08,54.02],[-132.38,53.99],[-132.73,54.07],[-132.35,53.36],[-132.08,54.02]]],[[[-127.87,52.41],[-124.68,48.39],[-124.14,44.79],[-124.23,44.45],[-124.36,40.33],[-123.65,38.88],[-121.17,38.88],[-120.47,43.57],[-120.48,48.96],[-125.76,53.13],[-127.87,52.41]]]]},"properties":{"NAME":"North American Pacifi foraging, hunting and fishing peoples","SUBJECTO":"North American Pacifi foraging, hunting and fishing peoples","BORDERPRECISION":1}},
{"type":"Feature","geometry":{"type":"Polygon","coordinates":[[[-114.47,52],[-114.13,47.95],[-111.67,41.94],[-109.05,38.88],[-102.57,38.88],[-102.57,32.43],[-97.76,28.7],[-96.68,28.25],[-94.12,29.69],[-94.12,31.93],[-97.14,34.47],[-94.12,35.88],[-94.12,39.73],[-94.23,46.72],[-95.57,50],[-105.19,51.45],[-114.47,52]]]},"properties":{"NAME":"Plain bison hunters","SUBJECTO":"Plain bison hunters","BORDERPRECISION":1}},
{"type":"Feature","geometry":{"type":"Polygon","coordinates":[[[-125.76,53.13],[-120.48,48.96],[-120.47,43.57],[-111.67,41.94],[-114.13,47.95],[-114.47,52],[-122.49,54.24],[-125.76,53.13]]]},"properties":{"NAME":"Plateau fichers and hunter gatherers","SUBJECTO":"Plateau fichers and hunter gatherers","BORDERPRECISION":1}},
{"type":"Feature","geometry":{"type":"MultiPolygon","coordinates":[[[[-121.17,38.88],[-109.05,38.88],[-111.67,41.94],[-120.47,43.57],[-121.17,38.88]]],[[[-102.57,32.43],[-102.57,29.99],[-97.76,28.7],[-102.57,32.43]]]]},"properties":{"NAME":"Desert hunter-gatherers","SUBJECTO":"Desert hunter-gatherers","BORDERPRECISION":1}},
{"type":"Feature","geometry":{"type":"Polygon","coordinates":[[[41.57,10.29],[40.72,10.12],[38.72,7.11],[35.58,5.53],[33.02,6.86],[32.35,9.53],[30.6,11.12],[24.07,11.18],[20.67,11.96],[18.63,10.17],[15.66,11.31],[14.71,12.51],[12.35,11.2],[10.46,12.47],[8.27,12.37],[2.88,13.2],[-1.36,10.82],[-6.83,10.11],[-15.33,11.93],[-12.26,7.35],[-7.53,4.34],[-5,5.24],[-2.03,4.7],[1.56,6.24],[3.95,6.58],[5.34,8.72],[6.88,8.64],[6.76,5.83],[12.6,7.73],[22.22,6.2],[33.93,2.84],[34.41,2.49],[43.41,2.51],[44.28,3.36],[47.64,4.1],[48.08,4.67],[50.78,9.37],[51.18,11.78],[44.28,10.4],[41.57,10.29]]]},"properties":{"NAME":"West African cereal farmers","SUBJECTO":"West African cereal farmers","BORDERPRECISION":1}},
{"type":"Feature","geometry":{"type":"Polygon","coordinates":[[[28.62,-19.95],[12.91,-19.7],[12.52,-19.06],[14.42,-22.27],[15.45,-27.62],[18.18,-31.81],[18.49,-34.4],[18.57,-34.19],[18.97,-34.4],[19.88,-34.99],[20.85,-34.5],[21.35,-34.54],[22.68,-34.1],[23.19,-34.24],[23.5,-34.07],[24.59,-34.36],[25.06,-34.07],[25.52,-34.17],[25.87,-33.89],[26.31,-33.89],[28.92,-32.3],[32.23,-28.74],[32.85,-26.98],[32.92,-26.52],[34.88,-24.72],[34.72,-20.04],[33.4,-20.02],[32.87,-22],[31.1,-23.05],[29.34,-23.05],[28.28,-21.47],[28.62,-19.95]]]},"properties":{"NAME":"Khoiasan","SUBJECTO":"Khoiasan","BORDERPRECISION":1}},
{"type":"Feature","geometry":{"type":"Polygon","coordinates":[[[-95.57,50],[-94.23,46.72],[-94.12,39.73],[-94.12,35.88],[-97.14,34.47],[-94.12,31.93],[-94.12,29.69],[-90.78,29.11],[-89.23,30.41],[-83.89,30.05],[-82.43,27.83],[-80.59,28.49],[-81.51,30.73],[-80.58,32.5],[-76.62,34.76],[-73.74,40.98],[-70.3,41.76],[-70.22,43.8],[-67.17,44.71],[-65.71,43.56],[-61.03,45.38],[-64.53,46.27],[-66.03,49.17],[-71.03,46.75],[-72.32,46.3],[-81.93,48.9],[-87.79,49.93],[-95.57,50]],[[-84.63,45.75],[-80.81,45.95],[-81.81,43.32],[-84.63,45.75]],[[-92.26,46.65],[-88.09,49],[-87.27,46.51],[-92.26,46.65]]]},"properties":{"NAME":"Eastern North Amercian hunter-gatherers","SUBJECTO":"Eastern North Amercian hunter-gatherers","BORDERPRECISION":1}},
{"type":"Feature","geometry":{"type":"Polygon","coordinates":[[[-4.81,31.65],[-1.8,32.43],[-2.19,35.05],[-5.03,35.34],[-4.81,31.65]]]},"properties":{"NAME":"Abdelouadides","SUBJECTO":"Abdelouadides","BORDERPRECISION":1}},
{"type":"Feature","geometry":{"type":"Polygon","coordinates":[[[12.64,21],[10.54,31.57],[5.68,32.82],[-1.8,32.43],[-4.81,31.65],[-9.63,30.41],[-14.37,26.12],[-17.05,21],[-16.04,17.67],[-7.71,17.88],[-0.48,18.76],[4.29,18.05],[5.34,17.17],[4.29,13.99],[2.88,13.2],[8.27,12.37],[10.46,12.47],[10.07,14.22],[11.77,16.21],[12.64,21]]]},"properties":{"NAME":"Touareg","SUBJECTO":"Touareg","BORDERPRECISION":1}},
{"type":"Feature","geometry":{"type":"Polygon","coordinates":[[[-4.76,48.55],[-4.35,48.39],[-4.39,48.3],[-4.35,48.2],[-4.31,48.1],[-4.39,47.94],[-2.47,47.49],[-2.01,47.75],[-4.76,48.55]]]},"properties":{"NAME":"Britany","SUBJECTO":"Britany","BORDERPRECISION":1}},
{"type":"Feature","geometry":{"type":"Polygon","coordinates":[[[6.09,4.33],[8.87,4.62],[9.92,2.82],[9.2,-0.63],[9.66,-2.42],[11.77,-4.54],[13.39,-8.16],[13.65,-12.2],[11.78,-15.87],[12.52,-19.06],[12.91,-19.7],[28.62,-19.95],[28.63,-19.88],[29.69,-18.82],[31.28,-18.64],[33.4,-20.02],[34.72,-20.04],[37.28,-17.71],[39.47,-16.72],[40.85,-14.58],[40.4,-11.23],[38.74,-10.22],[37.98,-6.93],[37.73,-4.58],[39.42,-1.38],[43.41,2.51],[34.41,2.49],[33.93,2.84],[22.22,6.2],[12.6,7.73],[6.76,5.83],[6.09,4.33]]]},"properties":{"NAME":"Bantou","SUBJECTO":"Bantou","BORDERPRECISION":1}},
{"type":"Feature","geometry":{"type":"Polygon","coordinates":[[[-82.43,27.83],[-81.1,25.13],[-80.05,26.55],[-80.59,28.49],[-82.43,27.83]]]},"properties":{"NAME":"Caloosahatchee cultureure","SUBJECTO":"Caloosahatchee cultureure","BORDERPRECISION":1}},
{"type":"Feature","geometry":{"type":"MultiPolygon","coordinates":[[[[27.23,63.35],[23.13,63.78],[21.03,62.48],[23.66,59.84],[29.69,60.13],[27.23,63.35]]],[[[16.06,56.4],[19.04,59.86],[17.15,60.95],[20.87,64.03],[17.26,64.21],[12.6,61.03],[11.74,57.7],[11.88,57.33],[16.06,56.4]]]]},"properties":{"NAME":"Sweden","SUBJECTO":"Sweden","BORDERPRECISION":1}},
{"type":"Feature","geometry":{"type":"Polygon","coordinates":[[[34.66,41.87],[29,36.69],[33.17,35.97],[35.89,36.77],[41.21,40.24],[41.48,41.44],[38.81,40.15],[37.25,41.03],[36.16,41.36],[34.66,41.87]]]},"properties":{"NAME":"Seljuk Caliphate","SUBJECTO":"Mongol Empire","BORDERPRECISION":1}},
{"type":"Feature","geometry":{"type":"Polygon","coordinates":[[[-2.13,41.82],[-1.94,36.95],[0.17,38.74],[0.88,41.02],[2.95,42.88],[1.46,42.62],[1.32,42.61],[-0.41,42.79],[-0.91,42.88],[-2.13,41.82]]]},"properties":{"NAME":"Aragón","SUBJECTO":"Aragón","BORDERPRECISION":1}},
{"type":"Feature","geometry":{"type":"MultiPolygon","coordinates":[[[[19.82,69.37],[9.83,63.68],[5.15,61.74],[5.62,58.46],[11.74,57.7],[12.6,61.03],[17.26,64.21],[19.82,69.37]]],[[[-24.16,65.61],[-22.37,63.77],[-14.82,64.2],[-16.39,66.45],[-24.16,65.61]]]]},"properties":{"NAME":"Norway","SUBJECTO":"Norway","BORDERPRECISION":1}},
{"type":"Feature","geometry":{"type":"MultiPolygon","coordinates":[[[[21.49,42.88],[19.61,41.76],[19.37,40.26],[28.83,40.91],[27.89,43.06],[24.3,42.03],[21.49,42.88]]],[[[34.66,41.88],[33.19,41.95],[31.04,41.05],[26.13,39.88],[27.16,37.36],[29,36.69],[34.66,41.87],[34.66,41.88]]]]},"properties":{"NAME":"Byzantine Empire","SUBJECTO":"Byzantine Empire","BORDERPRECISION":1}},
{"type":"Feature","geometry":{"type":"Polygon","coordinates":[[[178.18,-18.24],[178.17,-17.34],[177.51,-17.51],[177.33,-18.12],[178.18,-18.24]]]},"properties":{"NAME":"Tuʻi Tonga Empire","SUBJECTO":"Tuʻi Tonga Empire","BORDERPRECISION":1}},
{"type":"Feature","geometry":{"type":"Polygon","coordinates":[[[-109.24,-27.13],[-109.37,-27.06],[-109.43,-27.2],[-109.24,-27.13]]]},"properties":{"NAME":"Polynesians","SUBJECTO":"Polynesians","BORDERPRECISION":1}},
{"type":"Feature","geometry":{"type":"Polygon","coordinates":[[[98.59,25.76],[100.5,24.31],[100.23,20.39],[101.66,19.66],[105.41,21.9],[107.47,20.98],[110.08,20.87],[116.34,22.91],[118.81,24.85],[121.36,28.39],[121.61,31.83],[119.02,34.69],[120.14,36.19],[117.59,38.28],[121.01,40.85],[125.4,39.38],[126.63,37.59],[126.37,34.79],[129.44,35.48],[127.44,39.62],[132.18,43.19],[134.14,42.99],[140.08,48.5],[141.12,53.05],[136.49,53.65],[126.44,54.92],[118.11,56.89],[109.08,57.6],[93.98,56.89],[90,50.07],[93.81,49.68],[93.81,48.05],[90,46.43],[90,43.9],[92,41.91],[81.25,35.32],[81.79,34.77],[89.92,35.19],[91.69,36.36],[95.52,37.1],[101.69,36.31],[102.41,33.72],[100.68,28.69],[98.64,27.48],[98.59,25.76]]]},"properties":{"NAME":"Great Khanate","SUBJECTO":"Mongol Empire","BORDERPRECISION":1}}
]}