{"type":"FeatureCollection", "features": [
{"type":"Feature","geometry":{"type":"Polygon","coordinates":[[[120.62,21.93],[121.59,24.65],[120.02,23.62],[120.62,21.93]]]},"properties":{"NAME":"Dapenkeng culture","SUBJECTO":"Dakapeng culture","BORDERPRECISION":1}},
{"type":"Feature","geometry":{"type":"MultiPolygon","coordinates":[[[[99.87,2.64],[98.6,1.71],[100.81,-2.34],[104.57,-6.07],[105.94,-3.21],[99.87,2.64]]],[[[111.12,1.27],[108.81,0.81],[110.1,-3.08],[115.57,-3.8],[117.53,0.61],[117.07,3.51],[119.04,5.17],[116.6,6.9],[111.12,1.27]]]]},"properties":{"NAME":"Austronesians","SUBJECTO":"Austronesians","BORDERPRECISION":1}},
{"type":"Feature","geometry":{"type":"Polygon","coordinates":[[[146.71,-43.72],[148.27,-41.09],[144.78,-40.84],[146.71,-43.72]]]},"properties":{"NAME":"Aboriginal Tasmanians","SUBJECTO":"Aboriginal Tasmanians","BORDERPRECISION":1}},
{"type":"Feature","geometry":{"type":"Polygon","coordinates":[[[137.89,37.02],[135.16,35.65],[139.54,35.29],[137.89,37.02]]]},"properties":{"NAME":"Jōmon","SUBJECTO":"Jōmon","BORDERPRECISION":1}},
{"type":"Feature","geometry":{"type":"Polygon","coordinates":[[[-78.26,-9.74],[-75.23,-15.22],[-73.12,-16.46],[-72.17,-12.95],[-74.62,-9.98],[-78.26,-9.74]]]},"properties":{"NAME":"Norte Chico","SUBJECTO":"Norte Chico","BORDERPRECISION":1}},
{"type":"Feature","geometry":{"type":"Polygon","coordinates":[[[43.29,35.67],[41.98,37.68],[36.08,36.62],[35.72,34.31],[37.24,33.85],[40.96,33.43],[43.29,35.67]]]},"properties":{"NAME":"city-states","SUBJECTO":"city-states","BORDERPRECISION":1}},
{"type":"Feature","geometry":{"type":"Polygon","coordinates":[[[40.96,33.43],[41.95,32.21],[47.61,29.27],[50.13,30.07],[49.31,31.82],[45.62,35.16],[43.29,35.67],[40.96,33.43]]]},"properties":{"NAME":"Ur","SUBJECTO":"Ur","BORDERPRECISION":1}},
{"type":"Feature","geometry":{"type":"Polygon","coordinates":[[[50.13,30.07],[51.35,28.04],[58.37,25.55],[57.84,29],[49.31,31.82],[50.13,30.07]]]},"properties":{"NAME":"Elam","SUBJECTO":"Elam","BORDERPRECISION":1}},
{"type":"Feature","geometry":{"type":"Polygon","coordinates":[[[13.48,-8.49],[13.65,-12.2],[11.77,-17.6],[14.42,-22.27],[15.45,-27.62],[18.18,-31.81],[18.49,-34.4],[26.66,-33.85],[32.23,-28.74],[33.35,-25.3],[34.88,-24.72],[34.73,-19.86],[39.47,-16.72],[40.6,-14.4],[39.44,-7.92],[13.48,-8.49]]]},"properties":{"NAME":"Khoisan","SUBJECTO":"Khoisan","BORDERPRECISION":1}},
{"type":"Feature","geometry":{"type":"Polygon","coordinates":[[[32.65,29.85],[33.56,30.97],[29.36,30.81],[31.11,25],[30,21.08],[30.17,19.98],[30.17,19.97],[30.6,19.8],[31.06,19.92],[31.28,19.97],[33.74,24.5],[32.32,29.54],[32.65,29.85]]]},"properties":{"NAME":"Egypt","SUBJECTO":"Egypt","BORDERPRECISION":1}},
{"type":"Feature","geometry":{"type":"Polygon","coordinates":[[[72.7,22.13],[73.23,23.72],[70.07,25.47],[70.31,28.05],[72.3,28.98],[78.84,28.63],[78.84,30.74],[73.7,32.14],[70.78,32.02],[67.62,28.98],[64.81,28.51],[63.02,25.16],[66.62,25.32],[71.02,20.66],[72.7,22.13]]]},"properties":{"NAME":"Indus valley civilization","SUBJECTO":"Indus valley civilization","BORDERPRECISION":1}},
{"type":"Feature","geometry":{"type":"Polygon","coordinates":[[[43.29,35.67],[45.62,35.16],[44.27,37.85],[41.98,37.68],[43.29,35.67]]]},"properties":{"NAME":"Hurrian Kingdoms","SUBJECTO":"Hurrian Kingdoms","BORDERPRECISION":1}},
{"type":"Feature","geometry":{"type":"Polygon","coordinates":[[[-78.61,2.12],[-80.97,-1.03],[-79.76,-2.79],[-75.9,0.85],[-78.61,2.12]]]},"properties":{"NAME":"Valdivia","SUBJECTO":"Valdivia","BORDERPRECISION":1}},
{"type":"Feature","geometry":{"type":"Polygon","coordinates":[[[30.17,19.98],[29.89,18.36],[31.4,17.45],[32.99,18.66],[33.42,20.13],[30.99,18.59],[31.06,19.92],[30.6,19.8],[30.17,19.97],[30.17,19.98]]]},"properties":{"NAME":"Kerma","SUBJECTO":"Kerma","BORDERPRECISION":1}},
{"type":"Feature","geometry":{"type":"Polygon","coordinates":[[[44.67,-16.24],[43.67,-24.23],[47.26,-24.77],[50.5,-15.31],[49.82,-12.83],[44.67,-16.24]]]},"properties":{"NAME":"Hunters-gatherers","SUBJECTO":"Hunters-gatherers","BORDERPRECISION":1}},
{"type":"Feature","geometry":{"type":"Polygon","coordinates":[[[75,50.67],[74.38,47.57],[79.49,46.95],[90.58,47.21],[93.32,48.02],[101.91,53.97],[93.07,56.27],[87.12,55.93],[80.91,53.04],[75,50.67]]]},"properties":{"NAME":"Afanasevo","SUBJECTO":"Afanasevo","BORDERPRECISION":1}},
{"type":"Feature","geometry":{"type":"Polygon","coordinates":[[[58.42,37.76],[62.58,38.28],[60.06,39.08],[59.1,38.48],[58.42,37.76]]]},"properties":{"NAME":"Namazga","SUBJECTO":"Namazga","BORDERPRECISION":1}},
{"type":"Feature","geometry":{"type":"Polygon","coordinates":[[[24.69,34.94],[24.39,35.37],[23.53,35.57],[23.57,35.25],[24.32,35.21],[24.69,34.94]]]},"properties":{"NAME":"Minoan","SUBJECTO":"Minoan","BORDERPRECISION":1}},
{"type":"Feature","geometry":{"type":"MultiPolygon","coordinates":[[[[139.54,35.29],[139.81,35.01],[139.93,34.88],[142,39.67],[137.89,37.02],[139.54,35.29]]],[[[140.01,41.38],[143.21,41.93],[145.06,43.79],[141.88,45.44],[140.01,41.38]]]]},"properties":{"NAME":"Ainu","SUBJECTO":"Ainu","BORDERPRECISION":1}},
{"type":"Feature","geometry":{"type":"Polygon","coordinates":[[[24.66,37.9],[25.32,37.4],[25.27,37.56],[24.76,38],[24.66,37.9]]]},"properties":{"NAME":"Cycladic","SUBJECTO":"Cycladic","BORDERPRECISION":1}},
{"type":"Feature","geometry":{"type":"Polygon","coordinates":[[[74.21,14.75],[76.7,8.71],[79.83,10.36],[80.14,14.49],[74.21,14.75]]]},"properties":{"NAME":"Dravidians","SUBJECTO":"Dravidians","BORDERPRECISION":1}},
{"type":"Feature","geometry":{"type":"Polygon","coordinates":[[[39.44,-7.92],[40.23,-3.19],[43.72,0.8],[46.38,2.69],[-16.87,21.84],[-15.98,18.18],[-16.77,12.6],[-13.68,9.92],[-12.26,7.35],[-7.53,4.34],[-5,5.24],[-2.03,4.7],[3.95,6.58],[5.61,4.63],[8.87,4.62],[9.92,2.82],[9.2,-0.63],[11.77,-4.54],[13.48,-8.49],[39.44,-7.92]]]},"properties":{"NAME":"Bantu","SUBJECTO":"Bantu","BORDERPRECISION":1}},
{"type":"Feature","geometry":{"type":"Polygon","coordinates":[[[142.34,-10.92],[140.8,-17.56],[135.39,-14.9],[136.66,-12.62],[133.56,-11.95],[130.46,-12.76],[129.2,-14.99],[126.85,-13.78],[122.74,-16.58],[120.87,-19.68],[116.42,-20.84],[113.63,-22.57],[113.43,-26.57],[115.75,-32.21],[115.05,-34.42],[118.21,-35.09],[123.62,-33.92],[126.06,-32.43],[131.28,-31.63],[137.46,-33.31],[140.01,-37.64],[143.36,-38.97],[149.5,-37.93],[152.97,-31.42],[153.07,-26.23],[150.75,-22.81],[146.32,-19.08],[145.18,-15.05],[143.74,-14.47],[142.34,-10.92]]]},"properties":{"NAME":"Aboriginal tribes","SUBJECTO":"Aboriginal tribes","BORDERPRECISION":1}},
{"type":"Feature","geometry":{"type":"Polygon","coordinates":[[[52.89,46.93],[54.1,49.5],[49.9,53.57],[34.27,51.99],[25.25,49.59],[28.73,44.54],[30.83,46.58],[33.64,45.93],[37.42,47.08],[38.66,44.34],[47.79,42.84],[47.56,45.45],[52.89,46.93]]]},"properties":{"NAME":"Yamnaya culture","SUBJECTO":"Yamnaya culture","BORDERPRECISION":1}},
{"type":"Feature","geometry":{"type":"Polygon","coordinates":[[[35.72,34.31],[33.56,30.97],[32.65,29.85],[34.89,28.36],[39.1,22.4],[42.76,16.65],[43.84,12.66],[52.14,15.69],[57.84,19.03],[59.84,22.28],[57.15,23.98],[51.59,24],[47.61,29.27],[41.95,32.21],[40.96,33.43],[37.24,33.85],[35.72,34.31]]]},"properties":{"NAME":"Semites","SUBJECTO":"Semites","BORDERPRECISION":1}}
]}