{"type":"FeatureCollection", "features": [
{"type":"Feature","geometry":{"type":"Polygon","coordinates":[[[33.78,35.21],[32.82,35.28],[32.6,34.61],[33.92,34.95],[33.78,35.21]]]},"properties":{"NAME":"Cyprus","SUBJECTO":"Cyprus","BORDERPRECISION":1}},
{"type":"Feature","geometry":{"type":"Polygon","coordinates":[[[-81.74,22.62],[-77.46,19.87],[-75.6,21.01],[-79.76,22.76],[-81.74,22.62]]]},"properties":{"NAME":"Ciboney","SUBJECTO":"Ciboney","BORDERPRECISION":1}},
{"type":"Feature","geometry":{"type":"Polygon","coordinates":[[[109.43,18.1],[110.26,18.63],[110.62,20.02],[108.58,19.19],[109.43,18.1]]]},"properties":{"NAME":"Hainan","SUBJECTO":"Hainan","BORDERPRECISION":1}},
{"type":"Feature","geometry":{"type":"Polygon","coordinates":[[[106.45,16.19],[107.49,14.91],[107.9,12.57],[106.77,10.64],[109.07,11.64],[108.79,15.09],[107.38,16.69],[106.45,16.19]]]},"properties":{"NAME":"Champa","SUBJECTO":"Champa","BORDERPRECISION":1}},
{"type":"Feature","geometry":{"type":"Polygon","coordinates":[[[97.42,16.48],[96.7,19.12],[94.24,18.59],[94.14,16.22],[97.42,16.48]]]},"properties":{"NAME":"Mon state","SUBJECTO":"Mon state","BORDERPRECISION":1}},
{"type":"Feature","geometry":{"type":"Polygon","coordinates":[[[96.7,19.12],[96.48,21.76],[94.3,22.3],[93.97,19.19],[94.24,18.59],[96.7,19.12]]]},"properties":{"NAME":"Pyu state","SUBJECTO":"Pyu state","BORDERPRECISION":1}},
{"type":"Feature","geometry":{"type":"Polygon","coordinates":[[[37.9,18.56],[35.19,24.4],[32.51,23.73],[29.34,24.03],[28.61,20.56],[30.79,15.5],[33.82,16.78],[35.33,15.42],[37.9,18.56]]]},"properties":{"NAME":"Makkura","SUBJECTO":"Makkura","BORDERPRECISION":1}},
{"type":"Feature","geometry":{"type":"Polygon","coordinates":[[[30.79,15.5],[30.79,11.2],[31.75,10.25],[35.41,11.28],[35.33,15.42],[33.82,16.78],[30.79,15.5]]]},"properties":{"NAME":"Alwa","SUBJECTO":"Alwa","BORDERPRECISION":1}},
{"type":"Feature","geometry":{"type":"Polygon","coordinates":[[[-11.91,16.38],[-8.88,14.29],[-4.8,15.55],[-7.83,17.64],[-11.91,16.38]]]},"properties":{"NAME":"Ghana","SUBJECTO":"Ghana","BORDERPRECISION":1}},
{"type":"Feature","geometry":{"type":"Polygon","coordinates":[[[-0.86,51.45],[-1.77,50.73],[0.19,50.73],[0.2,51.09],[0.27,51.46],[-0.86,51.45]]]},"properties":{"NAME":"Wessex","SUBJECTO":"Wessex","BORDERPRECISION":1}},
{"type":"Feature","geometry":{"type":"Polygon","coordinates":[[[-87.57,15.91],[-87.2,21.53],[-90.3,21.05],[-90.8,19.25],[-94.24,18.24],[-93.59,15.74],[-90,13.75],[-87.57,15.91]]]},"properties":{"NAME":"Maya city-states","SUBJECTO":"Maya city-states","BORDERPRECISION":1}},
{"type":"Feature","geometry":{"type":"Polygon","coordinates":[[[-100.12,21.24],[-100.2,19.66],[-98.23,18.87],[-97.66,20.39],[-100.12,21.24]]]},"properties":{"NAME":"Toltec Empire","SUBJECTO":"Toltec Empire","BORDERPRECISION":1}},
{"type":"Feature","geometry":{"type":"Polygon","coordinates":[[[-94.24,18.24],[-96.01,18.93],[-97.71,21.8],[-100.25,22.57],[-100.89,20.74],[-105.29,20.67],[-103.49,18.35],[-97.88,16.05],[-93.59,15.74],[-94.24,18.24]],[[-100.12,21.24],[-97.66,20.39],[-98.23,18.87],[-100.2,19.66],[-100.12,21.24]],[[-100.57,17.88],[-99.3,18.5],[-97.58,17.85],[-99.02,16.82],[-100.57,17.88]]]},"properties":{"NAME":"Mesoamerican city-states and chiefdoms","SUBJECTO":"Mesoamerican city-states and chiefdoms","BORDERPRECISION":1}},
{"type":"Feature","geometry":{"type":"Polygon","coordinates":[[[-100.57,17.88],[-99.02,16.82],[-97.58,17.85],[-99.3,18.5],[-100.57,17.88]]]},"properties":{"NAME":"Mixtecs","SUBJECTO":"Mixtecs","BORDERPRECISION":1}},
{"type":"Feature","geometry":{"type":"Polygon","coordinates":[[[-80.82,-5.72],[-79.06,-8.22],[-76.24,-13.5],[-74.05,-16.04],[-71.61,-17.22],[-69.54,-13.82],[-75.58,-10.61],[-79.16,-5.86],[-80.82,-5.72]]]},"properties":{"NAME":"Huari Empire","SUBJECTO":"Huari Empire","BORDERPRECISION":1}},
{"type":"Feature","geometry":{"type":"Polygon","coordinates":[[[-71.61,-17.22],[-70.21,-19.07],[-70.4,-25.25],[-68.19,-25.49],[-67.36,-19.19],[-67.94,-15.43],[-69.54,-13.82],[-71.61,-17.22]]]},"properties":{"NAME":"Tiahuanaco Empire","SUBJECTO":"Tiahuanaco Empire","BORDERPRECISION":1}},
{"type":"Feature","geometry":{"type":"Polygon","coordinates":[[[39.21,16.33],[37.02,13.63],[36.6,9.21],[39.75,7.95],[40.17,9.84],[40.74,14.92],[39.21,16.33]]]},"properties":{"NAME":"Axum","SUBJECTO":"Axum","BORDERPRECISION":1}},
{"type":"Feature","geometry":{"type":"Polygon","coordinates":[[[0.46,32.55],[7.89,32.59],[17,28.75],[19.32,28.42],[19.12,30.2],[15.84,31.29],[10.02,34.08],[10.13,37.1],[1.58,36.51],[0.46,32.55]]]},"properties":{"NAME":"Aghlabid Emirate","SUBJECTO":"Aghlabid Emirate","BORDERPRECISION":1}},
{"type":"Feature","geometry":{"type":"Polygon","coordinates":[[[-8.64,42.42],[-1.94,42.64],[-1.91,43.31],[-7.64,43.72],[-8.64,42.42]]]},"properties":{"NAME":"Asturias","SUBJECTO":"Asturias","BORDERPRECISION":1}},
{"type":"Feature","geometry":{"type":"Polygon","coordinates":[[[17.26,40.96],[14.08,42.63],[13.76,41.21],[15.85,39.63],[16.53,39.7],[17.08,40.53],[17.26,40.96]]]},"properties":{"NAME":"Lombard duchies","SUBJECTO":"Lombard duchies","BORDERPRECISION":1}},
{"type":"Feature","geometry":{"type":"Polygon","coordinates":[[[1.58,36.51],[-2.04,35.05],[-5.93,35.73],[-9.22,32.58],[-9.66,29.95],[-12.87,27.86],[-14.63,25.68],[-11.19,25.72],[-8.57,27.16],[-4.77,31.66],[0.46,32.55],[1.58,36.51]]]},"properties":{"NAME":"Idrisid Caliphate","SUBJECTO":"Idrisid Caliphate","BORDERPRECISION":1}},
{"type":"Feature","geometry":{"type":"Polygon","coordinates":[[[-8.64,42.42],[-9.55,38.77],[-8.67,37.12],[-2.24,36.73],[2.07,41.3],[-1.94,42.64],[-8.64,42.42]]]},"properties":{"NAME":"Emirate of Córdoba","SUBJECTO":"Emirate of Córdoba","BORDERPRECISION":1}},
{"type":"Feature","geometry":{"type":"Polygon","coordinates":[[[-2.91,53.27],[-4.12,52.37],[-2.75,51.64],[-2.91,53.27]]]},"properties":{"NAME":"Welsh","SUBJECTO":"Welsh","BORDERPRECISION":1}},
{"type":"Feature","geometry":{"type":"Polygon","coordinates":[[[35.19,24.4],[33.93,26.56],[34.89,28.36],[39.1,22.4],[42.76,16.65],[43.84,12.66],[46.6,13.4],[52.14,15.69],[57.84,19.03],[59.84,22.28],[57.15,23.98],[51.59,24],[48.86,27.52],[51.35,28.04],[54.65,26.39],[61.34,25.03],[66.62,25.32],[68.07,23.68],[72.04,30.18],[72.85,33.35],[73.65,35.25],[73.19,39.97],[68.59,40.66],[63.52,45.03],[58.69,44.11],[61.11,38.7],[54.07,36.94],[51.8,36.43],[48.84,37.51],[49.09,41.45],[48.24,39.95],[41.68,41.79],[41.28,41.28],[40.63,39.88],[37.35,38.83],[34.66,36.65],[35.87,34.42],[33.56,30.97],[29.25,30.75],[20.37,32.3],[19.12,30.2],[19.32,28.42],[25.05,28.02],[27.35,24.13],[29.34,24.03],[32.51,23.73],[35.19,24.4]]]},"properties":{"NAME":"Abbasid Caliphate","SUBJECTO":"Abbasid Caliphate","BORDERPRECISION":1}},
{"type":"Feature","geometry":{"type":"MultiPolygon","coordinates":[[[[68.07,23.68],[70.38,22.86],[72.27,24.22],[76.11,27],[74.12,26.54],[72.63,28.37],[77.06,29.42],[79.15,28.34],[76.76,33.18],[72.85,33.35],[72.04,30.18],[68.07,23.68]]],[[[79.05,27.76],[79.28,27.63],[79.25,27.81],[79.05,27.76]]]]},"properties":{"NAME":"Hindu states","SUBJECTO":"Hindu states","BORDERPRECISION":1}},
{"type":"Feature","geometry":{"type":"Polygon","coordinates":[[[70.38,22.86],[72.69,22.1],[72.27,24.22],[70.38,22.86]]]},"properties":{"NAME":"Vallabhi","SUBJECTO":"Vallabhi","BORDERPRECISION":1}},
{"type":"Feature","geometry":{"type":"Polygon","coordinates":[[[80.31,13.1],[80.09,15.18],[85.38,19.61],[84.91,22.74],[84.9,22.85],[78.83,20.4],[79.06,13.03],[80.31,13.1]]]},"properties":{"NAME":"Hindu states","SUBJECTO":"Hindu states","BORDERPRECISION":1}},
{"type":"Feature","geometry":{"type":"Polygon","coordinates":[[[78.83,20.4],[72.88,20.34],[73.84,15.39],[75.73,11.25],[79.06,13.03],[78.83,20.4]]]},"properties":{"NAME":"Rashtrakuta state","SUBJECTO":"Rashtrakuta state","BORDERPRECISION":1}},
{"type":"Feature","geometry":{"type":"Polygon","coordinates":[[[102.42,24.89],[101.43,21.98],[100.12,20.17],[104.37,19.48],[105.76,21.9],[108.41,23.16],[108.75,26.15],[104.04,26.38],[102.42,24.89]]]},"properties":{"NAME":"Nan Chao","SUBJECTO":"Nan Chao","BORDERPRECISION":1}},
{"type":"Feature","geometry":{"type":"Polygon","coordinates":[[[97.98,14.24],[98.65,12.24],[99.98,12.84],[100.91,13.45],[97.98,14.24]]]},"properties":{"NAME":"Dvaravati","SUBJECTO":"Dvaravati","BORDERPRECISION":1}},
{"type":"Feature","geometry":{"type":"Polygon","coordinates":[[[107.49,14.91],[103,13.84],[102.18,12.33],[103.04,10.9],[106.77,10.64],[107.9,12.57],[107.49,14.91]]]},"properties":{"NAME":"Chen-La","SUBJECTO":"Chen-La","BORDERPRECISION":1}},
{"type":"Feature","geometry":{"type":"Polygon","coordinates":[[[106.45,16.19],[104.37,19.48],[100.12,20.17],[101.43,21.98],[98.28,22.59],[97.94,24.89],[93.41,24.25],[91.65,22.36],[93.97,19.19],[94.3,22.3],[96.48,21.76],[96.7,19.12],[97.42,16.48],[97.98,14.24],[100.91,13.45],[102.18,12.33],[103,13.84],[107.49,14.91],[106.45,16.19]]]},"properties":{"NAME":"Rajput Clans and Small States","SUBJECTO":"Rajput Clans and Small States","BORDERPRECISION":1}},
{"type":"Feature","geometry":{"type":"Polygon","coordinates":[[[127.67,39.87],[124.15,39.82],[124.74,38.28],[126.21,37.75],[126.39,37.61],[126.44,37.47],[126.66,37.22],[126.73,37.14],[126.77,37.1],[126.79,37.07],[126.79,37.01],[126.8,36.95],[126.8,36.94],[126.69,36.84],[126.39,36.96],[126.36,36.95],[126.31,36.93],[126.25,36.91],[126.19,36.86],[125.96,36.72],[126.36,36.63],[126.44,36.13],[126.63,35.93],[126.23,35.16],[126.41,34.27],[126.5,34.33],[126.62,34.41],[126.67,34.41],[126.82,34.43],[126.83,34.44],[126.99,34.55],[127.23,34.71],[127.36,34.8],[129.06,35.17],[129.25,37.01],[128.45,38.26],[128.27,38.42],[128.14,38.53],[127.96,38.69],[127.4,39.08],[127.28,39.22],[127.67,39.87]]]},"properties":{"NAME":"Silia","SUBJECTO":"Silia","BORDERPRECISION":1}},
{"type":"Feature","geometry":{"type":"Polygon","coordinates":[[[127.67,39.87],[131.06,42.75],[132.83,42.86],[130.39,44.8],[126.02,42.15],[122.08,40.49],[124.15,39.82],[127.67,39.87]]]},"properties":{"NAME":"Parhae","SUBJECTO":"Parhae","BORDERPRECISION":1}},
{"type":"Feature","geometry":{"type":"Polygon","coordinates":[[[107.38,16.69],[105.53,18.84],[107.9,21.48],[110.08,20.87],[116.34,22.91],[118.81,24.85],[121.36,28.39],[121.61,31.83],[119.02,34.69],[120.14,36.19],[117.59,38.28],[122.08,40.49],[126.02,42.15],[123.37,42.96],[116.24,41.58],[110.71,40.89],[104.84,41.23],[104.04,38.01],[102.77,33.4],[104.27,31.91],[104.15,28],[102.42,24.89],[104.04,26.38],[108.75,26.15],[108.41,23.16],[105.76,21.9],[104.37,19.48],[106.45,16.19],[107.38,16.69]]]},"properties":{"NAME":"Tang Empire","SUBJECTO":"Tang Empire","BORDERPRECISION":1}},
{"type":"Feature","geometry":{"type":"Polygon","coordinates":[[[79.06,13.03],[75.73,11.25],[76.05,10.61],[78.93,9.49],[80.31,13.1],[79.06,13.03]]]},"properties":{"NAME":"Pallava state","SUBJECTO":"Pallava state","BORDERPRECISION":1}},
{"type":"Feature","geometry":{"type":"Polygon","coordinates":[[[76.05,10.61],[76.7,8.71],[78.93,9.49],[76.05,10.61]]]},"properties":{"NAME":"Pandya state","SUBJECTO":"Pandya state","BORDERPRECISION":1}},
{"type":"Feature","geometry":{"type":"Polygon","coordinates":[[[80.56,5.93],[81.87,7.08],[80.66,9.3],[79.67,8.8],[80.56,5.93]]]},"properties":{"NAME":"Sinhalese kingdoms","SUBJECTO":"Sinhalese kingdoms","BORDERPRECISION":1}},
{"type":"Feature","geometry":{"type":"Polygon","coordinates":[[[139.8,39.89],[139.2,37.92],[135.16,35.65],[140.32,35.03],[141.47,40.51],[139.8,39.89]]]},"properties":{"NAME":"Japan","SUBJECTO":"Japan","BORDERPRECISION":1}},
{"type":"Feature","geometry":{"type":"Polygon","coordinates":[[[140.01,41.38],[143.21,41.93],[145.06,43.79],[141.88,45.44],[140.01,41.38]]]},"properties":{"NAME":"Ainu","SUBJECTO":"Ainu","BORDERPRECISION":1}},
{"type":"Feature","geometry":{"type":"MultiPolygon","coordinates":[[[[99.86,2.57],[99.11,0.22],[100.81,-2.34],[104.57,-6.07],[105.94,-3.21],[101.06,2.08],[99.86,2.57]]],[[[110.97,1.23],[108.81,0.81],[110.1,-3.08],[111.33,-1.37],[110.97,1.23]]],[[[100.75,3.82],[103.43,1.38],[103.06,5.22],[100.75,3.82]]]]},"properties":{"NAME":"Srivijaya Empire","SUBJECTO":"Srivijaya Empire","BORDERPRECISION":1}},
{"type":"Feature","geometry":{"type":"Polygon","coordinates":[[[98.65,12.24],[98.18,8.6],[100.14,6.18],[100.75,3.82],[103.06,5.22],[100.61,6.98],[99.07,9.9],[99.98,12.84],[98.65,12.24]]]},"properties":{"NAME":"minor Hindu & Buddhist states","SUBJECTO":"minor Hindu & Buddhist states","BORDERPRECISION":1}},
{"type":"Feature","geometry":{"type":"MultiPolygon","coordinates":[[[[110.1,-3.08],[113.97,-3.36],[111.33,-1.37],[110.1,-3.08]]],[[[109.12,-7.74],[110.78,-8.32],[113.07,-8.35],[112.27,-7.03],[109.22,-7.01],[109.12,-7.74]]]]},"properties":{"NAME":"Mataram","SUBJECTO":"Mataram","BORDERPRECISION":1}},
{"type":"Feature","geometry":{"type":"Polygon","coordinates":[[[-160.94,63.98],[-165.9,61.27],[-162,58.83],[-158.29,58.73],[-149.33,60.03],[-148.49,61.06],[-141.14,59.84],[-140.05,62.5],[-150.13,63.32],[-160.94,63.98]]]},"properties":{"NAME":"Thule","SUBJECTO":"Thule","BORDERPRECISION":1}},
{"type":"Feature","geometry":{"type":"Polygon","coordinates":[[[-57.81,49.2],[-56.08,47.87],[-54.13,48.84],[-56.66,50.06],[-57.81,49.2]]]},"properties":{"NAME":"Beothuk","SUBJECTO":"Beothuk","BORDERPRECISION":1}},
{"type":"Feature","geometry":{"type":"Polygon","coordinates":[[[-141.14,59.84],[-134.12,58.24],[-127.87,52.41],[-125.76,53.13],[-122.49,54.24],[-111.5,57.99],[-118.2,62.71],[-124.94,64.83],[-132.43,62.5],[-140.05,62.5],[-141.14,59.84]]]},"properties":{"NAME":"Athabaskan","SUBJECTO":"Athabaskan","BORDERPRECISION":1}},
{"type":"Feature","geometry":{"type":"Polygon","coordinates":[[[-97.71,21.8],[-97.64,26.85],[-96.68,28.25],[-96.6,28.38],[-97.76,28.7],[-102.57,29.99],[-104.23,30.44],[-112.89,30.39],[-112.74,30.11],[-105.54,22.28],[-105.29,20.67],[-100.89,20.74],[-100.25,22.57],[-97.71,21.8]]]},"properties":{"NAME":"Mogollon","SUBJECTO":"Mogollon","BORDERPRECISION":1}},
{"type":"Feature","geometry":{"type":"Polygon","coordinates":[[[-102.57,29.99],[-102.57,32.43],[-102.57,38.88],[-109.05,38.88],[-121.17,38.88],[-123.65,38.88],[-120.53,34.51],[-117.5,33.33],[-115.6,29.69],[-112.91,30.41],[-112.89,30.39],[-104.23,30.44],[-102.57,29.99]]]},"properties":{"NAME":"Anasazi","SUBJECTO":"Anasazi","BORDERPRECISION":1}},
{"type":"Feature","geometry":{"type":"Polygon","coordinates":[[[-46.28,-3.55],[-53.13,-14.26],[-53.12,-14.28],[-48.47,-23.75],[-47.87,-24.97],[-47.61,-24.79],[-44.56,-22.99],[-41.96,-22.92],[-39.69,-19.41],[-39.13,-14.32],[-34.89,-7.61],[-35.46,-5.27],[-37.73,-4.53],[-37.89,-4.39],[-38.07,-4.23],[-40.23,-2.85],[-44.22,-2.78],[-45.04,-1.61],[-46.28,-3.55]]]},"properties":{"NAME":"Tupis","SUBJECTO":"Tupis","BORDERPRECISION":1}},
{"type":"Feature","geometry":{"type":"Polygon","coordinates":[[[44.67,-16.24],[43.67,-24.23],[45.58,-25.62],[47.26,-24.77],[50.5,-15.31],[49.82,-12.83],[46.92,-15.36],[44.67,-16.24]]]},"properties":{"NAME":"Malagasy","SUBJECTO":"Malagasy","BORDERPRECISION":1}},
{"type":"Feature","geometry":{"type":"Polygon","coordinates":[[[142.41,-3.31],[137.85,-1.61],[135.25,-3.54],[137.82,-5.43],[140.95,-9.27],[144.38,-7.76],[148.59,-9.16],[147.38,-6.12],[142.41,-3.31]]]},"properties":{"NAME":"Papou","SUBJECTO":"Papou","BORDERPRECISION":1}},
{"type":"Feature","geometry":{"type":"MultiPolygon","coordinates":[[[[111.33,-1.37],[113.97,-3.36],[115.57,-3.8],[117.53,0.61],[117.07,3.51],[119.04,5.17],[116.6,6.9],[110.97,1.23],[111.33,-1.37]]],[[[120.64,0.92],[119.91,0.54],[118.68,-2.9],[122.26,-3.21],[119.87,-0.46],[120.64,0.92]]],[[[120.31,14.58],[122.4,17.11],[120.39,18.04],[120.31,14.58]]]]},"properties":{"NAME":"Malay","SUBJECTO":"Malay","BORDERPRECISION":1}},
{"type":"Feature","geometry":{"type":"Polygon","coordinates":[[[28.92,44.77],[27.01,45],[27.01,45.19],[26.12,44.84],[26.51,42.59],[24.04,42.19],[27.49,42.4],[28.69,44.49],[28.92,44.77]]]},"properties":{"NAME":"Bulgars","SUBJECTO":"Bulgars","BORDERPRECISION":1}},
{"type":"Feature","geometry":{"type":"Polygon","coordinates":[[[-1.9,54.34],[-0.32,53.58],[-1.94,55.56],[-2.06,55.3],[-1.9,54.34]]]},"properties":{"NAME":"Nothumbria","SUBJECTO":"Nothumbria","BORDERPRECISION":1}},
{"type":"Feature","geometry":{"type":"Polygon","coordinates":[[[0.19,50.73],[1.33,51.12],[0.46,51.43],[0.2,51.09],[0.19,50.73]]]},"properties":{"NAME":"Kent","SUBJECTO":"Kent","BORDERPRECISION":1}},
{"type":"Feature","geometry":{"type":"Polygon","coordinates":[[[0.27,51.46],[1.27,51.92],[-0.86,51.45],[0.27,51.46]]]},"properties":{"NAME":"Essex","SUBJECTO":"Essex","BORDERPRECISION":1}},
{"type":"Feature","geometry":{"type":"Polygon","coordinates":[[[-0.86,51.45],[1.27,51.92],[-0.32,53.58],[-1.9,54.34],[-2.89,54.17],[-2.91,53.27],[-2.75,51.64],[-1.77,50.73],[-0.86,51.45]]]},"properties":{"NAME":"Mercia","SUBJECTO":"Mercia","BORDERPRECISION":1}},
{"type":"Feature","geometry":{"type":"Polygon","coordinates":[[[132.83,42.86],[137.26,45.61],[130.26,50.15],[110.7,50.98],[93.94,51.1],[82.21,51.33],[80.72,46.44],[91.33,45.92],[90.96,43.55],[94.6,41.12],[98.97,41],[104.04,38.01],[104.84,41.23],[110.71,40.89],[116.24,41.58],[123.37,42.96],[126.02,42.15],[130.39,44.8],[132.83,42.86]]]},"properties":{"NAME":"Ouighurs","SUBJECTO":"Ouighurs","BORDERPRECISION":1}},
{"type":"Feature","geometry":{"type":"Polygon","coordinates":[[[137.26,45.61],[140.08,48.5],[141.12,53.05],[134.99,54.85],[142.36,59.14],[137.18,61.33],[127.81,61.8],[116.96,59.88],[115.21,57.39],[110.7,50.98],[130.26,50.15],[137.26,45.61]]]},"properties":{"NAME":"Tungus","SUBJECTO":"Tungus","BORDERPRECISION":1}},
{"type":"Feature","geometry":{"type":"MultiPolygon","coordinates":[[[[28.37,45.74],[27.01,45.19],[27.01,45],[28.92,44.77],[28.69,44.49],[32.15,46.64],[32.25,47.3],[28.37,45.74]]],[[[28.19,48.49],[29.69,48.46],[31.07,49.02],[28.19,48.49]]]]},"properties":{"NAME":"Magyars","SUBJECTO":"Khazars","BORDERPRECISION":1}},
{"type":"Feature","geometry":{"type":"Polygon","coordinates":[[[18.63,10.17],[20.67,11.96],[21.5,12.68],[20.72,14.78],[17,15.59],[15.13,14.9],[14.41,12.9],[14.58,12.67],[15.66,11.31],[18.63,10.17]]]},"properties":{"NAME":"Kanem","SUBJECTO":"Kanem","BORDERPRECISION":1}},
{"type":"Feature","geometry":{"type":"Polygon","coordinates":[[[-14.51,28.05],[-13.88,28.2],[-14.15,28.39],[-14.51,28.05]]]},"properties":{"NAME":"Guanches","SUBJECTO":"Guanches","BORDERPRECISION":1}},
{"type":"Feature","geometry":{"type":"Polygon","coordinates":[[[79.05,27.76],[78.55,27.63],[76.31,27.05],[76.11,27],[72.27,24.22],[72.69,22.1],[72.88,20.34],[78.83,20.4],[84.9,22.85],[84.82,23.85],[83.98,24.78],[84.04,24.83],[81.59,25.23],[79.28,27.63],[79.05,27.76]]]},"properties":{"NAME":"Gurjara Pratihara","SUBJECTO":"Gurjara Pratihara","BORDERPRECISION":1}},
{"type":"Feature","geometry":{"type":"Polygon","coordinates":[[[-61.29,16.33],[-61.5,16.35],[-61.79,16.24],[-61.7,15.95],[-61.55,16.05],[-61.58,16.2],[-61.29,16.33]]]},"properties":{"NAME":"Arawaks","SUBJECTO":"Arawaks","BORDERPRECISION":1}},
{"type":"Feature","geometry":{"type":"Polygon","coordinates":[[[-59.72,53.43],[-60.12,53.52],[-60.22,53.32],[-62.59,54.57],[-64.33,50.3],[-60.14,50.41],[-55.66,52.19],[-56.13,53.47],[-59.72,53.43]]]},"properties":{"NAME":"Innu","SUBJECTO":"Innu","BORDERPRECISION":1}},
{"type":"Feature","geometry":null,"properties":{"NAME":"Danes","SUBJECTO":"Danes","BORDERPRECISION":1}},
{"type":"Feature","geometry":{"type":"Polygon","coordinates":[[[12.25,59.03],[15.77,56.04],[17.2,60.68],[12.29,59.24],[12.25,59.03]]]},"properties":{"NAME":"Swedes and Goths","SUBJECTO":"Swedes and Goths","BORDERPRECISION":1}},
{"type":"Feature","geometry":{"type":"MultiPolygon","coordinates":[[[[9.52,55.14],[8.88,54.23],[10.14,54.34],[9.71,54.83],[9.73,54.95],[9.53,55.09],[9.52,55.14]]],[[[12.25,59.03],[9.71,59],[12.29,56.88],[15.77,56.04],[12.25,59.03]]]]},"properties":{"NAME":"Danes","SUBJECTO":"Danes","BORDERPRECISION":1}},
{"type":"Feature","geometry":{"type":"Polygon","coordinates":[[[-1.94,55.56],[-3.83,55.95],[-4.63,55.92],[-2.89,54.17],[-1.9,54.34],[-2.06,55.3],[-1.94,55.56]]]},"properties":{"NAME":"Celtic kingdoms","SUBJECTO":"Celtic kingdoms","BORDERPRECISION":1}},
{"type":"Feature","geometry":{"type":"Polygon","coordinates":[[[-3.89,55.98],[-1.94,57.4],[-5.23,57.71],[-3.89,55.98]]]},"properties":{"NAME":"Picts","SUBJECTO":"Picts","BORDERPRECISION":1}},
{"type":"Feature","geometry":{"type":"Polygon","coordinates":[[[-3.83,55.95],[-3.89,55.98],[-5.23,57.71],[-4.63,55.92],[-3.83,55.95]]]},"properties":{"NAME":"Scots","SUBJECTO":"Scots","BORDERPRECISION":1}},
{"type":"Feature","geometry":{"type":"Polygon","coordinates":[[[-6.65,55.21],[-9.89,52.19],[-6.41,52.21],[-6.65,55.21]]]},"properties":{"NAME":"Irlanda","SUBJECTO":"Irlanda","BORDERPRECISION":1}},
{"type":"Feature","geometry":{"type":"Polygon","coordinates":[[[27.61,58.33],[21.14,54.85],[18.14,54.72],[22.54,53.53],[28.8,56.43],[28.42,57.9],[27.61,58.33]]]},"properties":{"NAME":"Baltic tribes","SUBJECTO":"Baltic tribes","BORDERPRECISION":1}},
{"type":"Feature","geometry":{"type":"MultiPolygon","coordinates":[[[[23.76,42.82],[22.76,42.51],[22.59,41.97],[23.73,42.18],[24.04,42.19],[26.51,42.59],[26.12,44.84],[27.01,45.19],[28.37,45.74],[32.25,47.3],[32.26,47.36],[30.84,47.08],[28.52,47.98],[29.69,48.46],[28.19,48.49],[26.94,48.27],[26.79,48.53],[26.21,45.43],[25.84,43.45],[23.76,42.82]]],[[[17.15,44.21],[15.66,45.24],[14.35,45.32],[15.29,44.33],[15.55,44.23],[17.15,44.21]]]]},"properties":{"NAME":"Avars","SUBJECTO":"Avars","BORDERPRECISION":1}},
{"type":"Feature","geometry":{"type":"Polygon","coordinates":[[[49.09,41.45],[46.85,44.45],[51.37,47.09],[52.96,46.93],[55.11,48.6],[53.43,50.91],[45.64,54.28],[40.05,53.92],[34.97,52.86],[35.22,50.7],[35.6,49.84],[32.93,49.35],[33.02,49.28],[32.62,49.2],[32.47,49.27],[31.07,49.02],[29.69,48.46],[28.52,47.98],[30.84,47.08],[32.26,47.36],[32.25,47.3],[32.15,46.64],[37.42,47.08],[37.47,44.69],[41.68,41.79],[48.24,39.95],[49.09,41.45]]]},"properties":{"NAME":"Khazars","SUBJECTO":"Khazars","BORDERPRECISION":1}},
{"type":"Feature","geometry":{"type":"Polygon","coordinates":[[[-24.16,65.61],[-22.37,63.77],[-14.82,64.2],[-16.39,66.45],[-24.16,65.61]]]},"properties":{"NAME":"Northmen","SUBJECTO":"Northmen","BORDERPRECISION":1}},
{"type":"Feature","geometry":{"type":"Polygon","coordinates":[[[12.4,50.17],[13.95,48.72],[15.71,49.01],[16.69,50.19],[12.4,50.17]]]},"properties":{"NAME":"Czechs","SUBJECTO":"Slavic tribes","BORDERPRECISION":1}},
{"type":"Feature","geometry":{"type":"Polygon","coordinates":[[[-122.49,54.24],[-114.47,52],[-105.19,51.45],[-95.57,50],[-87.79,49.93],[-81.93,48.9],[-72.32,46.3],[-71.03,46.75],[-66.37,50.31],[-64.33,50.3],[-62.59,54.57],[-62.89,54.73],[-71.03,55.2],[-74.2,52.93],[-78.74,52.74],[-82.34,52.98],[-82.2,54.97],[-89.73,56.93],[-90.44,57.14],[-92.4,56.98],[-102.14,57.21],[-111.5,57.99],[-122.49,54.24]]]},"properties":{"NAME":"Subarctic forest hunter-gatherers","SUBJECTO":"Subarctic forest hunter-gatherers","BORDERPRECISION":1}},
{"type":"Feature","geometry":{"type":"Polygon","coordinates":[[[142.34,-10.92],[140.8,-17.56],[139.25,-17.43],[135.39,-14.9],[136.66,-12.62],[133.56,-11.95],[130.46,-12.76],[129.2,-14.99],[126.85,-13.78],[122.74,-16.58],[120.87,-19.68],[116.42,-20.84],[113.63,-22.57],[113.43,-26.57],[115.75,-32.21],[115.05,-34.42],[118.21,-35.09],[119.77,-34.12],[123.62,-33.92],[126.06,-32.43],[131.28,-31.63],[133.84,-32.34],[135.53,-35.05],[137.46,-33.31],[140.01,-37.64],[143.36,-38.97],[149.5,-37.93],[151.36,-33.52],[152.97,-31.42],[153.07,-26.23],[150.75,-22.81],[146.32,-19.08],[145.18,-15.05],[143.74,-14.47],[142.34,-10.92]]]},"properties":{"NAME":"Australian aboriginal hunter-gatherers","SUBJECTO":"Australian aboriginal hunter-gatherers","BORDERPRECISION":1}},
{"type":"Feature","geometry":{"type":"Polygon","coordinates":[[[146.71,-43.72],[148.27,-41.09],[144.78,-40.84],[146.71,-43.72]]]},"properties":{"NAME":"Tasmanian hunter-gatherers","SUBJECTO":"Tasmanian hunter-gatherers","BORDERPRECISION":1}},
{"type":"Feature","geometry":{"type":"MultiPolygon","coordinates":[[[[-43.58,59.94],[-39.69,65.19],[-42.79,65.4],[-43.58,59.94]]],[[[-49.47,67.03],[-50.54,67.49],[-50.94,67.53],[-53.1,65.87],[-48.92,61.42],[-46.16,60.94],[-49.47,67.03]]],[[[-140.05,62.5],[-132.43,62.5],[-124.94,64.83],[-118.2,62.71],[-111.5,57.99],[-102.14,57.21],[-92.4,56.98],[-94.75,59.95],[-91.42,62.85],[-91.03,63.39],[-89.87,63.58],[-89.86,63.65],[-89.99,64.03],[-87.44,64.57],[-97.36,65.12],[-110.86,65.94],[-120.4,67.95],[-119.98,69.38],[-137.73,69.02],[-156.9,71.35],[-164.07,69.06],[-166.59,64.73],[-160.94,63.98],[-150.13,63.32],[-140.05,62.5]]],[[[-60.12,53.52],[-62.49,57.96],[-62.51,57.97],[-76.46,56.58],[-79.55,54.69],[-78.74,52.74],[-74.2,52.93],[-71.03,55.2],[-62.89,54.73],[-62.59,54.57],[-60.22,53.32],[-60.12,53.52]]],[[[123.5,73.5],[124.54,71.59],[130.87,69.9],[155.89,68.17],[168.14,67.46],[171.77,65.86],[172.44,63.08],[170.34,60.28],[170.52,60.34],[179.29,62.82],[180,64.95],[180,65.05],[180,65.31],[180,65.38],[180,65.96],[180,66.96],[180,67.96],[180,68.92],[175.61,69.78],[159.44,69.76],[152.13,70.66],[141.29,72.79],[137.63,71.08],[126.22,72.38],[124.22,73.7],[123.5,73.5]]],[[[-169.87,66.08],[-180,68.92],[-180,67.96],[-180,66.96],[-180,65.96],[-180,65.38],[-180,65.31],[-180,65.26],[-178.12,65.48],[-173.08,64.38],[-169.87,66.08]]]]},"properties":{"NAME":"Arctic marine mammal hunters","SUBJECTO":"Arctic marine mammal hunters","BORDERPRECISION":1}},
{"type":"Feature","geometry":{"type":"MultiPolygon","coordinates":[[[[-87.44,64.57],[-86.49,67.38],[-89.74,68.53],[-90,68.37],[-101.91,67.71],[-112.5,67.69],[-119.98,69.38],[-120.4,67.95],[-110.86,65.94],[-97.36,65.12],[-87.44,64.57]]],[[[-62.51,57.97],[-69.21,58.75],[-70.03,60.88],[-77.36,62.52],[-78.34,58.55],[-76.46,56.58],[-62.51,57.97]]],[[[-110.08,72.56],[-118.99,72.03],[-113.15,68.6],[-103.86,70.7],[-110.08,72.56]]],[[[-72.73,64.01],[-64.47,63.74],[-61.21,66.64],[-68.67,68.72],[-71.25,71.35],[-81.53,73.69],[-88.1,73.64],[-87.95,70.38],[-78.71,70.01],[-72.3,67.26],[-75.79,65.2],[-72.73,64.01]]],[[[-87.45,82.14],[-87.27,76.5],[-78.37,78.03],[-62.43,82.63],[-87.45,82.14]]]]},"properties":{"NAME":"Dorset","SUBJECTO":"Dorset","BORDERPRECISION":1}},
{"type":"Feature","geometry":{"type":"Polygon","coordinates":[[[-70.4,-25.25],[-71.43,-29.1],[-71.62,-33.71],[-73.67,-37.5],[-72.73,-41.55],[-72.07,-40.55],[-69.44,-37.16],[-67.48,-31.66],[-69.32,-29.3],[-67.12,-25.03],[-65.91,-18.31],[-67.36,-19.19],[-68.19,-25.49],[-70.4,-25.25]]]},"properties":{"NAME":"Andean hunter-gatherers","SUBJECTO":"Andean hunter-gatherers","BORDERPRECISION":1}},
{"type":"Feature","geometry":{"type":"Polygon","coordinates":[[[-49.07,-4.74],[-56.33,-4.33],[-58.44,-2.29],[-55.86,1.7],[-58.56,3.98],[-62.66,4.15],[-66.41,3.04],[-70.16,-5.74],[-69.05,-8.24],[-64.19,-14.69],[-60.27,-13.81],[-53.12,-14.28],[-53.13,-14.26],[-46.28,-3.55],[-49.07,-4.74]]]},"properties":{"NAME":"Amazon hunter-gatherers","SUBJECTO":"Amazon hunter-gatherers","BORDERPRECISION":1}},
{"type":"Feature","geometry":{"type":"Polygon","coordinates":[[[-69.11,-51.35],[-71.17,-51.56],[-72.19,-45.99],[-70.58,-40.58],[-72.07,-40.55],[-72.73,-41.55],[-74.31,-48.75],[-71.87,-53.7],[-69.08,-51.5],[-69.11,-51.35]]]},"properties":{"NAME":"Patagonian shellfish and marine mammal hunters","SUBJECTO":"Patagonian shellfish and marine mammal hunters","BORDERPRECISION":1}},
{"type":"Feature","geometry":{"type":"Polygon","coordinates":[[[-61.7,8.61],[-61.53,9.85],[-67.98,10.54],[-69.75,11.53],[-71.1,9.33],[-70.68,8.56],[-65.97,8.18],[-61.7,8.61]]]},"properties":{"NAME":"Caribbean hunter-gatherers","SUBJECTO":"Caribbean hunter-gatherers","BORDERPRECISION":1}},
{"type":"Feature","geometry":{"type":"Polygon","coordinates":[[[-48.8,-28.48],[-49.84,-26.8],[-48.47,-23.75],[-53.12,-14.28],[-60.27,-13.81],[-64.19,-14.69],[-65.91,-18.31],[-67.12,-25.03],[-69.32,-29.3],[-67.48,-31.66],[-63.56,-30.04],[-57.35,-29.68],[-52.14,-31.74],[-52.04,-31.56],[-48.85,-28.56],[-48.8,-28.48]]]},"properties":{"NAME":"Savanna hunter-gatherers","SUBJECTO":"Savanna hunter-gatherers","BORDERPRECISION":1}},
{"type":"Feature","geometry":{"type":"Polygon","coordinates":[[[-48.73,-28.37],[-47.61,-24.79],[-47.87,-24.97],[-48.47,-23.75],[-49.84,-26.8],[-48.8,-28.48],[-48.73,-28.37]]]},"properties":{"NAME":"Shellfish gatherers","SUBJECTO":"Shellfish gatherers","BORDERPRECISION":1}},
{"type":"Feature","geometry":{"type":"Polygon","coordinates":[[[-69.17,-51.15],[-65.78,-47.23],[-64.94,-40.83],[-61.36,-39.03],[-57.81,-38.39],[-56.34,-35],[-54.07,-34.65],[-52.14,-31.75],[-52.14,-31.74],[-57.35,-29.68],[-63.56,-30.04],[-67.48,-31.66],[-69.44,-37.16],[-72.07,-40.55],[-70.58,-40.58],[-72.19,-45.99],[-71.17,-51.56],[-69.11,-51.35],[-69.17,-51.15]]]},"properties":{"NAME":"Pampas cultures","SUBJECTO":"Pampas cultures","BORDERPRECISION":1}},
{"type":"Feature","geometry":{"type":"Polygon","coordinates":[[[-96.68,28.25],[-94.12,29.69],[-94.12,31.93],[-97.14,34.47],[-94.12,35.88],[-94.23,46.72],[-95.57,50],[-105.19,51.45],[-114.47,52],[-114.13,47.95],[-111.67,41.94],[-109.05,38.88],[-102.57,38.88],[-102.57,32.43],[-97.76,28.7],[-96.6,28.38],[-96.68,28.25]]]},"properties":{"NAME":"Plain bison hunters","SUBJECTO":"Plain bison hunters","BORDERPRECISION":1}},
{"type":"Feature","geometry":{"type":"MultiPolygon","coordinates":[[[[-97.76,28.7],[-102.57,32.43],[-102.57,29.99],[-97.76,28.7]]],[[[-109.05,38.88],[-111.67,41.94],[-120.47,43.57],[-121.17,38.88],[-109.05,38.88]]]]},"properties":{"NAME":"Desert hunter-gatherers","SUBJECTO":"Desert hunter-gatherers","BORDERPRECISION":1}},
{"type":"Feature","geometry":{"type":"Polygon","coordinates":[[[-125.76,53.13],[-120.48,48.96],[-120.47,43.57],[-111.67,41.94],[-114.13,47.95],[-114.47,52],[-122.49,54.24],[-125.76,53.13]]]},"properties":{"NAME":"Plateau fichers and hunter gatherers","SUBJECTO":"Plateau fichers and hunter gatherers","BORDERPRECISION":1}},
{"type":"Feature","geometry":{"type":"Polygon","coordinates":[[[-127.87,52.41],[-124.68,48.39],[-124.63,43.01],[-123.65,38.88],[-121.17,38.88],[-120.47,43.57],[-120.48,48.96],[-125.76,53.13],[-127.87,52.41]]]},"properties":{"NAME":"North American Pacifi foraging, hunting and fishing peoples","SUBJECTO":"North American Pacifi foraging, hunting and fishing peoples","BORDERPRECISION":1}},
{"type":"Feature","geometry":{"type":"Polygon","coordinates":[[[30.79,11.2],[24.07,11.18],[20.67,11.96],[18.63,10.17],[15.66,11.31],[14.58,12.67],[8.27,12.37],[2.35,13.29],[-6.26,13.35],[-13.4,14.92],[-16.87,14.36],[-16.77,12.6],[-13.68,9.92],[-12.26,7.35],[-7.53,4.34],[-5,5.24],[-2.03,4.7],[3.95,6.58],[5.45,5.48],[5.36,5.37],[12.6,7.73],[22.22,6.2],[34.41,2.49],[46.19,2.52],[48.47,5.2],[50.78,9.37],[51.18,11.78],[44.28,10.4],[43.1,11.53],[40.17,9.84],[39.75,7.95],[38.61,6.6],[35.58,5.53],[33.02,6.86],[31.75,10.25],[30.79,11.2]]]},"properties":{"NAME":"West African cereal farmers","SUBJECTO":"West African cereal farmers","BORDERPRECISION":1}},
{"type":"Feature","geometry":{"type":"Polygon","coordinates":[[[12.52,-19.06],[14.42,-22.27],[15.45,-27.62],[18.18,-31.81],[18.49,-34.4],[26.66,-33.85],[32.23,-28.74],[33.35,-25.3],[34.88,-24.72],[34.72,-20.04],[12.91,-19.7],[12.52,-19.06]]]},"properties":{"NAME":"Khoiasan","SUBJECTO":"Khoiasan","BORDERPRECISION":1}},
{"type":"Feature","geometry":{"type":"Polygon","coordinates":[[[79.28,27.63],[81.59,25.23],[84.04,24.83],[85.1,25.8],[87.87,27.02],[91.58,27.17],[93.41,24.25],[97.94,24.89],[98.28,22.59],[101.43,21.98],[102.42,24.89],[104.15,28],[104.27,31.91],[102.77,33.4],[104.04,38.01],[98.97,41],[94.6,41.12],[90.96,43.55],[85.62,43.42],[79.98,40.77],[75.38,40.2],[76.53,36.97],[76.76,33.18],[79.15,28.34],[79.85,27.97],[79.25,27.81],[79.28,27.63]]]},"properties":{"NAME":"Tibetan Empire","SUBJECTO":"Tibetan Empire","BORDERPRECISION":1}},
{"type":"Feature","geometry":{"type":"Polygon","coordinates":[[[5.36,5.37],[5.35,5.36],[8.87,4.62],[9.92,2.82],[9.2,-0.63],[9.66,-2.42],[11.77,-4.54],[13.39,-8.16],[13.65,-12.2],[11.78,-15.87],[12.52,-19.06],[12.91,-19.7],[34.72,-20.04],[39.47,-16.72],[40.6,-14.4],[40.31,-11.34],[38.92,-6.34],[40.23,-3.19],[43.72,0.8],[46.19,2.52],[34.41,2.49],[22.22,6.2],[12.6,7.73],[5.36,5.37]]]},"properties":{"NAME":"Bantou","SUBJECTO":"Bantou","BORDERPRECISION":1}},
{"type":"Feature","geometry":{"type":"Polygon","coordinates":[[[-95.57,50],[-94.23,46.72],[-94.12,35.88],[-97.14,34.47],[-94.12,31.93],[-94.12,29.69],[-90.78,29.11],[-89.23,30.41],[-83.89,30.05],[-82.43,27.83],[-80.59,28.49],[-81.51,30.73],[-80.58,32.5],[-76.62,34.76],[-74.29,40.63],[-70.3,41.76],[-70.22,43.8],[-64.53,46.27],[-66.03,49.17],[-71.03,46.75],[-72.32,46.3],[-81.93,48.9],[-87.79,49.93],[-95.57,50]],[[-91.15,47.37],[-88.09,49],[-84.44,46.82],[-90.28,46.62],[-91.15,47.37]]]},"properties":{"NAME":"Eastern North Amercian hunter-gatherers","SUBJECTO":"Eastern North Amercian hunter-gatherers","BORDERPRECISION":1}},
{"type":"Feature","geometry":{"type":"Polygon","coordinates":[[[-1.94,42.64],[2.07,41.3],[4.08,43.49],[8.9,44.44],[11.79,42.14],[12.32,45.12],[13.95,48.72],[12.4,50.17],[10.14,54.34],[8.88,54.23],[4.64,52.76],[0.03,49.33],[-4.76,48.55],[-2.01,47.75],[-1.08,46.01],[-1.91,43.31],[-1.94,42.64]]]},"properties":{"NAME":"Carolingian Empire","SUBJECTO":"Carolingian Empire","BORDERPRECISION":1}},
{"type":"Feature","geometry":{"type":"MultiPolygon","coordinates":[[[[41.28,41.28],[38.65,40.92],[33.56,41.98],[26.13,39.88],[27.16,37.36],[30.47,36.19],[34.66,36.65],[37.35,38.83],[40.63,39.88],[41.28,41.28]]],[[[24.04,42.19],[23.73,42.18],[22.59,41.97],[21.92,39.9],[21.34,39.69],[19.97,42.26],[17.15,44.21],[15.55,44.23],[15.29,44.33],[19.61,41.76],[19.37,40.26],[21.23,37.9],[23.56,38.35],[22.6,40.4],[28.83,40.91],[27.49,42.4],[24.04,42.19]]]]},"properties":{"NAME":"Byzantine Empire","SUBJECTO":"Byzantine Empire","BORDERPRECISION":1}},
{"type":"Feature","geometry":{"type":"Polygon","coordinates":[[[-4.36,47.83],[-2.47,47.49],[-2.01,47.75],[-4.76,48.55],[-4.47,48.38],[-4.39,48.3],[-4.35,48.2],[-4.7,48.06],[-4.51,48],[-4.39,47.94],[-4.36,47.83]]]},"properties":{"NAME":"Britany","SUBJECTO":"Britany","BORDERPRECISION":1}},
{"type":"Feature","geometry":{"type":"Polygon","coordinates":[[[17.2,60.68],[22.65,65.93],[25.19,65.24],[29.22,65.48],[34.73,65.61],[40.83,67.66],[29.73,69.7],[20.16,69.75],[14.98,67.52],[12.29,59.24],[17.2,60.68]]]},"properties":{"NAME":"Sámi","SUBJECTO":"Sámi","BORDERPRECISION":1}},
{"type":"Feature","geometry":{"type":"Polygon","coordinates":[[[-82.43,27.83],[-81.1,25.13],[-80.05,26.55],[-80.59,28.49],[-82.43,27.83]]]},"properties":{"NAME":"Caloosahatchee cultureure","SUBJECTO":"Caloosahatchee cultureure","BORDERPRECISION":1}},
{"type":"Feature","geometry":{"type":"Polygon","coordinates":[[[28.42,57.9],[31.56,56.25],[35.21,60.29],[35.67,60.91],[35.04,61.52],[32.58,61.04],[30.5,60.72],[28.48,60.3],[27.61,58.33],[28.42,57.9]]]},"properties":{"NAME":"Rus' Khaganate","SUBJECTO":"Rus' Khaganate","BORDERPRECISION":1}},
{"type":"Feature","geometry":{"type":"Polygon","coordinates":[[[142.36,59.14],[148.42,59.1],[154.32,59.98],[157.1,61.63],[160.64,60.72],[156.78,57.58],[155.47,54.92],[156.7,50.96],[161.5,55.29],[163.39,59.81],[170.34,60.28],[172.44,63.08],[171.77,65.86],[168.14,67.46],[155.89,68.17],[130.87,69.9],[124.54,71.59],[123.5,73.5],[123.41,73.48],[105.6,72.74],[105.4,72.75],[98.46,69.79],[75.86,61.43],[64.63,57.58],[70.38,55.58],[78.36,56.41],[93.7,56.48],[99.49,55.66],[107.96,59.82],[114.02,59.55],[115.21,57.39],[116.96,59.88],[127.81,61.8],[137.18,61.33],[142.36,59.14]]]},"properties":{"NAME":"Paleo-Siberian hunter-gatherers","SUBJECTO":"Paleo-Siberian hunter-gatherers","BORDERPRECISION":1}},
{"type":"Feature","geometry":{"type":"Polygon","coordinates":[[[31.07,49.02],[32.47,49.27],[32.41,49.3],[32.17,49.4],[32.35,49.47],[32.86,49.41],[32.93,49.35],[35.6,49.84],[35.22,50.7],[34.97,52.86],[40.05,53.92],[45.64,54.28],[45.96,54.3],[46.07,56.21],[44.4,56.23],[43.19,57.47],[44.18,58.17],[43.17,58.4],[35.21,60.29],[31.56,56.25],[28.42,57.9],[28.8,56.43],[22.54,53.53],[18.14,54.72],[14.47,53.88],[13.78,53.78],[13.74,54.03],[13.43,54.03],[13.06,54.19],[12.65,54.32],[12.04,54.1],[11.15,53.94],[10.86,53.88],[10.72,53.96],[11.02,54.1],[11.07,54.22],[10.14,54.34],[12.4,50.17],[16.69,50.19],[15.71,49.01],[13.95,48.72],[14.35,45.32],[15.66,45.24],[17.15,44.21],[19.97,42.26],[21.34,39.69],[21.92,39.9],[22.59,41.97],[22.76,42.51],[23.76,42.82],[25.84,43.45],[26.21,45.43],[26.79,48.53],[26.94,48.27],[28.19,48.49],[31.07,49.02]]]},"properties":{"NAME":"Slavonic tribes","SUBJECTO":"Slavonic tribes","BORDERPRECISION":1}},
{"type":"Feature","geometry":{"type":"Polygon","coordinates":[[[45.96,54.3],[48.39,54.18],[49.99,55.31],[56.6,52.66],[59.04,56.44],[49.1,57.71],[47.57,56.81],[46.82,56.2],[46.07,56.21],[45.96,54.3]]]},"properties":{"NAME":"Volga Bulgars","SUBJECTO":"Volga Bulgars","BORDERPRECISION":1}},
{"type":"Feature","geometry":{"type":"Polygon","coordinates":[[[70.38,55.58],[64.63,57.58],[60.31,56.6],[59.04,56.44],[56.6,52.66],[55.6,51.11],[62.74,50.76],[70.38,55.58]]]},"properties":{"NAME":"Bashkirs","SUBJECTO":"Bashkirs","BORDERPRECISION":1}},
{"type":"Feature","geometry":{"type":"Polygon","coordinates":[[[53.43,50.91],[55.6,51.11],[56.6,52.66],[49.99,55.31],[48.39,54.18],[45.96,54.3],[45.64,54.28],[53.43,50.91]]]},"properties":{"NAME":"Mordvinians","SUBJECTO":"Mordvinians","BORDERPRECISION":1}},
{"type":"Feature","geometry":{"type":"Polygon","coordinates":[[[24.46,57.28],[25.79,59.56],[23.57,59.32],[24.46,57.28]]]},"properties":{"NAME":"Ests","SUBJECTO":"Ests","BORDERPRECISION":1}},
{"type":"Feature","geometry":{"type":"Polygon","coordinates":[[[25.19,65.24],[21.03,62.48],[23.66,59.84],[28.48,60.3],[30.5,60.72],[30.8,61.75],[29.22,65.48],[25.19,65.24]]]},"properties":{"NAME":"Finns","SUBJECTO":"Finns","BORDERPRECISION":1}},
{"type":"Feature","geometry":{"type":"Polygon","coordinates":[[[46.07,56.21],[46.82,56.2],[47.57,56.81],[49.1,57.71],[49.11,57.72],[44.51,58.4],[44.18,58.17],[43.19,57.47],[44.4,56.23],[46.07,56.21]]]},"properties":{"NAME":"Mari","SUBJECTO":"Mari","BORDERPRECISION":1}},
{"type":"Feature","geometry":{"type":"Polygon","coordinates":[[[44.18,58.17],[44.51,58.4],[49.11,57.72],[49.1,57.71],[59.04,56.44],[60.31,56.6],[57.97,68.71],[53.89,68.79],[39.95,65.58],[37.79,63.83],[42.86,61.48],[43.17,58.4],[44.18,58.17]]]},"properties":{"NAME":"Permians","SUBJECTO":"Permians","BORDERPRECISION":1}},
{"type":"Feature","geometry":{"type":"Polygon","coordinates":[[[89.8,75.52],[87.69,73.9],[72.71,72.77],[57.97,68.71],[60.31,56.6],[64.63,57.58],[75.86,61.43],[98.46,69.79],[105.4,72.75],[105.28,72.75],[113.63,75.27],[103.39,77.56],[91.63,75.65],[89.8,75.52]]]},"properties":{"NAME":"Finno-Ugric taiga hunter-gatherers","SUBJECTO":"Finno-Ugric taiga hunter-gatherers","BORDERPRECISION":1}},
{"type":"Feature","geometry":{"type":"Polygon","coordinates":[[[29.22,65.48],[30.8,61.75],[32.58,61.04],[35.04,61.52],[35.73,62.52],[36.68,63.86],[34.73,65.61],[29.22,65.48]]]},"properties":{"NAME":"Karelians","SUBJECTO":"Karelians","BORDERPRECISION":1}},
{"type":"Feature","geometry":{"type":"Polygon","coordinates":[[[35.21,60.29],[43.17,58.4],[42.86,61.48],[37.79,63.83],[36.68,63.86],[35.73,62.52],[35.67,60.91],[35.21,60.29]]]},"properties":{"NAME":"Veps","SUBJECTO":"Veps","BORDERPRECISION":1}},
{"type":"Feature","geometry":{"type":"Polygon","coordinates":[[[12.29,59.24],[14.98,67.52],[9.83,63.68],[5.15,61.74],[5.62,58.46],[9.71,59],[12.25,59.03],[12.29,59.24]]]},"properties":{"NAME":"Northmen","SUBJECTO":"Northmen","BORDERPRECISION":1}},
{"type":"Feature","geometry":{"type":"Polygon","coordinates":[[[14.08,42.63],[13.07,43.77],[12.64,41.53],[13.76,41.21],[14.08,42.63]]]},"properties":{"NAME":"Carolingian Empire","SUBJECTO":"Carolingian Empire","BORDERPRECISION":1}},
{"type":"Feature","geometry":{"type":"Polygon","coordinates":[[[11.79,42.14],[12.64,41.53],[13.07,43.77],[12.32,45.12],[11.79,42.14]]]},"properties":{"NAME":"Papal States","SUBJECTO":"Papal States","BORDERPRECISION":1}},
{"type":"Feature","geometry":{"type":"Polygon","coordinates":[[[85.38,19.61],[87.64,21.56],[91.65,22.36],[93.41,24.25],[91.58,27.17],[87.87,27.02],[85.1,25.8],[84.04,24.83],[83.98,24.78],[84.82,23.85],[84.9,22.85],[84.91,22.74],[85.38,19.61]]]},"properties":{"NAME":"Palas","SUBJECTO":"Palas","BORDERPRECISION":1}},
{"type":"Feature","geometry":{"type":"Polygon","coordinates":[[[79.25,27.81],[79.85,27.97],[79.15,28.34],[77.06,29.42],[72.63,28.37],[74.12,26.54],[76.11,27],[76.31,27.05],[78.55,27.63],[79.05,27.76],[79.25,27.81]]]},"properties":{"NAME":"Chauhans","SUBJECTO":"Chauhans","BORDERPRECISION":1}}
]}