{"type":"FeatureCollection", "features": [
{"type":"Feature","geometry":{"type":"Polygon","coordinates":[[[80.56,5.93],[81.87,7.08],[80.66,9.3],[79.67,8.8],[80.56,5.93]]]},"properties":{"NAME":"Simhala","SUBJECTO":"Simhala","BORDERPRECISION":1}},
{"type":"Feature","geometry":{"type":"Polygon","coordinates":[[[-58.14,48.6],[-56.08,47.87],[-54.13,48.84],[-57.36,50.6],[-58.14,48.6]]]},"properties":{"NAME":"Paleo-Inuit","SUBJECTO":"Paleo-Inuit","BORDERPRECISION":1}},
{"type":"Feature","geometry":{"type":"Polygon","coordinates":[[[34.55,20.18],[34.28,16.48],[31.15,16.38],[30.24,19.21],[30.54,22.75],[29.97,28.44],[28.62,29.97],[20.12,30.96],[19.12,30.2],[13.44,31.15],[10,32.43],[7.51,34.45],[3.4,34.45],[-1.59,33.23],[-6.75,34.12],[-9.22,32.58],[-9.66,29.95],[-14.37,26.12],[-17.05,21],[-15.98,18.18],[-16.87,14.36],[-13.4,14.92],[-6.26,13.35],[2.35,13.29],[8.27,12.37],[17.75,12.83],[24.07,11.18],[30.6,11.12],[39.24,16.25],[39.52,15.46],[38.69,18],[37.4,18.92],[37.13,21.23],[34.55,20.18]]]},"properties":{"NAME":"Saharan Pastoral Nomads","SUBJECTO":"Saharan Pastoral Nomads","BORDERPRECISION":1}},
{"type":"Feature","geometry":{"type":"MultiPolygon","coordinates":[[[[19.12,30.2],[15.84,31.29],[10.02,34.08],[10.13,37.1],[1.06,36.46],[-2.04,35.05],[-5.93,35.73],[-6.75,34.12],[-1.59,33.23],[3.4,34.45],[7.51,34.45],[10,32.43],[13.44,31.15],[19.12,30.2]]],[[[-7.23,37.23],[-5.66,36.01],[-2.24,36.73],[-0.16,39.89],[-1.61,38.38],[-7.23,37.23]]]]},"properties":{"NAME":"Carthaginian Empire","SUBJECTO":"Carthaginian Empire","BORDERPRECISION":1}},
{"type":"Feature","geometry":{"type":"Polygon","coordinates":[[[14.9,40.24],[17.08,40.53],[16.42,41.28],[15.96,41.06],[16.15,41.01],[15.57,40.75],[15.47,40.79],[14.9,40.24]]]},"properties":{"NAME":"Greek city-states","SUBJECTO":"Greek city-states","BORDERPRECISION":1}},
{"type":"Feature","geometry":{"type":"Polygon","coordinates":[[[43.05,14.61],[45.43,17.77],[41.63,18.05],[43.05,14.61]]]},"properties":{"NAME":"Saba","SUBJECTO":"Saba","BORDERPRECISION":1}},
{"type":"Feature","geometry":{"type":"Polygon","coordinates":[[[119.39,39.84],[114.32,40.02],[107.28,36.64],[104.56,33.87],[104.8,28.05],[108.07,27.07],[109.67,29.18],[112.07,28.42],[121.36,29.41],[121.61,31.83],[119.02,34.69],[120.14,36.19],[117.59,38.28],[119.39,39.84]]]},"properties":{"NAME":"Zhou states","SUBJECTO":"Zhou states","BORDERPRECISION":1}},
{"type":"Feature","geometry":{"type":"Polygon","coordinates":[[[72.9,20.54],[73.84,15.39],[76.7,8.71],[79.83,10.36],[80.09,15.18],[84.66,18.94],[76.92,21.15],[72.9,20.54]]]},"properties":{"NAME":"Iron Age megalith cultures","SUBJECTO":"Iron Age megalith cultures","BORDERPRECISION":1}},
{"type":"Feature","geometry":{"type":"Polygon","coordinates":[[[30.54,22.75],[33.35,23.35],[33.69,23.55],[33.66,24.02],[35.19,24.4],[37.01,25.53],[38.58,27.29],[35.09,30.42],[37.21,32.69],[41.06,32.89],[47.61,29.27],[50.13,30.07],[51.35,28.04],[54.65,26.39],[61.34,25.03],[66.62,25.32],[67.49,23.93],[68.19,27.31],[70.96,29.19],[70.81,31.69],[71.4,32.87],[72.78,35.06],[73.09,38.85],[75.04,42.43],[70.65,43.9],[69.18,43.08],[63.65,45.69],[57.95,43.08],[56.81,39.18],[54.03,38.99],[53.8,36.68],[48.84,37.51],[49.67,40.24],[44.83,40.77],[41.68,41.79],[40.36,40.96],[33.56,41.98],[26.13,39.88],[27.16,37.36],[30.47,36.19],[35.71,36.21],[35.87,34.42],[33.56,30.97],[29.25,30.75],[21.67,32.82],[20.12,30.96],[28.62,29.97],[29.97,28.44],[30.54,22.75]]]},"properties":{"NAME":"Achaemenid Empire","SUBJECTO":"Achaemenid Empire","BORDERPRECISION":1}},
{"type":"Feature","geometry":{"type":"Polygon","coordinates":[[[7.98,43.96],[3.2,43.81],[2.63,41.62],[4.08,43.49],[7.98,43.96]]]},"properties":{"NAME":"Greek city-states","SUBJECTO":"Greek city-states","BORDERPRECISION":1}},
{"type":"Feature","geometry":{"type":"Polygon","coordinates":[[[34.55,20.18],[34.53,20.17],[33.35,23.35],[30.54,22.75],[30.24,19.21],[31.15,16.38],[34.28,16.48],[34.55,20.18]]]},"properties":{"NAME":"Meroe","SUBJECTO":"Meroe","BORDERPRECISION":1}},
{"type":"Feature","geometry":{"type":"Polygon","coordinates":[[[83.47,25.44],[81.76,25.55],[80.71,25.68],[80.65,25.72],[80.28,24.75],[82.57,20.35],[84.87,20.47],[85.8,22.33],[83.7,25.55],[83.47,25.44]]]},"properties":{"NAME":"Magadha","SUBJECTO":"Magadha","BORDERPRECISION":1}},
{"type":"Feature","geometry":{"type":"Polygon","coordinates":[[[-14.51,28.05],[-13.88,28.2],[-14.15,28.39],[-14.51,28.05]]]},"properties":{"NAME":"Guanches","SUBJECTO":"Guanches","BORDERPRECISION":1}},
{"type":"Feature","geometry":{"type":"Polygon","coordinates":[[[-16.87,14.36],[-16.77,12.6],[-13.68,9.92],[-12.26,7.35],[-7.53,4.34],[-5,5.24],[-2.03,4.7],[3.95,6.58],[5.45,5.48],[5.36,5.37],[12.6,7.73],[22.22,6.2],[33.93,2.84],[36.02,1.3],[38.77,-2.27],[40.86,0.32],[44.14,1.15],[44.3,1.29],[48.47,5.2],[50.78,9.37],[51.18,11.78],[44.28,10.4],[42.08,13.86],[39.52,15.46],[39.24,16.25],[30.6,11.12],[24.07,11.18],[17.75,12.83],[8.27,12.37],[2.35,13.29],[-6.26,13.35],[-13.4,14.92],[-16.87,14.36]],[[34.23,11.71],[37.13,11.64],[39.14,9.06],[38.61,6.6],[35.58,5.53],[33.02,6.86],[32.35,9.53],[34.23,11.71]]]},"properties":{"NAME":"West African cereal farmers","SUBJECTO":"West African cereal farmers","BORDERPRECISION":1}},
{"type":"Feature","geometry":{"type":"MultiPolygon","coordinates":[[[[5.35,5.36],[8.87,4.62],[9.92,2.82],[9.2,-0.63],[11.77,-4.54],[13.39,-8.16],[13.65,-12.2],[12.59,-13.46],[11.77,-17.6],[14.42,-22.27],[15.45,-27.62],[18.18,-31.81],[18.49,-34.4],[26.66,-33.85],[32.23,-28.74],[33.35,-25.3],[34.88,-24.72],[34.73,-19.86],[39.47,-16.72],[40.6,-14.4],[40.31,-11.34],[38.92,-6.34],[40.23,-3.19],[43.72,0.8],[44.14,1.15],[40.86,0.32],[38.77,-2.27],[36.02,1.3],[33.93,2.84],[22.22,6.2],[12.6,7.73],[5.36,5.37],[5.35,5.36]]],[[[44.92,-16.2],[43.67,-24.23],[47.26,-24.77],[50.5,-15.31],[49.82,-12.83],[44.92,-16.2]]]]},"properties":{"NAME":"Khoiasan","SUBJECTO":"Khoiasan","BORDERPRECISION":1}},
{"type":"Feature","geometry":{"type":"Polygon","coordinates":[[[34.23,11.71],[32.35,9.53],[33.02,6.86],[35.58,5.53],[38.61,6.6],[39.14,9.06],[37.13,11.64],[34.23,11.71]]]},"properties":{"NAME":"Ethiopian highland farmers","SUBJECTO":"Ethiopian highland farmers","BORDERPRECISION":1}},
{"type":"Feature","geometry":{"type":"Polygon","coordinates":[[[142.34,-10.92],[140.8,-17.56],[139.25,-17.43],[135.39,-14.9],[136.66,-12.62],[133.56,-11.95],[130.46,-12.76],[129.2,-14.99],[126.85,-13.78],[122.74,-16.58],[120.87,-19.68],[116.42,-20.84],[113.63,-22.57],[113.43,-26.57],[115.75,-32.21],[115.05,-34.42],[118.21,-35.09],[123.62,-33.92],[126.06,-32.43],[131.28,-31.63],[133.84,-32.34],[135.53,-35.05],[137.46,-33.31],[140.01,-37.64],[143.36,-38.97],[149.5,-37.93],[151.36,-33.52],[152.97,-31.42],[153.07,-26.23],[150.75,-22.81],[146.32,-19.08],[145.18,-15.05],[143.74,-14.47],[142.34,-10.92]]]},"properties":{"NAME":"Australian aboriginal hunter-gatherers","SUBJECTO":"Australian aboriginal hunter-gatherers","BORDERPRECISION":1}},
{"type":"Feature","geometry":{"type":"Polygon","coordinates":[[[146.71,-43.72],[148.27,-41.09],[144.78,-40.84],[146.71,-43.72]]]},"properties":{"NAME":"Tasmanian hunter-gatherers","SUBJECTO":"Tasmanian hunter-gatherers","BORDERPRECISION":1}},
{"type":"Feature","geometry":{"type":"MultiPolygon","coordinates":[[[[111.13,2.03],[108.81,0.81],[110.1,-3.08],[115.57,-3.8],[117.53,0.61],[117.07,3.51],[119.04,5.17],[116.6,6.9],[114.88,4.86],[111.13,2.03]]],[[[100.46,2.12],[98.6,1.71],[100.81,-2.34],[104.57,-6.07],[105.94,-3.21],[100.46,2.12]]]]},"properties":{"NAME":"Austronesians","SUBJECTO":"Austronesians","BORDERPRECISION":1}},
{"type":"Feature","geometry":{"type":"Polygon","coordinates":[[[142.03,-3.16],[137.85,-1.61],[135.25,-3.54],[137.82,-5.43],[140.95,-9.27],[144.38,-7.76],[148.59,-9.16],[147.38,-6.12],[142.03,-3.16]]]},"properties":{"NAME":"Papuan neolithic farmers","SUBJECTO":"Papuan neolithic farmers","BORDERPRECISION":1}},
{"type":"Feature","geometry":{"type":"Polygon","coordinates":[[[-93.02,18.57],[-95.86,18.81],[-95.32,17.16],[-93.02,18.57]]]},"properties":{"NAME":"Olmec","SUBJECTO":"Olmec","BORDERPRECISION":1}},
{"type":"Feature","geometry":{"type":"Polygon","coordinates":[[[-79.81,-7.18],[-76.34,-13.27],[-74.64,-10.99],[-74.79,-10.78],[-76.26,-8.87],[-77.33,-7.46],[-79.81,-7.18]]]},"properties":{"NAME":"El Paraiso","SUBJECTO":"El Paraiso","BORDERPRECISION":1}},
{"type":"Feature","geometry":{"type":"Polygon","coordinates":[[[-80.24,-3.48],[-76.45,-5.04],[-73.08,-4.72],[-74.23,-2.27],[-77.3,-0.89],[-80.87,-1.2],[-80.24,-3.48]]]},"properties":{"NAME":"Chorrera","SUBJECTO":"Chorrera","BORDERPRECISION":1}},
{"type":"Feature","geometry":{"type":"Polygon","coordinates":[[[-70.99,-17.91],[-70.15,-20.27],[-68.22,-19.25],[-70.99,-17.91]]]},"properties":{"NAME":"Chinchoros","SUBJECTO":"Chinchoros","BORDERPRECISION":1}},
{"type":"Feature","geometry":{"type":"Polygon","coordinates":[[[-48.8,-28.48],[-48.72,-25.43],[-44.56,-22.99],[-43.24,-23.03],[-45.94,-21.75],[-49.49,-24.55],[-48.8,-28.48]]]},"properties":{"NAME":"Shellfish gatherers","SUBJECTO":"Shellfish gatherers","BORDERPRECISION":1}},
{"type":"Feature","geometry":{"type":"Polygon","coordinates":[[[-94.12,29.69],[-94.12,31.93],[-97.14,34.47],[-94.12,35.88],[-94.23,46.72],[-95.57,50],[-105.19,51.45],[-114.47,52],[-114.13,47.95],[-111.67,41.94],[-104.52,33.87],[-97.21,28.07],[-94.12,29.69]]]},"properties":{"NAME":"Plain bison hunters","SUBJECTO":"Plain bison hunters","BORDERPRECISION":1}},
{"type":"Feature","geometry":{"type":"Polygon","coordinates":[[[-114.47,52],[-125.7,55.19],[-128.59,55.06],[-120.48,48.96],[-120.47,43.57],[-111.67,41.94],[-114.13,47.95],[-114.47,52]]]},"properties":{"NAME":"Plateau fichers and hunter gatherers","SUBJECTO":"Plateau fichers and hunter gatherers","BORDERPRECISION":1}},
{"type":"Feature","geometry":{"type":"Polygon","coordinates":[[[-111.67,41.94],[-120.47,43.57],[-121.36,39.69],[-120.13,34.52],[-117.5,33.33],[-115.6,29.69],[-113.05,31.14],[-110.53,27.76],[-107.56,27.76],[-104.22,25.12],[-100.36,23.97],[-97.82,24.14],[-97.21,28.07],[-104.52,33.87],[-111.67,41.94]]]},"properties":{"NAME":"Desert hunter-gatherers","SUBJECTO":"Desert hunter-gatherers","BORDERPRECISION":1}},
{"type":"Feature","geometry":{"type":"Polygon","coordinates":[[[-64.19,-14.69],[-60.27,-13.81],[-51.54,-14.38],[-48.32,-13.92],[-39.94,-8.29],[-37.89,-4.39],[-40.23,-2.85],[-44.55,-3.1],[-49.07,-4.74],[-56.33,-4.33],[-58.44,-2.29],[-55.86,1.7],[-58.56,3.98],[-62.66,4.15],[-66.41,3.04],[-70.16,-5.74],[-69.05,-8.24],[-64.19,-14.69]]]},"properties":{"NAME":"Amazon hunter-gatherers","SUBJECTO":"Amazon hunter-gatherers","BORDERPRECISION":1}},
{"type":"Feature","geometry":{"type":"Polygon","coordinates":[[[-43.24,-23.03],[-41.96,-22.92],[-39.69,-19.41],[-39.13,-14.32],[-34.89,-7.61],[-35.46,-5.27],[-37.89,-4.39],[-39.94,-8.29],[-48.32,-13.92],[-51.54,-14.38],[-60.27,-13.81],[-64.19,-14.69],[-65.91,-18.31],[-67.12,-25.03],[-69.32,-29.3],[-67.48,-31.66],[-63.56,-30.04],[-57.35,-29.68],[-52.14,-31.74],[-48.8,-28.48],[-49.49,-24.55],[-45.94,-21.75],[-43.24,-23.03]]]},"properties":{"NAME":"Savanna hunter-gatherers","SUBJECTO":"Savanna hunter-gatherers","BORDERPRECISION":1}},
{"type":"Feature","geometry":{"type":"Polygon","coordinates":[[[-67.48,-31.66],[-69.44,-37.16],[-72.07,-40.55],[-70.58,-40.58],[-72.19,-45.99],[-71.17,-51.56],[-69.11,-51.35],[-65.78,-47.23],[-64.94,-40.83],[-61.36,-39.03],[-57.81,-38.39],[-56.34,-35],[-54.07,-34.65],[-52.14,-31.74],[-57.35,-29.68],[-63.56,-30.04],[-67.48,-31.66]]]},"properties":{"NAME":"Pampas cultures","SUBJECTO":"Pampas cultures","BORDERPRECISION":1}},
{"type":"Feature","geometry":{"type":"Polygon","coordinates":[[[-70.15,-20.27],[-70.4,-25.25],[-71.43,-29.1],[-71.62,-33.71],[-73.67,-37.5],[-72.73,-41.55],[-72.07,-40.55],[-69.44,-37.16],[-67.48,-31.66],[-69.32,-29.3],[-67.12,-25.03],[-65.91,-18.31],[-68.22,-19.25],[-70.15,-20.27]]]},"properties":{"NAME":"Andean hunter-gatherers","SUBJECTO":"Andean hunter-gatherers","BORDERPRECISION":1}},
{"type":"Feature","geometry":{"type":"Polygon","coordinates":[[[-72.07,-40.55],[-72.73,-41.55],[-74.31,-48.75],[-71.87,-53.7],[-69.11,-51.35],[-71.17,-51.56],[-72.19,-45.99],[-70.58,-40.58],[-72.07,-40.55]]]},"properties":{"NAME":"Patagonian shellfish and marine mammal hunters","SUBJECTO":"Patagonian shellfish and marine mammal hunters","BORDERPRECISION":1}},
{"type":"Feature","geometry":{"type":"Polygon","coordinates":[[[-95.86,18.81],[-97.5,21.19],[-97.82,24.14],[-100.36,23.97],[-104.22,25.12],[-107.56,27.76],[-110.53,27.76],[-105.54,22.28],[-104.95,19.44],[-97.88,16.05],[-94.08,16.11],[-91.52,14.06],[-87.95,13.17],[-85.78,10.14],[-81.66,8.16],[-78.55,8.75],[-78.21,9.35],[-82.23,9.05],[-83.91,11.25],[-83.31,14.77],[-84.65,15.93],[-88.66,15.73],[-87.2,21.53],[-90.28,21.14],[-93.02,18.57],[-95.32,17.16],[-95.86,18.81]]]},"properties":{"NAME":"Maize farmers","SUBJECTO":"Maize farmers","BORDERPRECISION":1}},
{"type":"Feature","geometry":{"type":"Polygon","coordinates":[[[-76.34,-13.27],[-74.05,-16.04],[-70.99,-17.91],[-68.22,-19.25],[-65.91,-18.31],[-64.19,-14.69],[-69.05,-8.24],[-70.16,-5.74],[-66.41,3.04],[-62.66,4.15],[-58.56,3.98],[-55.86,1.7],[-58.44,-2.29],[-56.33,-4.33],[-49.07,-4.74],[-44.55,-3.1],[-47.24,-0.68],[-49.22,-2.11],[-51.53,-0.43],[-49.88,1.21],[-51.21,4.07],[-54.29,5.88],[-56.75,6],[-59.83,8.44],[-61.7,8.61],[-65.97,8.18],[-71.18,9.28],[-72.38,11.81],[-78.21,9.35],[-78.55,8.75],[-77.11,3.79],[-80.87,-1.2],[-77.3,-0.89],[-74.23,-2.27],[-73.08,-4.72],[-76.45,-5.04],[-80.24,-3.48],[-81.42,-4.68],[-79.81,-7.18],[-77.33,-7.46],[-76.26,-8.87],[-74.79,-10.78],[-74.64,-10.99],[-76.34,-13.27]]]},"properties":{"NAME":"Manioc farmers","SUBJECTO":"Manioc farmers","BORDERPRECISION":1}},
{"type":"Feature","geometry":{"type":"Polygon","coordinates":[[[-61.7,8.61],[-61.53,9.85],[-67.98,10.54],[-69.75,11.53],[-71.18,9.28],[-65.97,8.18],[-61.7,8.61]]]},"properties":{"NAME":"Caribbean hunter-gatherers","SUBJECTO":"Caribbean hunter-gatherers","BORDERPRECISION":1}},
{"type":"Feature","geometry":{"type":"Polygon","coordinates":[[[-128.59,55.06],[-129.85,55],[-130,53.94],[-124.68,48.39],[-123.99,45.76],[-124.36,40.33],[-120.13,34.52],[-121.36,39.69],[-120.47,43.57],[-120.48,48.96],[-128.59,55.06]]]},"properties":{"NAME":"North American Pacifi foraging, hunting and fishing peoples","SUBJECTO":"North American Pacifi foraging, hunting and fishing peoples","BORDERPRECISION":1}},
{"type":"Feature","geometry":{"type":"Polygon","coordinates":[[[-130.48,54.97],[-129.85,55],[-128.59,55.06],[-125.7,55.19],[-114.47,52],[-105.19,51.45],[-95.57,50],[-87.79,49.93],[-72.32,46.3],[-71.03,46.75],[-66.37,50.31],[-60.14,50.41],[-55.66,52.19],[-56.13,53.47],[-60.17,53.3],[-60.22,53.32],[-65.64,55.26],[-71.03,55.2],[-74.2,52.93],[-78.74,52.74],[-82.2,54.97],[-92.4,56.98],[-102.14,57.21],[-111.28,58.55],[-118.2,62.71],[-124.94,64.83],[-132.43,62.5],[-139.52,62.42],[-150.13,63.32],[-160.94,63.98],[-165.9,61.27],[-162,58.83],[-158.29,58.73],[-149.33,60.03],[-139.57,59.9],[-134.12,58.24],[-130.66,54.96],[-130.48,54.97]]]},"properties":{"NAME":"Subarctic forest hunter-gatherers","SUBJECTO":"Subarctic forest hunter-gatherers","BORDERPRECISION":1}},
{"type":"Feature","geometry":{"type":"MultiPolygon","coordinates":[[[[-50.54,67.49],[-53.1,65.87],[-48.92,61.42],[-46.16,60.94],[-50.54,67.49]]],[[[-43.72,60],[-39.69,65.19],[-42.79,65.4],[-43.72,60]]],[[[-116.93,72.9],[-117.57,69.99],[-113.15,68.6],[-104.62,71.09],[-110.35,71.2],[-116.93,72.9]]],[[[-92.4,56.98],[-94.75,59.95],[-87.44,64.57],[-86.49,67.38],[-92.96,69.08],[-101.91,67.71],[-112.5,67.69],[-127.35,70.38],[-137.73,69.02],[-156.9,71.35],[-164.07,69.06],[-166.59,64.73],[-160.94,63.98],[-150.13,63.32],[-139.52,62.42],[-132.43,62.5],[-124.94,64.83],[-118.2,62.71],[-111.28,58.55],[-102.14,57.21],[-92.4,56.98]]],[[[-60.22,53.32],[-62.89,58.66],[-69.21,58.75],[-70.03,60.88],[-77.36,62.52],[-78.34,58.55],[-76.44,56.81],[-79.55,54.69],[-78.74,52.74],[-74.2,52.93],[-71.03,55.2],[-65.64,55.26],[-60.22,53.32]]],[[[-75.62,69.1],[-72.3,67.26],[-75.79,65.2],[-71.32,63.06],[-64.47,63.74],[-61.21,66.64],[-68.67,68.72],[-71.25,71.35],[-81.53,73.69],[-88.1,73.64],[-87.95,70.38],[-75.62,69.1]]],[[[123.5,73.5],[124.54,71.59],[130.87,69.9],[155.89,68.17],[168.14,67.46],[171.77,65.86],[172.44,63.08],[170.34,60.28],[170.52,60.34],[179.29,62.82],[180,64.95],[180,65.05],[180,65.31],[180,65.38],[180,65.96],[180,66.96],[180,67.96],[180,68.92],[175.61,69.78],[159.44,69.76],[152.13,70.66],[141.29,72.79],[137.63,71.08],[126.22,72.38],[124.22,73.7],[123.5,73.5]]],[[[-170.47,66.29],[-180,68.92],[-180,67.96],[-180,66.96],[-180,65.96],[-180,65.38],[-180,65.31],[-180,65.26],[-178.12,65.48],[-173.08,64.38],[-170.47,66.29]]]]},"properties":{"NAME":"Arctic marine mammal hunters","SUBJECTO":"Arctic marine mammal hunters","BORDERPRECISION":1}},
{"type":"Feature","geometry":{"type":"Polygon","coordinates":[[[34.73,65.78],[34.73,65.8],[40.83,67.66],[29.73,69.7],[20.16,69.75],[10.16,64.1],[11.53,61.9],[17.94,62.55],[25.25,65.42],[25.2,65.27],[34.73,65.78]]]},"properties":{"NAME":"Saami","SUBJECTO":"Saami","BORDERPRECISION":1}},
{"type":"Feature","geometry":{"type":"Polygon","coordinates":[[[123.5,73.5],[123.41,73.48],[105.6,72.74],[105.4,72.75],[98.46,69.79],[75.86,61.43],[62.81,56.96],[59.09,56.43],[65.31,55.05],[78.36,56.41],[93.7,56.48],[99.49,55.66],[107.96,59.82],[114.02,59.55],[116.71,54.66],[119.94,51.26],[127.34,49.98],[134.87,52.01],[141.05,52.69],[134.99,54.85],[142.85,59.27],[148.42,59.1],[160.64,60.72],[155.47,54.92],[156.7,50.96],[161.5,55.29],[163.39,59.81],[170.34,60.28],[172.44,63.08],[171.77,65.86],[168.14,67.46],[155.89,68.17],[130.87,69.9],[124.54,71.59],[123.5,73.5]]]},"properties":{"NAME":"Paleo-Siberian hunter-gatherers","SUBJECTO":"Paleo-Siberian hunter-gatherers","BORDERPRECISION":1}},
{"type":"Feature","geometry":{"type":"Polygon","coordinates":[[[136.59,34.68],[140.32,35.03],[139.2,37.92],[136.59,34.68]]]},"properties":{"NAME":"Late Jomon culture","SUBJECTO":"Late Jomon culture","BORDERPRECISION":1}},
{"type":"Feature","geometry":{"type":"Polygon","coordinates":[[[25.2,65.27],[25.19,65.24],[21.2,62.44],[30.25,61.48],[32.78,60.87],[46.11,57.71],[53.98,57.71],[59.09,56.43],[62.81,56.96],[75.86,61.43],[98.46,69.79],[105.4,72.75],[105.28,72.75],[113.63,75.27],[103.39,77.56],[91.63,75.65],[89.8,75.52],[87.69,73.9],[72.71,72.77],[62.28,69.71],[39.95,65.58],[34.73,65.61],[34.73,65.78],[25.2,65.27]]]},"properties":{"NAME":"Finno-Ugric taiga hunter-gatherers","SUBJECTO":"Finno-Ugric taiga hunter-gatherers","BORDERPRECISION":1}},
{"type":"Feature","geometry":{"type":"Polygon","coordinates":[[[140.01,41.38],[143.21,41.93],[145.06,43.79],[141.88,45.44],[140.01,41.38]]]},"properties":{"NAME":"Ainu","SUBJECTO":"Ainu","BORDERPRECISION":1}},
{"type":"Feature","geometry":{"type":"Polygon","coordinates":[[[99.49,55.66],[100.02,51.76],[97.06,50.49],[83.21,45.36],[81.42,43.02],[93.2,40.41],[96.96,38.96],[108.53,39.79],[120.37,44.19],[130.43,44.19],[131.51,43.14],[134.14,42.99],[140.08,48.5],[141.05,52.69],[134.87,52.01],[127.34,49.98],[119.94,51.26],[116.71,54.66],[114.02,59.55],[107.96,59.82],[99.49,55.66]]]},"properties":{"NAME":"Proto-Altaic pastoralists","SUBJECTO":"Prot-Altaic pastoralists","BORDERPRECISION":1}},
{"type":"Feature","geometry":{"type":"Polygon","coordinates":[[[19.61,41.76],[22.6,40.4],[24.62,41.86],[21.08,41.34],[19.61,41.76]]]},"properties":{"NAME":"Greek city-states","SUBJECTO":"Greek city-states","BORDERPRECISION":1}},
{"type":"Feature","geometry":{"type":"Polygon","coordinates":[[[12.41,41.96],[12.18,41.87],[12.46,41.67],[12.41,41.96]]]},"properties":{"NAME":"Rome","SUBJECTO":"Rome","BORDERPRECISION":1}},
{"type":"Feature","geometry":{"type":"Polygon","coordinates":[[[13.57,42.39],[13.16,42.85],[13.11,42.92],[12.43,42.43],[13.57,42.39]]]},"properties":{"NAME":"Sabini","SUBJECTO":"Sabini","BORDERPRECISION":1}},
{"type":"Feature","geometry":{"type":"Polygon","coordinates":[[[12.56,44.07],[12.48,45.46],[9.69,44.22],[10.23,43.79],[12.56,44.07]]]},"properties":{"NAME":"Boii","SUBJECTO":"Boii","BORDERPRECISION":1}},
{"type":"Feature","geometry":{"type":"Polygon","coordinates":[[[12.43,42.43],[13.11,42.92],[13.16,42.85],[13.78,43.16],[12.56,44.07],[10.23,43.79],[12.18,41.87],[12.41,41.96],[12.43,42.43]]]},"properties":{"NAME":"Etrurians","SUBJECTO":"Etrurians","BORDERPRECISION":1}},
{"type":"Feature","geometry":{"type":"Polygon","coordinates":[[[15.96,41.06],[15.43,41.21],[14.3,41.36],[15.47,40.79],[15.57,40.75],[16.15,41.01],[15.96,41.06]]]},"properties":{"NAME":"Samnites","SUBJECTO":"Samnites","BORDERPRECISION":1}},
{"type":"Feature","geometry":{"type":"Polygon","coordinates":[[[37.13,21.23],[35.19,24.4],[33.66,24.02],[33.69,23.55],[33.35,23.35],[34.53,20.17],[34.55,20.18],[37.13,21.23]]]},"properties":{"NAME":"Blemmyes","SUBJECTO":"Blemmyes","BORDERPRECISION":1}},
{"type":"Feature","geometry":{"type":"Polygon","coordinates":[[[-82.43,27.83],[-81.1,25.13],[-80.05,26.55],[-80.59,28.49],[-82.43,27.83]]]},"properties":{"NAME":"Glades Culture","SUBJECTO":"Glades Culture","BORDERPRECISION":1}},
{"type":"Feature","geometry":{"type":"Polygon","coordinates":[[[-79.81,41.45],[-85.97,40.06],[-85.56,37.55],[-79.98,37.58],[-78.32,40.65],[-79.81,41.45]]]},"properties":{"NAME":"Adena Culture","SUBJECTO":"Adena Culture","BORDERPRECISION":1}},
{"type":"Feature","geometry":{"type":"Polygon","coordinates":[[[-94.12,29.69],[-90.78,29.11],[-89.23,30.41],[-83.89,30.05],[-82.43,27.83],[-80.59,28.49],[-80.58,32.5],[-76.62,34.76],[-73.74,40.98],[-70.3,41.76],[-70.22,43.8],[-64.53,46.27],[-66.03,49.17],[-71.03,46.75],[-72.32,46.3],[-87.79,49.93],[-95.57,50],[-94.23,46.72],[-94.12,35.88],[-97.14,34.47],[-94.12,31.93],[-94.12,29.69]],[[-79.81,41.45],[-78.32,40.65],[-79.98,37.58],[-85.56,37.55],[-85.97,40.06],[-79.81,41.45]]]},"properties":{"NAME":"Eastern North Amercian hunter-gatherers","SUBJECTO":"Eastern North Amercian hunter-gatherers","BORDERPRECISION":1}},
{"type":"Feature","geometry":{"type":"Polygon","coordinates":[[[-72.39,41.08],[-73.59,40.92],[-73.56,40.65],[-72.54,40.83],[-72.39,41.08]]]},"properties":{"NAME":"Eastern North Amercian hunter-gatherers","SUBJECTO":"Eastern North Amercian hunter-gatherers","BORDERPRECISION":1}},
{"type":"Feature","geometry":{"type":"Polygon","coordinates":[[[15.47,53.8],[18.97,52.74],[19.4,54.28],[15.09,54],[15.47,53.8]]]},"properties":{"NAME":"Pomeranian culture ","SUBJECTO":"Pomeranian culture ","BORDERPRECISION":1}},
{"type":"Feature","geometry":{"type":"Polygon","coordinates":[[[21.16,54.9],[19.82,54.46],[19.91,54.39],[21.48,54.44],[21.16,54.9]]]},"properties":{"NAME":"Sambian-Nothangian culture","SUBJECTO":"Sambian-Nothangian culture","BORDERPRECISION":1}},
{"type":"Feature","geometry":{"type":"Polygon","coordinates":[[[24.49,51.38],[20.99,52.62],[18.97,52.74],[15.47,53.8],[18.41,49.55],[24.49,51.38]]]},"properties":{"NAME":"Bell-shaped burials culture","SUBJECTO":"Bell-shaped burials culture","BORDERPRECISION":1}},
{"type":"Feature","geometry":{"type":"Polygon","coordinates":[[[18.97,52.74],[20.99,52.62],[21.48,54.44],[19.91,54.39],[19.82,54.46],[19.4,54.28],[18.97,52.74]]]},"properties":{"NAME":"Western Masurian culture","SUBJECTO":"Western Masurian culture","BORDERPRECISION":1}},
{"type":"Feature","geometry":{"type":"Polygon","coordinates":[[[24.78,51.53],[25.06,51.98],[21.98,54.99],[21.17,54.92],[21.16,54.9],[21.48,54.44],[20.99,52.62],[24.49,51.38],[24.78,51.53]]]},"properties":{"NAME":"Eastern Masurian culture","SUBJECTO":"Eastern Masurian culture","BORDERPRECISION":1}},
{"type":"Feature","geometry":{"type":"Polygon","coordinates":[[[21.98,54.99],[21.86,57.6],[21.17,54.92],[21.98,54.99]]]},"properties":{"NAME":"Curonians","SUBJECTO":"Curonians","BORDERPRECISION":1}},
{"type":"Feature","geometry":{"type":"Polygon","coordinates":[[[24.31,57.1],[21.86,57.6],[21.98,54.99],[25.06,51.98],[29.71,53.3],[29.7,55.66],[24.31,57.1]]]},"properties":{"NAME":"Brushed Pottery culture","SUBJECTO":"Brushed Pottery culture","BORDERPRECISION":1}},
{"type":"Feature","geometry":{"type":"Polygon","coordinates":[[[31.56,50.9],[29.71,53.3],[25.06,51.98],[24.78,51.53],[31.56,50.9]]]},"properties":{"NAME":"Milograd culture","SUBJECTO":"Milograd culture","BORDERPRECISION":1}},
{"type":"Feature","geometry":{"type":"Polygon","coordinates":[[[29.7,55.66],[29.71,53.3],[31.56,50.9],[34.91,51.48],[38.31,53.65],[38.46,55.93],[33.73,56.73],[29.7,55.66]]]},"properties":{"NAME":"Plain-Pottery culture","SUBJECTO":"Plain-Pottery culture","BORDERPRECISION":1}},
{"type":"Feature","geometry":{"type":"MultiPolygon","coordinates":[[[[84.66,18.94],[88.57,21.9],[88.39,25.34],[84.58,26.94],[84.5,26.52],[84.75,26.33],[84.11,25.99],[84,25.69],[83.7,25.55],[85.8,22.33],[84.87,20.47],[82.57,20.35],[80.28,24.75],[77.57,27.71],[77.19,30.18],[73.88,32.94],[71.4,32.87],[70.81,31.69],[70.96,29.19],[68.19,27.31],[67.49,23.93],[71.02,20.66],[72.9,20.54],[76.92,21.15],[84.66,18.94]],[[76.3,21.45],[74.34,22.6],[76.98,23.65],[76.3,21.45]]],[[[79.67,28.94],[79.58,28.53],[81.96,27.82],[79.67,28.94]]]]},"properties":{"NAME":"Hindu kingdoms","SUBJECTO":"Hindu kingdoms","BORDERPRECISION":1}},
{"type":"Feature","geometry":{"type":"Polygon","coordinates":[[[71.4,32.87],[73.88,32.94],[72.78,35.06],[71.4,32.87]]]},"properties":{"NAME":"Gandhāra","SUBJECTO":"Gandhāra","BORDERPRECISION":1}},
{"type":"Feature","geometry":{"type":"Polygon","coordinates":[[[76.3,21.45],[76.98,23.65],[74.34,22.6],[76.3,21.45]]]},"properties":{"NAME":"Avanti","SUBJECTO":"Avanti","BORDERPRECISION":1}},
{"type":"Feature","geometry":{"type":"Polygon","coordinates":[[[21.08,41.34],[19.01,44.95],[19.91,47.14],[13.57,45.73],[19.61,41.76],[21.08,41.34]]]},"properties":{"NAME":"Illyrians","SUBJECTO":"Illyrians","BORDERPRECISION":1}},
{"type":"Feature","geometry":{"type":"Polygon","coordinates":[[[77.19,30.18],[77.57,27.71],[79.58,28.53],[79.67,28.94],[77.19,30.18]]]},"properties":{"NAME":"Kuru","SUBJECTO":"Kuru","BORDERPRECISION":1}},
{"type":"Feature","geometry":{"type":"Polygon","coordinates":[[[83.7,25.55],[84,25.69],[84.11,25.99],[83.59,26.21],[82.35,26.58],[81.57,25.81],[81.76,25.55],[83.47,25.44],[83.7,25.55]]]},"properties":{"NAME":"Kasi","SUBJECTO":"Kasi","BORDERPRECISION":1}},
{"type":"Feature","geometry":{"type":"Polygon","coordinates":[[[79.58,28.53],[78.89,27.61],[79.43,26.68],[80.43,25.94],[80.38,25.99],[81.57,25.81],[82.35,26.58],[81.96,27.82],[79.58,28.53]]]},"properties":{"NAME":"Pancala","SUBJECTO":"Pancala","BORDERPRECISION":1}},
{"type":"Feature","geometry":{"type":"Polygon","coordinates":[[[81.96,27.82],[82.35,26.58],[83.59,26.21],[84.43,26.56],[84.5,26.52],[84.58,26.94],[81.96,27.82]]]},"properties":{"NAME":"Kosala","SUBJECTO":"Kosala","BORDERPRECISION":1}},
{"type":"Feature","geometry":{"type":"Polygon","coordinates":[[[81.76,25.55],[81.57,25.81],[80.38,25.99],[80.43,25.94],[80.54,25.84],[80.53,25.77],[80.65,25.72],[80.71,25.68],[81.76,25.55]]]},"properties":{"NAME":"Vatsa","SUBJECTO":"Vatsa","BORDERPRECISION":1}},
{"type":"Feature","geometry":{"type":"Polygon","coordinates":[[[84.5,26.52],[84.43,26.56],[83.59,26.21],[84.11,25.99],[84.75,26.33],[84.5,26.52]]]},"properties":{"NAME":"Malla","SUBJECTO":"Malla","BORDERPRECISION":1}},
{"type":"Feature","geometry":{"type":"Polygon","coordinates":[[[80.65,25.72],[80.53,25.77],[80.54,25.84],[80.43,25.94],[79.43,26.68],[78.89,27.61],[79.58,28.53],[77.57,27.71],[80.28,24.75],[80.65,25.72]]]},"properties":{"NAME":"Surasena","SUBJECTO":"Surasena","BORDERPRECISION":1}}
]}