{"type":"FeatureCollection", "features": [
{"type":"Feature","geometry":{"type":"Polygon","coordinates":[[[80.56,5.93],[81.87,7.08],[80.66,9.3],[79.67,8.8],[80.56,5.93]]]},"properties":{"NAME":"Simhala","SUBJECTO":"Simhala","BORDERPRECISION":1}},
{"type":"Feature","geometry":{"type":"Polygon","coordinates":[[[-100.49,20.9],[-100.75,19.59],[-99.14,18.92],[-99.11,20.59],[-100.49,20.9]]]},"properties":{"NAME":"Teotihuacán","SUBJECTO":"Teotihuacán","BORDERPRECISION":1}},
{"type":"Feature","geometry":{"type":"Polygon","coordinates":[[[-99.21,17.71],[-99.02,16.82],[-96.44,16.22],[-97.06,18.06],[-99.21,17.71]]]},"properties":{"NAME":"Monte Albán","SUBJECTO":"Monte Albán","BORDERPRECISION":1}},
{"type":"Feature","geometry":{"type":"Polygon","coordinates":[[[-87.57,15.91],[-87.2,21.53],[-90.56,20.99],[-92.94,18.59],[-93.59,15.74],[-90,13.75],[-87.57,15.91]]]},"properties":{"NAME":"Maya chiefdoms and states","SUBJECTO":"Maya chiefdoms and states","BORDERPRECISION":1}},
{"type":"Feature","geometry":{"type":"Polygon","coordinates":[[[33.35,23.35],[31.06,22.68],[29.85,20.12],[31.06,13.13],[32.88,12.47],[35.72,13.22],[35.83,14.22],[35.97,15.48],[34.55,20.18],[34.53,20.17],[33.35,23.35]]]},"properties":{"NAME":"Meroe","SUBJECTO":"Meroe","BORDERPRECISION":1}},
{"type":"Feature","geometry":{"type":"Polygon","coordinates":[[[7.91,36.78],[1.06,36.46],[-1.33,35.49],[-1.13,32.19],[8.63,34.03],[7.91,36.78]]]},"properties":{"NAME":"Numidia","SUBJECTO":"Numidia","BORDERPRECISION":1}},
{"type":"Feature","geometry":{"type":"Polygon","coordinates":[[[41.68,41.79],[40.36,40.96],[33.56,41.98],[28.48,40.4],[31.61,39.39],[32.95,37.38],[37.01,37.49],[43.39,39.35],[44.69,36.67],[51.42,36.46],[48.84,37.51],[49.67,40.24],[47.01,41.39],[41.68,41.79]]]},"properties":{"NAME":"minor states","SUBJECTO":"minor states","BORDERPRECISION":1}},
{"type":"Feature","geometry":{"type":"Polygon","coordinates":[[[61.16,37.7],[58.21,39],[53.99,37.52],[54.07,36.94],[54.92,31.59],[60.62,31.32],[60.34,35.98],[61.16,37.7]]]},"properties":{"NAME":"Parthia","SUBJECTO":"Parthia","BORDERPRECISION":1}},
{"type":"Feature","geometry":{"type":"Polygon","coordinates":[[[37.22,25.17],[39.15,26.25],[35.77,31.64],[32.81,29.48],[34.89,28.36],[37.22,25.17]]]},"properties":{"NAME":"Nabatean Kingdom","SUBJECTO":"Nabatean Kingdom","BORDERPRECISION":1}},
{"type":"Feature","geometry":{"type":"Polygon","coordinates":[[[37.22,25.17],[39.17,21.22],[42.21,17.51],[43.79,18.66],[39.15,26.25],[37.22,25.17]]]},"properties":{"NAME":"Maan","SUBJECTO":"Maan","BORDERPRECISION":1}},
{"type":"Feature","geometry":{"type":"Polygon","coordinates":[[[42.21,17.51],[43.05,14.61],[45.43,17.77],[43.79,18.66],[42.21,17.51]]]},"properties":{"NAME":"Saba","SUBJECTO":"Saba","BORDERPRECISION":1}},
{"type":"Feature","geometry":{"type":"Polygon","coordinates":[[[43.05,14.61],[43.84,12.66],[49.71,14.77],[49,17.61],[45.43,17.77],[43.05,14.61]]]},"properties":{"NAME":"Qataban","SUBJECTO":"Qataban","BORDERPRECISION":1}},
{"type":"Feature","geometry":{"type":"Polygon","coordinates":[[[49.71,14.77],[55.29,17.68],[49,17.61],[49.71,14.77]]]},"properties":{"NAME":"Hadramaut","SUBJECTO":"Hadramaut","BORDERPRECISION":1}},
{"type":"Feature","geometry":{"type":"Polygon","coordinates":[[[74.42,14.38],[76.7,8.71],[79.83,10.36],[79.92,12.11],[76.88,11.35],[74.42,14.38]]]},"properties":{"NAME":"Hindu kingdoms","SUBJECTO":"Hindu kingdoms","BORDERPRECISION":1}},
{"type":"Feature","geometry":{"type":"Polygon","coordinates":[[[79.92,12.11],[80.09,15.18],[86.12,19.81],[87.64,21.56],[91.57,22.54],[93.42,25.02],[93.07,26.85],[89.76,25.98],[83.24,27.39],[80.66,28.45],[79.83,26.69],[72.68,22.03],[73.06,18.03],[74.42,14.38],[76.88,11.35],[79.92,12.11]],[[83.52,23.63],[84.98,20.68],[81.34,17.18],[79.49,18.21],[83.52,23.63]]]},"properties":{"NAME":"Mauryan Empire","SUBJECTO":"Mauryan Empire","BORDERPRECISION":1}},
{"type":"Feature","geometry":{"type":"Polygon","coordinates":[[[113.5,22.74],[116.34,22.91],[119.43,25.65],[116.54,27.75],[113.58,22.93],[113.5,22.74]]]},"properties":{"NAME":"Min-Yue","SUBJECTO":"Min-Yue","BORDERPRECISION":1}},
{"type":"Feature","geometry":{"type":"Polygon","coordinates":[[[113.58,22.93],[111.26,22.84],[104.95,22.05],[105.84,19.7],[107.9,21.48],[110.08,20.87],[113.5,22.74],[113.58,22.93]]]},"properties":{"NAME":"Nan-Yue","SUBJECTO":"Nan-Yue","BORDERPRECISION":1}},
{"type":"Feature","geometry":{"type":"Polygon","coordinates":[[[119.43,25.65],[121.36,28.39],[121.61,31.83],[119.02,34.69],[120.14,36.19],[117.59,38.28],[121.01,40.85],[124.1,39.88],[123.75,41.68],[118.55,41.43],[114.54,41.56],[113.32,41.6],[111.5,41.82],[109.08,42.12],[106.8,39.14],[106.04,37.56],[104.74,36.6],[101.65,29.53],[102.13,28.02],[108.17,27.54],[110.85,24.87],[111.26,22.84],[113.58,22.93],[116.54,27.75],[119.43,25.65]]]},"properties":{"NAME":"Han Empire","SUBJECTO":"Han Empire","BORDERPRECISION":1}},
{"type":"Feature","geometry":{"type":"Polygon","coordinates":[[[37.77,44.74],[40.32,48.24],[37.77,48.64],[35.21,46.64],[37.77,44.74]]]},"properties":{"NAME":"Bosporan Kingdom","SUBJECTO":"Bosporan Kingdom","BORDERPRECISION":1}},
{"type":"Feature","geometry":{"type":"Polygon","coordinates":[[[-1.33,35.49],[-4.59,35.15],[-9.22,32.58],[-9.63,30.41],[-1.13,32.19],[-1.33,35.49]]]},"properties":{"NAME":"Mauretania","SUBJECTO":"Mauretania","BORDERPRECISION":1}},
{"type":"Feature","geometry":{"type":"Polygon","coordinates":[[[33.35,23.35],[33.69,23.55],[33.66,24.02],[35.19,24.4],[32.81,29.48],[35.77,31.64],[35.82,34.34],[33.56,30.97],[29.25,30.75],[21.67,32.82],[20.12,30.96],[22.09,31.75],[25.44,30.68],[25.45,28.98],[28.41,27.74],[31.21,24.25],[31.06,22.68],[33.35,23.35]]]},"properties":{"NAME":"Ptolemaic Kingdom","SUBJECTO":"Ptolemaic Kingdom","BORDERPRECISION":1}},
{"type":"Feature","geometry":{"type":"Polygon","coordinates":[[[-14.51,28.05],[-13.88,28.2],[-14.15,28.39],[-14.51,28.05]]]},"properties":{"NAME":"Guanches","SUBJECTO":"Guanches","BORDERPRECISION":1}},
{"type":"Feature","geometry":{"type":"Polygon","coordinates":[[[-0.2,53.52],[-4.32,53.09],[-3.52,50.62],[0.19,50.73],[-0.2,53.52]]]},"properties":{"NAME":"Celts","SUBJECTO":"Celts","BORDERPRECISION":1}},
{"type":"Feature","geometry":{"type":"Polygon","coordinates":[[[32.95,37.38],[31.37,36.71],[32.09,36.33],[34.04,36.33],[35.82,34.34],[35.77,31.64],[41.06,32.89],[47.61,29.27],[50.13,30.07],[51.35,28.04],[54.65,26.39],[56.79,26.97],[58.74,25.54],[60.34,27.89],[60.62,31.32],[54.92,31.59],[54.07,36.94],[51.42,36.46],[44.69,36.67],[43.39,39.35],[37.01,37.49],[32.95,37.38]]]},"properties":{"NAME":"Seleucid Kingdom","SUBJECTO":"Seleucid Kingdom","BORDERPRECISION":1}},
{"type":"Feature","geometry":{"type":"Polygon","coordinates":[[[28.48,40.4],[27.49,37.24],[28.63,36.65],[31.37,36.71],[32.95,37.38],[31.61,39.39],[28.48,40.4]]]},"properties":{"NAME":"Roman Republic","SUBJECTO":"Roman Republic","BORDERPRECISION":1}},
{"type":"Feature","geometry":{"type":"MultiPolygon","coordinates":[[[[8.63,34.03],[10.96,33.58],[10.13,37.1],[7.91,36.78],[8.63,34.03]]],[[[6.84,43.38],[7.07,43.54],[4.69,44.05],[2.12,42.4],[-1.73,41.81],[-8.83,41.87],[-8.67,37.12],[-2.24,36.73],[0.17,38.74],[0.88,41.02],[5.04,43.33],[6.84,43.38]]],[[[7.3,43.67],[12.35,44.3],[13.67,45.71],[7.35,46.5],[7.3,43.67]]],[[[19.61,41.76],[19.37,40.26],[27.93,40.96],[26.8,41.34],[26.81,41.35],[26.74,41.36],[26.25,41.46],[23.04,41.8],[22.95,41.91],[19.61,41.76]]]]},"properties":{"NAME":"Roman Republic","SUBJECTO":"Roman Republic","BORDERPRECISION":1}},
{"type":"Feature","geometry":{"type":"Polygon","coordinates":[[[123.75,41.68],[125.88,41.48],[131.08,46.2],[124.2,50.33],[107.07,50.97],[100.71,51.09],[100.68,51.02],[100.25,50.74],[100.29,51.09],[95.82,51.18],[85.41,48.36],[94.98,41.22],[106.04,37.56],[106.8,39.14],[109.08,42.12],[111.5,41.82],[113.32,41.6],[114.54,41.56],[118.55,41.43],[123.75,41.68]]]},"properties":{"NAME":"Xiongnu","SUBJECTO":"Xiongnu","BORDERPRECISION":1}},
{"type":"Feature","geometry":{"type":"Polygon","coordinates":[[[-70.87,47.05],[-66.37,50.31],[-60.14,50.41],[-55.66,52.19],[-56.13,53.47],[-60.17,53.3],[-60.22,53.32],[-65.64,55.26],[-71.03,55.2],[-74.2,52.93],[-78.74,52.74],[-82.2,54.97],[-92.4,56.98],[-102.14,57.21],[-111.28,58.55],[-118.2,62.71],[-124.94,64.83],[-132.43,62.5],[-139.52,62.42],[-150.13,63.32],[-160.94,63.98],[-165.9,61.27],[-162,58.83],[-158.29,58.73],[-149.33,60.03],[-139.57,59.9],[-134.12,58.24],[-129.85,55],[-128.59,55.06],[-125.7,55.19],[-114.47,52],[-105.19,51.45],[-97.2,50.11],[-97.15,50.41],[-101.21,53.27],[-97.09,55.07],[-93.99,50.64],[-90.71,50.27],[-91.08,49.95],[-87.79,49.93],[-76.06,47.31],[-70.87,47.05]]]},"properties":{"NAME":"Subarctic forest hunter-gatherers","SUBJECTO":"Subarctic forest hunter-gatherers","BORDERPRECISION":1}},
{"type":"Feature","geometry":{"type":"Polygon","coordinates":[[[142.34,-10.92],[140.8,-17.56],[139.25,-17.43],[135.39,-14.9],[136.66,-12.62],[133.56,-11.95],[130.46,-12.76],[129.2,-14.99],[126.85,-13.78],[122.74,-16.58],[120.87,-19.68],[116.42,-20.84],[113.63,-22.57],[113.43,-26.57],[115.75,-32.21],[115.05,-34.42],[118.21,-35.09],[123.62,-33.92],[126.06,-32.43],[131.28,-31.63],[133.84,-32.34],[135.53,-35.05],[137.46,-33.31],[140.01,-37.64],[143.36,-38.97],[149.5,-37.93],[151.36,-33.52],[152.97,-31.42],[153.07,-26.23],[150.75,-22.81],[146.32,-19.08],[145.18,-15.05],[143.74,-14.47],[142.34,-10.92]]]},"properties":{"NAME":"Australian aboriginal hunter-gatherers","SUBJECTO":"Australian aboriginal hunter-gatherers","BORDERPRECISION":1}},
{"type":"Feature","geometry":{"type":"Polygon","coordinates":[[[146.71,-43.72],[148.27,-41.09],[144.78,-40.84],[146.71,-43.72]]]},"properties":{"NAME":"Tasmanian hunter-gatherers","SUBJECTO":"Tasmanian hunter-gatherers","BORDERPRECISION":1}},
{"type":"Feature","geometry":{"type":"Polygon","coordinates":[[[140.01,41.38],[143.21,41.93],[145.06,43.79],[141.88,45.44],[140.01,41.38]]]},"properties":{"NAME":"Ainu","SUBJECTO":"Ainu","BORDERPRECISION":1}},
{"type":"Feature","geometry":{"type":"Polygon","coordinates":[[[105.4,72.75],[98.46,69.79],[75.86,61.43],[62.81,56.96],[59.09,56.43],[65.31,55.05],[78.36,56.41],[93.7,56.48],[99.49,55.66],[107.96,59.82],[114.02,59.55],[116.71,54.66],[119.94,51.26],[127.34,49.98],[134.87,52.01],[141.05,52.69],[134.99,54.85],[142.85,59.27],[148.42,59.1],[160.64,60.72],[155.47,54.92],[156.7,50.96],[161.5,55.29],[163.39,59.81],[170.34,60.28],[172.44,63.08],[171.77,65.86],[168.14,67.46],[155.89,68.17],[130.87,69.9],[124.54,71.59],[123.5,73.5],[123.41,73.48],[105.6,72.74],[105.4,72.75]]]},"properties":{"NAME":"Paleo-Siberian hunter-gatherers","SUBJECTO":"Paleo-Siberian hunter-gatherers","BORDERPRECISION":1}},
{"type":"Feature","geometry":{"type":"Polygon","coordinates":[[[25.2,65.27],[34.73,65.78],[34.73,65.8],[40.83,67.66],[29.73,69.7],[20.16,69.75],[10.16,64.1],[11.53,61.9],[17.94,62.55],[25.25,65.42],[25.2,65.27]]]},"properties":{"NAME":"Saami","SUBJECTO":"Saami","BORDERPRECISION":1}},
{"type":"Feature","geometry":{"type":"Polygon","coordinates":[[[105.4,72.75],[105.28,72.75],[113.63,75.27],[103.39,77.56],[91.63,75.65],[89.8,75.52],[87.69,73.9],[72.71,72.77],[62.28,69.71],[39.95,65.58],[34.73,65.61],[34.73,65.78],[25.2,65.27],[25.19,65.24],[21.2,62.44],[32.52,60.93],[46.11,57.71],[53.98,57.71],[59.09,56.43],[62.81,56.96],[75.86,61.43],[98.46,69.79],[105.4,72.75]]]},"properties":{"NAME":"Finno-Ugric taiga hunter-gatherers","SUBJECTO":"Finno-Ugric taiga hunter-gatherers","BORDERPRECISION":1}},
{"type":"Feature","geometry":{"type":"MultiPolygon","coordinates":[[[[-43.58,59.94],[-39.69,65.19],[-42.79,65.4],[-43.58,59.94]]],[[[-49.47,67.03],[-50.54,67.49],[-50.94,67.53],[-53.1,65.87],[-48.92,61.42],[-46.16,60.94],[-49.47,67.03]]],[[[-92.4,56.98],[-94.75,59.95],[-93.42,61.86],[-87.44,64.57],[-86.49,67.38],[-92.96,69.08],[-101.91,67.71],[-112.5,67.69],[-127.35,70.38],[-137.73,69.02],[-156.9,71.35],[-164.07,69.06],[-166.59,64.73],[-160.94,63.98],[-150.13,63.32],[-139.52,62.42],[-132.43,62.5],[-124.94,64.83],[-118.2,62.71],[-111.28,58.55],[-102.14,57.21],[-92.4,56.98]]],[[[-60.22,53.32],[-62.89,58.66],[-69.21,58.75],[-70.03,60.88],[-77.36,62.52],[-78.34,58.55],[-76.44,56.81],[-79.55,54.69],[-78.74,52.74],[-74.2,52.93],[-71.03,55.2],[-65.64,55.26],[-60.22,53.32]]],[[[170.34,60.28],[170.52,60.34],[179.29,62.82],[180,64.95],[180,65.05],[180,65.31],[180,65.38],[180,65.96],[180,66.96],[180,67.96],[180,68.92],[175.61,69.78],[159.44,69.76],[152.13,70.66],[141.29,72.79],[137.63,71.08],[126.22,72.38],[124.22,73.7],[123.5,73.5],[124.54,71.59],[130.87,69.9],[155.89,68.17],[168.14,67.46],[171.77,65.86],[172.44,63.08],[170.34,60.28]]],[[[-75.62,69.1],[-72.3,67.26],[-75.79,65.2],[-71.32,63.06],[-64.47,63.74],[-61.21,66.64],[-68.67,68.72],[-71.25,71.35],[-81.53,73.69],[-88.1,73.64],[-87.95,70.38],[-75.62,69.1]]],[[[-125.83,72.08],[-121.65,73.99],[-124.74,74.24],[-124.06,73.87],[-125.14,72.61],[-125.83,72.08]]],[[[-100.97,69.63],[-105.6,71.04],[-114.04,72.06],[-118.65,71.8],[-115.52,71.42],[-117.76,70.72],[-111.54,70.33],[-116.99,69.74],[-113.54,69.11],[-113.15,68.6],[-101.81,69.14],[-103.27,69.33],[-100.97,69.63]]],[[[-75.8,82.68],[-75.99,82.34],[-77.52,80.75],[-81.36,79.91],[-80.73,79.66],[-85.69,79.72],[-81.6,78.75],[-86.63,78.3],[-84.84,78.16],[-84.41,77.63],[-83.05,77.63],[-87.58,77.46],[-87.1,77.28],[-88.59,76.47],[-84.67,76.47],[-84.8,76.87],[-83.09,76.48],[-82.57,76.7],[-77.8,76.73],[-82.1,77.32],[-78.22,77.57],[-78.37,78.03],[-76.29,78.01],[-76.62,78.3],[-74.91,78.82],[-77.3,79.29],[-73.67,79.52],[-74.54,79.89],[-70.42,80.05],[-70.51,80.55],[-65.3,81.46],[-67.85,81.75],[-61.99,82.31],[-70.92,82.93],[-73.23,82.86],[-76.23,82.91],[-75.8,82.68]]],[[[-170.47,66.29],[-180,68.92],[-180,67.96],[-180,66.96],[-180,65.96],[-180,65.38],[-180,65.31],[-180,65.26],[-178.12,65.48],[-173.08,64.38],[-170.47,66.29]]]]},"properties":{"NAME":"Arctic marine mammal hunters","SUBJECTO":"Arctic marine mammal hunters","BORDERPRECISION":1}},
{"type":"Feature","geometry":{"type":"Polygon","coordinates":[[[-80.24,-3.48],[-76.45,-5.04],[-73.08,-4.72],[-74.23,-2.27],[-77.3,-0.89],[-80.87,-1.2],[-80.24,-3.48]]]},"properties":{"NAME":"Chorrera","SUBJECTO":"Chorrera","BORDERPRECISION":1}},
{"type":"Feature","geometry":{"type":"Polygon","coordinates":[[[-48.8,-28.48],[-48.72,-25.43],[-44.56,-22.99],[-43.24,-23.03],[-45.94,-21.75],[-49.49,-24.55],[-48.8,-28.48]]]},"properties":{"NAME":"Shellfish gatherers","SUBJECTO":"Shellfish gatherers","BORDERPRECISION":1}},
{"type":"Feature","geometry":{"type":"Polygon","coordinates":[[[-64.19,-14.69],[-60.27,-13.81],[-51.54,-14.38],[-48.32,-13.92],[-39.94,-8.29],[-37.89,-4.39],[-40.23,-2.85],[-44.55,-3.1],[-49.07,-4.74],[-56.33,-4.33],[-58.44,-2.29],[-55.86,1.7],[-58.56,3.98],[-62.66,4.15],[-66.41,3.04],[-70.16,-5.74],[-69.05,-8.24],[-64.19,-14.69]]]},"properties":{"NAME":"Amazon hunter-gatherers","SUBJECTO":"Amazon hunter-gatherers","BORDERPRECISION":1}},
{"type":"Feature","geometry":{"type":"Polygon","coordinates":[[[-43.24,-23.03],[-41.96,-22.92],[-39.69,-19.41],[-39.13,-14.32],[-34.89,-7.61],[-35.46,-5.27],[-37.89,-4.39],[-39.94,-8.29],[-48.32,-13.92],[-51.54,-14.38],[-60.27,-13.81],[-64.19,-14.69],[-65.91,-18.31],[-67.12,-25.03],[-69.32,-29.3],[-67.48,-31.66],[-63.56,-30.04],[-57.35,-29.68],[-52.14,-31.74],[-48.8,-28.48],[-49.49,-24.55],[-45.94,-21.75],[-43.24,-23.03]]]},"properties":{"NAME":"Savanna hunter-gatherers","SUBJECTO":"Savanna hunter-gatherers","BORDERPRECISION":1}},
{"type":"Feature","geometry":{"type":"Polygon","coordinates":[[[-67.48,-31.66],[-69.44,-37.16],[-72.07,-40.55],[-70.58,-40.58],[-72.19,-45.99],[-71.17,-51.56],[-69.11,-51.35],[-65.78,-47.23],[-64.94,-40.83],[-61.36,-39.03],[-57.81,-38.39],[-56.34,-35],[-54.07,-34.65],[-52.14,-31.74],[-57.35,-29.68],[-63.56,-30.04],[-67.48,-31.66]]]},"properties":{"NAME":"Pampas cultures","SUBJECTO":"Pampas cultures","BORDERPRECISION":1}},
{"type":"Feature","geometry":{"type":"Polygon","coordinates":[[[-65.91,-18.31],[-70.15,-20.27],[-70.4,-25.25],[-71.43,-29.1],[-71.62,-33.71],[-73.67,-37.5],[-72.73,-41.55],[-72.07,-40.55],[-69.44,-37.16],[-67.48,-31.66],[-69.32,-29.3],[-67.12,-25.03],[-65.91,-18.31]]]},"properties":{"NAME":"Andean hunter-gatherers","SUBJECTO":"Andean hunter-gatherers","BORDERPRECISION":1}},
{"type":"Feature","geometry":{"type":"Polygon","coordinates":[[[-72.07,-40.55],[-72.73,-41.55],[-74.31,-48.75],[-71.87,-53.7],[-69.11,-51.35],[-71.17,-51.56],[-72.19,-45.99],[-70.58,-40.58],[-72.07,-40.55]]]},"properties":{"NAME":"Patagonian shellfish and marine mammal hunters","SUBJECTO":"Patagonian shellfish and marine mammal hunters","BORDERPRECISION":1}},
{"type":"Feature","geometry":{"type":"Polygon","coordinates":[[[-61.7,8.61],[-61.53,9.85],[-67.98,10.54],[-69.75,11.53],[-71.18,9.28],[-65.97,8.18],[-61.7,8.61]]]},"properties":{"NAME":"Caribbean hunter-gatherers","SUBJECTO":"Caribbean hunter-gatherers","BORDERPRECISION":1}},
{"type":"Feature","geometry":{"type":"Polygon","coordinates":[[[-69.86,-16.51],[-69.83,-17.72],[-68.73,-17.68],[-68.8,-16.38],[-69.86,-16.51]]]},"properties":{"NAME":"Wankarani","SUBJECTO":"Wankarani","BORDERPRECISION":1}},
{"type":"Feature","geometry":{"type":"Polygon","coordinates":[[[-120.47,43.57],[-121.36,39.69],[-120.13,34.52],[-117.5,33.33],[-115.6,29.69],[-113.05,31.14],[-110.53,27.76],[-107.56,27.76],[-104.22,25.12],[-100.36,23.97],[-97.82,24.21],[-97.21,28.07],[-104.52,33.87],[-111.67,41.94],[-120.47,43.57]]]},"properties":{"NAME":"Desert hunter-gatherers","SUBJECTO":"Desert hunter-gatherers","BORDERPRECISION":1}},
{"type":"Feature","geometry":{"type":"Polygon","coordinates":[[[-128.59,55.06],[-120.48,48.96],[-120.47,43.57],[-111.67,41.94],[-114.13,47.95],[-114.47,52],[-125.7,55.19],[-128.59,55.06]]]},"properties":{"NAME":"Plateau fichers and hunter gatherers","SUBJECTO":"Plateau fichers and hunter gatherers","BORDERPRECISION":1}},
{"type":"Feature","geometry":{"type":"Polygon","coordinates":[[[-129.85,55],[-130,53.94],[-124.68,48.39],[-123.99,45.76],[-124.36,40.33],[-120.13,34.52],[-121.36,39.69],[-120.47,43.57],[-120.48,48.96],[-128.59,55.06],[-129.85,55]]]},"properties":{"NAME":"North American Pacifi foraging, hunting and fishing peoples","SUBJECTO":"North American Pacifi foraging, hunting and fishing peoples","BORDERPRECISION":1}},
{"type":"Feature","geometry":{"type":"Polygon","coordinates":[[[32.88,12.47],[30.6,11.12],[24.07,11.18],[17.75,12.83],[8.27,12.37],[2.35,13.29],[-6.26,13.35],[-13.4,14.92],[-16.87,14.36],[-16.77,12.6],[-13.68,9.92],[-12.26,7.35],[-7.53,4.34],[-5,5.24],[-2.03,4.7],[3.95,6.58],[5.45,5.48],[5.36,5.37],[12.6,7.73],[22.22,6.2],[33.93,2.84],[36.02,1.3],[38.77,-2.27],[40.86,0.32],[44.14,1.15],[44.3,1.29],[48.47,5.2],[50.78,9.37],[51.18,11.78],[44.28,10.4],[42.08,13.86],[39.52,15.46],[35.83,14.22],[35.72,13.22],[32.88,12.47]],[[35.58,5.53],[33.02,6.86],[32.35,9.53],[34.23,11.71],[37.13,11.64],[39.14,9.06],[38.61,6.6],[35.58,5.53]]]},"properties":{"NAME":"West African cereal farmers","SUBJECTO":"West African cereal farmers","BORDERPRECISION":1}},
{"type":"Feature","geometry":{"type":"MultiPolygon","coordinates":[[[[5.36,5.37],[5.35,5.36],[8.87,4.62],[9.92,2.82],[9.2,-0.63],[11.77,-4.54],[13.39,-8.16],[13.65,-12.2],[12.59,-13.46],[11.77,-17.6],[14.42,-22.27],[15.45,-27.62],[18.18,-31.81],[18.49,-34.4],[26.66,-33.85],[32.23,-28.74],[33.35,-25.3],[34.88,-24.72],[34.73,-19.86],[39.47,-16.72],[40.6,-14.4],[40.31,-11.34],[38.92,-6.34],[40.23,-3.19],[43.72,0.8],[44.14,1.15],[40.86,0.32],[38.77,-2.27],[36.02,1.3],[33.93,2.84],[22.22,6.2],[12.6,7.73],[5.36,5.37]]],[[[45.28,-16.05],[43.97,-17.55],[44.47,-20.17],[43.67,-24.23],[47.26,-24.77],[50.5,-15.31],[49.82,-12.83],[45.28,-16.05]]]]},"properties":{"NAME":"Khoiasan","SUBJECTO":"Khoiasan","BORDERPRECISION":1}},
{"type":"Feature","geometry":{"type":"Polygon","coordinates":[[[34.55,20.18],[37.13,21.23],[35.19,24.4],[33.66,24.02],[33.69,23.55],[33.35,23.35],[34.53,20.17],[34.55,20.18]]]},"properties":{"NAME":"Blemmyes","SUBJECTO":"Blemmyes","BORDERPRECISION":1}},
{"type":"Feature","geometry":{"type":"Polygon","coordinates":[[[-114.47,52],[-114.13,47.95],[-111.67,41.94],[-104.52,33.87],[-97.21,28.07],[-94.12,29.69],[-94.12,31.64],[-96.04,32.99],[-95.46,33.03],[-96.26,34.62],[-94.28,35.13],[-94.12,35.88],[-94.12,36.33],[-94.9,36.25],[-95.79,37.17],[-95.36,39.95],[-94.12,40.14],[-94.51,47.39],[-95.62,47.72],[-97.28,49.57],[-97.2,50.11],[-105.19,51.45],[-114.47,52]]]},"properties":{"NAME":"Plain bison hunters","SUBJECTO":"Plain bison hunters","BORDERPRECISION":1}},
{"type":"Feature","geometry":{"type":"Polygon","coordinates":[[[-94.12,29.69],[-90.78,29.11],[-89.79,30.69],[-90.66,33.45],[-92.22,33.32],[-93.81,31.94],[-94.12,31.64],[-94.12,29.69]]]},"properties":{"NAME":"Marksville Culture","SUBJECTO":"Marksville Culture","BORDERPRECISION":1}},
{"type":"Feature","geometry":{"type":"Polygon","coordinates":[[[-96.04,32.99],[-93.81,31.94],[-92.22,33.32],[-94.28,35.13],[-96.26,34.62],[-95.46,33.03],[-96.04,32.99]]]},"properties":{"NAME":"Fourche Maline Culture","SUBJECTO":"Fourche Maline Culture","BORDERPRECISION":1}},
{"type":"Feature","geometry":{"type":"Polygon","coordinates":[[[-94.12,31.64],[-93.81,31.94],[-96.04,32.99],[-94.12,31.64]]]},"properties":{"NAME":"Mill Creek Culture","SUBJECTO":"Mill Creek Culture","BORDERPRECISION":1}},
{"type":"Feature","geometry":{"type":"Polygon","coordinates":[[[-80.9,32.04],[-82.39,34.14],[-85.77,34.16],[-85.77,34.15],[-86.84,32.65],[-87.3,31.3],[-83.7,29.87],[-81.38,30],[-80.9,32.04]]]},"properties":{"NAME":"Swift Creek Culture","SUBJECTO":"Swift Creek Culture","BORDERPRECISION":1}},
{"type":"Feature","geometry":{"type":"Polygon","coordinates":[[[-88.07,35.11],[-89.79,35.28],[-90.62,34.17],[-88.38,33.19],[-88.07,35.11]]]},"properties":{"NAME":"Miller","SUBJECTO":"Miller","BORDERPRECISION":1}},
{"type":"Feature","geometry":{"type":"MultiPolygon","coordinates":[[[[-97.2,50.11],[-97.28,49.57],[-95.62,47.72],[-94.51,47.39],[-91.15,47.37],[-88.25,48.93],[-88.2,48.98],[-91.08,49.95],[-90.71,50.27],[-93.99,50.64],[-97.09,55.07],[-101.21,53.27],[-97.15,50.41],[-97.2,50.11]]],[[[-83.49,47.46],[-86.46,48.95],[-89.09,46.96],[-87.2,45.57],[-86.1,44.76],[-84.18,45.6],[-83.49,47.46]]]]},"properties":{"NAME":"Laurel complex","SUBJECTO":"Laurel complex","BORDERPRECISION":1}},
{"type":"Feature","geometry":{"type":"Polygon","coordinates":[[[-85.77,34.16],[-85.85,34.43],[-88.07,35.11],[-88.38,33.19],[-88.54,32.82],[-86.99,32.82],[-86.84,32.65],[-85.77,34.15],[-85.77,34.16]]]},"properties":{"NAME":"Copena","SUBJECTO":"Copena","BORDERPRECISION":1}},
{"type":"Feature","geometry":{"type":"Polygon","coordinates":[[[-86.84,32.65],[-86.99,32.82],[-88.54,32.82],[-88.03,30.68],[-87.3,31.3],[-86.84,32.65]]]},"properties":{"NAME":"Porter","SUBJECTO":"Porter","BORDERPRECISION":1}},
{"type":"Feature","geometry":{"type":"Polygon","coordinates":[[[-83.74,43.62],[-86.45,44.13],[-86.49,44.02],[-87.03,41.69],[-87.22,41.63],[-87.38,41.63],[-87.35,41.17],[-84.74,41.72],[-83.74,43.62]]]},"properties":{"NAME":"Goodall Focus","SUBJECTO":"Goodall Focus","BORDERPRECISION":1}},
{"type":"Feature","geometry":{"type":"Polygon","coordinates":[[[-79.64,42.85],[-80.52,44.6],[-82.17,43.08],[-81.86,42.26],[-79.64,42.85]]]},"properties":{"NAME":"Saugeen Complex","SUBJECTO":"Saugeen Complex","BORDERPRECISION":1}},
{"type":"Feature","geometry":{"type":"Polygon","coordinates":[[[-84.74,41.72],[-83.66,40.61],[-82.28,40.91],[-81.95,41.51],[-82.77,42.27],[-82.46,43.2],[-83.74,43.62],[-84.74,41.72]]]},"properties":{"NAME":"Couture Complex","SUBJECTO":"Couture Complex","BORDERPRECISION":1}},
{"type":"Feature","geometry":{"type":"Polygon","coordinates":[[[-76.06,47.31],[-80.3,45.95],[-80.29,44.52],[-79.37,43.61],[-76.18,43.61],[-75.59,43.68],[-70.56,45.31],[-70.87,47.05],[-76.06,47.31]]]},"properties":{"NAME":"Point Peninsula","SUBJECTO":"Point Peninsula","BORDERPRECISION":1}},
{"type":"Feature","geometry":{"type":"Polygon","coordinates":[[[-94.12,36.33],[-90.81,38.01],[-88.51,36.06],[-85.56,37.55],[-79.98,37.58],[-78.29,41.02],[-75.59,43.68],[-76.18,43.61],[-78.82,43.31],[-79.19,42.85],[-79.56,42.39],[-82.28,40.91],[-83.66,40.61],[-87.35,41.17],[-87.38,41.63],[-87.48,41.69],[-87.79,42.83],[-89.32,44.49],[-94.11,42.03],[-94.12,40.14],[-95.36,39.95],[-95.79,37.17],[-94.9,36.25],[-94.12,36.33]]]},"properties":{"NAME":"Hopewell Culture","SUBJECTO":"Hopewell Culture","BORDERPRECISION":1}},
{"type":"Feature","geometry":{"type":"Polygon","coordinates":[[[-78.51,8.69],[-77.11,3.79],[-80.87,-1.2],[-77.3,-0.89],[-74.23,-2.27],[-73.08,-4.72],[-76.45,-5.04],[-80.24,-3.48],[-81.42,-4.68],[-79.06,-8.22],[-76.24,-13.57],[-73.89,-14.85],[-74.38,-15.82],[-70.58,-18.08],[-70.15,-20.27],[-65.91,-18.31],[-64.19,-14.69],[-69.05,-8.24],[-70.16,-5.74],[-66.41,3.04],[-62.66,4.15],[-58.56,3.98],[-55.86,1.7],[-58.44,-2.29],[-56.33,-4.33],[-49.07,-4.74],[-44.55,-3.1],[-47.24,-0.68],[-49.22,-2.11],[-51.53,-0.43],[-49.88,1.21],[-51.21,4.07],[-54.29,5.88],[-56.75,6],[-59.83,8.44],[-61.7,8.61],[-65.97,8.18],[-71.18,9.28],[-72.38,11.81],[-78.55,8.75],[-78.51,8.69]],[[-69.86,-16.51],[-68.8,-16.38],[-68.73,-17.68],[-69.83,-17.72],[-69.86,-16.51]],[[-73.95,-9.04],[-76.04,-11.38],[-77.43,-8.86],[-73.95,-9.04]]]},"properties":{"NAME":"Manioc farmers","SUBJECTO":"Manioc farmers","BORDERPRECISION":1}},
{"type":"Feature","geometry":{"type":"Polygon","coordinates":[[[-76.24,-13.57],[-74.38,-15.82],[-73.89,-14.85],[-76.24,-13.57]]]},"properties":{"NAME":"Nazca","SUBJECTO":"Nazca","BORDERPRECISION":1}},
{"type":"Feature","geometry":{"type":"Polygon","coordinates":[[[-80.45,27.78],[-82.43,27.83],[-81.1,25.13],[-80.05,26.55],[-80.45,27.78]]]},"properties":{"NAME":"Glades Culture","SUBJECTO":"Glades Culture","BORDERPRECISION":1}},
{"type":"Feature","geometry":{"type":"Polygon","coordinates":[[[18.97,52.74],[19.4,54.28],[15.09,54],[15.47,53.8],[18.97,52.74]]]},"properties":{"NAME":"Pomeranian culture ","SUBJECTO":"Pomeranian culture ","BORDERPRECISION":1}},
{"type":"Feature","geometry":{"type":"Polygon","coordinates":[[[21.16,54.9],[19.82,54.46],[19.91,54.39],[21.48,54.44],[21.16,54.9]]]},"properties":{"NAME":"Sambian-Nothangian culture","SUBJECTO":"Sambian-Nothangian culture","BORDERPRECISION":1}},
{"type":"Feature","geometry":{"type":"Polygon","coordinates":[[[15.47,53.8],[18.41,49.55],[24.49,51.38],[20.99,52.62],[18.97,52.74],[15.47,53.8]]]},"properties":{"NAME":"Bell-shaped burials culture","SUBJECTO":"Bell-shaped burials culture","BORDERPRECISION":1}},
{"type":"Feature","geometry":{"type":"Polygon","coordinates":[[[18.97,52.74],[20.99,52.62],[21.48,54.44],[19.91,54.39],[19.82,54.46],[19.4,54.28],[18.97,52.74]]]},"properties":{"NAME":"Western Masurian culture","SUBJECTO":"Western Masurian culture","BORDERPRECISION":1}},
{"type":"Feature","geometry":{"type":"Polygon","coordinates":[[[21.48,54.44],[20.99,52.62],[24.49,51.38],[24.78,51.53],[25.06,51.98],[21.98,54.99],[21.17,54.92],[21.16,54.9],[21.48,54.44]]]},"properties":{"NAME":"Eastern Masurian culture","SUBJECTO":"Eastern Masurian culture","BORDERPRECISION":1}},
{"type":"Feature","geometry":{"type":"Polygon","coordinates":[[[21.98,54.99],[21.86,57.6],[21.17,54.92],[21.98,54.99]]]},"properties":{"NAME":"Curonians","SUBJECTO":"Curonians","BORDERPRECISION":1}},
{"type":"Feature","geometry":{"type":"Polygon","coordinates":[[[25.06,51.98],[29.71,53.3],[29.7,55.66],[24.31,57.1],[21.86,57.6],[21.98,54.99],[25.06,51.98]]]},"properties":{"NAME":"Brushed Pottery culture","SUBJECTO":"Brushed Pottery culture","BORDERPRECISION":1}},
{"type":"Feature","geometry":{"type":"Polygon","coordinates":[[[24.78,51.53],[31.56,50.9],[29.71,53.3],[25.06,51.98],[24.78,51.53]]]},"properties":{"NAME":"Milograd culture","SUBJECTO":"Milograd culture","BORDERPRECISION":1}},
{"type":"Feature","geometry":{"type":"Polygon","coordinates":[[[29.71,53.3],[31.56,50.9],[34.91,51.48],[38.31,53.65],[38.46,55.93],[33.73,56.73],[29.7,55.66],[29.71,53.3]]]},"properties":{"NAME":"Plain-Pottery culture","SUBJECTO":"Plain-Pottery culture","BORDERPRECISION":1}},
{"type":"Feature","geometry":{"type":"Polygon","coordinates":[[[-73.95,-9.04],[-77.43,-8.86],[-76.04,-11.38],[-73.95,-9.04]]]},"properties":{"NAME":"Chavin","SUBJECTO":"Chavin","BORDERPRECISION":1}},
{"type":"Feature","geometry":{"type":"Polygon","coordinates":[[[49.67,40.24],[46.85,44.45],[49.76,46.54],[46.87,50.34],[35.18,49.29],[28.85,47.15],[27.58,43.79],[28.17,43.45],[30.83,46.58],[33.56,44.94],[35.03,45.53],[35.21,46.64],[37.77,48.64],[40.32,48.24],[37.77,44.74],[41.68,41.79],[47.01,41.39],[49.67,40.24]]]},"properties":{"NAME":"Sarmates","SUBJECTO":"Sarmates","BORDERPRECISION":1}},
{"type":"Feature","geometry":{"type":"Polygon","coordinates":[[[27.93,40.96],[28.17,43.45],[27.58,43.79],[26.57,47.13],[21.71,46.25],[21.9,43.32],[22.95,41.91],[23.04,41.8],[26.25,41.46],[26.74,41.36],[26.81,41.35],[26.8,41.34],[27.93,40.96]]]},"properties":{"NAME":"Daces","SUBJECTO":"Daces","BORDERPRECISION":1}},
{"type":"Feature","geometry":{"type":"Polygon","coordinates":[[[61.16,37.7],[66.15,39.69],[65.21,42.85],[68.56,46.36],[54.54,51.03],[46.87,50.34],[49.76,46.54],[52.52,42.07],[53.99,37.52],[58.21,39],[61.16,37.7]]]},"properties":{"NAME":"Scythians","SUBJECTO":"Scythians","BORDERPRECISION":1}},
{"type":"Feature","geometry":{"type":"Polygon","coordinates":[[[66.15,39.69],[72.28,40.99],[77.35,40.03],[80.22,41.41],[77.51,44.64],[74.15,45.24],[73.79,45.31],[68.56,46.36],[65.21,42.85],[66.15,39.69]]]},"properties":{"NAME":"Saces","SUBJECTO":"Saces","BORDERPRECISION":1}},
{"type":"Feature","geometry":{"type":"Polygon","coordinates":[[[100.71,51.09],[100.73,51.14],[100.3,51.11],[100.29,51.09],[100.25,50.74],[100.68,51.02],[100.71,51.09]]]},"properties":{"NAME":"Hövsgöl Nuur","SUBJECTO":"Hövsgöl Nuur","BORDERPRECISION":1}},
{"type":"Feature","geometry":{"type":"Polygon","coordinates":[[[83.24,27.39],[84.4,35.39],[75.6,37.54],[74.23,34.18],[76.6,31.04],[80.66,28.45],[83.24,27.39]]]},"properties":{"NAME":"Zhangzhung Kingdom","SUBJECTO":"Zhangzhung Kingdom","BORDERPRECISION":1}},
{"type":"Feature","geometry":{"type":"Polygon","coordinates":[[[91.57,22.54],[92.18,20.89],[93.11,20.59],[91.57,22.54]]]},"properties":{"NAME":"Arakan","SUBJECTO":"Arakan","BORDERPRECISION":1}},
{"type":"Feature","geometry":{"type":"Polygon","coordinates":[[[60.62,31.32],[60.34,27.89],[58.74,25.54],[61.34,25.03],[66.62,25.32],[69.13,21.97],[71.02,20.66],[72.68,22.03],[79.83,26.69],[80.66,28.45],[76.6,31.04],[74.23,34.18],[75.6,37.54],[77.35,40.03],[72.28,40.99],[66.15,39.69],[61.16,37.7],[60.34,35.98],[60.62,31.32]]]},"properties":{"NAME":"Kushan Empire","SUBJECTO":"Kushan Empire","BORDERPRECISION":1}}
]}