{"type":"FeatureCollection", "features": [
{"type":"Feature","geometry":{"type":"MultiPolygon","coordinates":[[[[140.87,-2.79],[137.85,-1.61],[135.25,-3.54],[137.82,-5.43],[140.95,-9.27],[144.38,-7.76],[148.59,-9.16],[147.38,-6.12],[143.45,-3.61],[140.87,-2.79]]],[[[120.43,0.64],[119.91,0.54],[118.68,-2.9],[122.26,-3.21],[119.87,-0.46],[120.43,0.64]]]]},"properties":{"NAME":"Papuan","SUBJECTO":"Papuan","BORDERPRECISION":1}},
{"type":"Feature","geometry":{"type":"Polygon","coordinates":[[[80.56,5.93],[81.87,7.08],[80.66,9.3],[79.67,8.8],[80.56,5.93]]]},"properties":{"NAME":"Simhala","SUBJECTO":"Simhala","BORDERPRECISION":1}},
{"type":"Feature","geometry":{"type":"Polygon","coordinates":[[[-100.49,20.9],[-100.75,19.59],[-99.14,18.92],[-99.11,20.59],[-100.49,20.9]]]},"properties":{"NAME":"Teotihuacán","SUBJECTO":"Teotihuacán","BORDERPRECISION":1}},
{"type":"Feature","geometry":{"type":"Polygon","coordinates":[[[-99.21,17.71],[-99.02,16.82],[-96.44,16.22],[-97.06,18.06],[-99.21,17.71]]]},"properties":{"NAME":"Monte Albán","SUBJECTO":"Monte Albán","BORDERPRECISION":1}},
{"type":"Feature","geometry":{"type":"Polygon","coordinates":[[[-87.57,15.91],[-87.2,21.53],[-90,21.16],[-90,19.38],[-92.94,18.59],[-93.59,15.74],[-90,13.75],[-87.57,15.91]]]},"properties":{"NAME":"Maya chiefdoms and states","SUBJECTO":"Maya chiefdoms and states","BORDERPRECISION":1}},
{"type":"Feature","geometry":{"type":"Polygon","coordinates":[[[33.35,23.35],[31.06,22.68],[29.85,20.12],[30.27,15.54],[31.06,13.13],[32.88,12.47],[35.72,13.22],[35.83,14.22],[35.97,15.48],[34.55,20.18],[34.53,20.17],[33.35,23.35]]]},"properties":{"NAME":"Meroe","SUBJECTO":"Meroe","BORDERPRECISION":1}},
{"type":"Feature","geometry":{"type":"Polygon","coordinates":[[[5,33.34],[5.84,36.78],[1.06,36.46],[-2.46,35.07],[-1.96,32.04],[5,33.34]]]},"properties":{"NAME":"Kingdom of Syphax","SUBJECTO":"Kingdom of Syphax","BORDERPRECISION":1}},
{"type":"Feature","geometry":{"type":"Polygon","coordinates":[[[29.62,45.41],[28.22,45.48],[26.8,41.34],[27.93,40.96],[27.5,42.52],[29.62,45.41]]]},"properties":{"NAME":"?","SUBJECTO":"?","BORDERPRECISION":1}},
{"type":"Feature","geometry":{"type":"Polygon","coordinates":[[[41.68,41.79],[40.36,40.96],[33.56,41.98],[28.48,40.4],[31.61,39.39],[32.95,37.38],[37.01,37.49],[43.39,39.35],[44.69,36.67],[51.42,36.46],[48.84,37.51],[49.67,40.24],[47.01,41.39],[41.68,41.79]]]},"properties":{"NAME":"minor states","SUBJECTO":"minor states","BORDERPRECISION":1}},
{"type":"Feature","geometry":{"type":"Polygon","coordinates":[[[61.16,37.7],[58.21,39],[53.99,37.52],[54.07,36.94],[54.92,31.59],[60.62,31.32],[61.3,32.83],[60.34,35.98],[61.16,37.7]]]},"properties":{"NAME":"Parthia","SUBJECTO":"Parthia","BORDERPRECISION":1}},
{"type":"Feature","geometry":{"type":"Polygon","coordinates":[[[32.81,29.48],[34.89,28.36],[37.22,25.17],[39.15,26.25],[35.77,31.64],[32.81,29.48]]]},"properties":{"NAME":"Nabatean Kingdom","SUBJECTO":"Nabatean Kingdom","BORDERPRECISION":1}},
{"type":"Feature","geometry":{"type":"Polygon","coordinates":[[[37.22,25.17],[39.17,21.22],[42.21,17.51],[43.79,18.66],[39.15,26.25],[37.22,25.17]]]},"properties":{"NAME":"Maan","SUBJECTO":"Maan","BORDERPRECISION":1}},
{"type":"Feature","geometry":{"type":"Polygon","coordinates":[[[42.21,17.51],[43.05,14.61],[44.69,15.53],[45.43,17.77],[43.79,18.66],[42.21,17.51]]]},"properties":{"NAME":"Saba","SUBJECTO":"Saba","BORDERPRECISION":1}},
{"type":"Feature","geometry":{"type":"Polygon","coordinates":[[[43.05,14.61],[43.84,12.66],[49.71,14.77],[49,17.61],[45.43,17.77],[44.69,15.53],[43.05,14.61]]]},"properties":{"NAME":"Qataban","SUBJECTO":"Qataban","BORDERPRECISION":1}},
{"type":"Feature","geometry":{"type":"Polygon","coordinates":[[[39.15,26.25],[43.79,18.66],[45.43,17.77],[49,17.61],[53.62,18.14],[55.29,17.68],[57.84,19.03],[59.84,22.28],[57.15,23.98],[51.59,24],[47.61,29.27],[41.06,32.89],[37.21,32.69],[35.77,31.64],[39.15,26.25]]]},"properties":{"NAME":"Arabs","SUBJECTO":"Arabs","BORDERPRECISION":1}},
{"type":"Feature","geometry":{"type":"Polygon","coordinates":[[[49.71,14.77],[55.29,17.68],[53.62,18.14],[49,17.61],[49.71,14.77]]]},"properties":{"NAME":"Hadramaut","SUBJECTO":"Hadramaut","BORDERPRECISION":1}},
{"type":"Feature","geometry":{"type":"Polygon","coordinates":[[[60.62,31.32],[60.34,27.89],[58.74,25.54],[61.34,25.03],[66.43,25.49],[67.39,28.23],[70.29,31.29],[74.75,33.66],[75.6,37.54],[77.77,40.03],[73.58,40.03],[72.28,40.99],[66.31,39.76],[61.16,37.7],[60.34,35.98],[61.3,32.83],[60.62,31.32]]]},"properties":{"NAME":"Bactria","SUBJECTO":"Scythians","BORDERPRECISION":1}},
{"type":"Feature","geometry":{"type":"Polygon","coordinates":[[[74.42,14.38],[76.7,8.71],[79.83,10.36],[79.92,12.11],[76.88,11.35],[74.42,14.38]]]},"properties":{"NAME":"Iron Age chieftainships","SUBJECTO":"Iron Age chieftainships","BORDERPRECISION":1}},
{"type":"Feature","geometry":{"type":"Polygon","coordinates":[[[66.43,25.49],[69.13,21.97],[72.76,20.06],[74.42,14.38],[76.88,11.35],[79.92,12.11],[80.09,15.18],[86.12,19.81],[87.64,21.56],[91.57,22.54],[93.42,25.02],[93.07,26.85],[89.76,25.98],[83.24,27.39],[78.87,29.33],[76.6,31.04],[74.75,33.66],[70.29,31.29],[67.39,28.23],[66.43,25.49]],[[82.18,23.36],[85.14,23.01],[84.98,20.68],[81.34,17.18],[79.49,18.21],[81.82,21.09],[82.18,23.36]]]},"properties":{"NAME":"Mauryan Empire","SUBJECTO":"Mauryan Empire","BORDERPRECISION":1}},
{"type":"Feature","geometry":{"type":"Polygon","coordinates":[[[121.42,29.35],[117.4,27.21],[116.06,27.68],[113.58,22.93],[113.5,22.74],[116.34,22.91],[118.81,24.85],[121.42,29.35]]]},"properties":{"NAME":"Min-Yue","SUBJECTO":"Min-Yue","BORDERPRECISION":1}},
{"type":"Feature","geometry":{"type":"Polygon","coordinates":[[[113.58,22.93],[111.26,22.84],[104.95,22.05],[105.84,19.7],[107.9,21.48],[110.08,20.87],[113.5,22.74],[113.58,22.93]]]},"properties":{"NAME":"Nan-Yue","SUBJECTO":"Nan-Yue","BORDERPRECISION":1}},
{"type":"Feature","geometry":{"type":"Polygon","coordinates":[[[37.77,44.74],[40.32,48.24],[37.77,48.64],[35.21,46.64],[37.77,44.74]]]},"properties":{"NAME":"Bosporan Kingdom","SUBJECTO":"Scythians","BORDERPRECISION":1}},
{"type":"Feature","geometry":{"type":"Polygon","coordinates":[[[-2.46,35.07],[-5.93,35.73],[-9.22,32.58],[-9.63,30.41],[-1.96,32.04],[-2.46,35.07]]]},"properties":{"NAME":"Mauretania","SUBJECTO":"Mauretania","BORDERPRECISION":1}},
{"type":"Feature","geometry":{"type":"Polygon","coordinates":[[[33.35,23.35],[33.69,23.55],[33.66,24.02],[35.19,24.4],[32.81,29.48],[35.77,31.64],[35.82,34.34],[33.56,30.97],[29.25,30.75],[21.67,32.82],[20.12,30.96],[22.09,31.75],[25.44,30.68],[25.45,28.98],[28.41,27.74],[31.21,24.25],[31.06,22.68],[33.35,23.35]]]},"properties":{"NAME":"Ptolemaic Kingdom","SUBJECTO":"Ptolemaic Kingdom","BORDERPRECISION":1}},
{"type":"Feature","geometry":{"type":"Polygon","coordinates":[[[10.96,33.58],[10.13,37.1],[7.91,36.78],[8.63,34.03],[10.96,33.58]]]},"properties":{"NAME":"Carthage","SUBJECTO":"Carthage","BORDERPRECISION":1}},
{"type":"Feature","geometry":{"type":"MultiPolygon","coordinates":[[[[7.3,43.67],[12.35,44.3],[13.67,45.71],[13.78,46.77],[7.35,46.5],[7.3,43.67]]],[[[19.61,41.76],[20.21,39.4],[20.88,41.84],[19.61,41.76]]],[[[-7.01,37.17],[-5.66,36.01],[-2.24,36.73],[0.17,38.74],[0.88,41.02],[3.07,42.45],[-1.36,42.21],[-1.09,39.66],[-7.01,37.17]]]]},"properties":{"NAME":"Rome","SUBJECTO":"Rome","BORDERPRECISION":1}},
{"type":"Feature","geometry":{"type":"Polygon","coordinates":[[[-14.51,28.05],[-13.88,28.2],[-14.15,28.39],[-14.51,28.05]]]},"properties":{"NAME":"Guanches","SUBJECTO":"Guanches","BORDERPRECISION":1}},
{"type":"Feature","geometry":{"type":"Polygon","coordinates":[[[26.8,41.34],[23.01,41.91],[22.93,41.71],[21.58,41.24],[20.88,41.84],[20.21,39.4],[22.6,40.4],[27.93,40.96],[26.8,41.34]]]},"properties":{"NAME":"Macedon and Hellenic League","SUBJECTO":"Macedon and Hellenic League","BORDERPRECISION":1}},
{"type":"Feature","geometry":{"type":"Polygon","coordinates":[[[23.01,41.91],[23.47,42.98],[20.88,41.84],[21.58,41.24],[22.93,41.71],[23.01,41.91]]]},"properties":{"NAME":"Dardania","SUBJECTO":"Dardania","BORDERPRECISION":1}},
{"type":"Feature","geometry":{"type":"Polygon","coordinates":[[[26.8,39.13],[27.53,40.3],[26.13,39.88],[26.8,39.13]]]},"properties":{"NAME":"Pergamon","SUBJECTO":"Pergamon","BORDERPRECISION":1}},
{"type":"Feature","geometry":{"type":"Polygon","coordinates":[[[-56.13,53.47],[-60.17,53.3],[-60.22,53.32],[-65.64,55.26],[-71.03,55.2],[-74.2,52.93],[-78.74,52.74],[-82.34,52.98],[-82.2,54.97],[-92.4,56.98],[-102.14,57.21],[-111.28,58.55],[-118.2,62.71],[-124.94,64.83],[-132.43,62.5],[-139.52,62.42],[-150.13,63.32],[-160.94,63.98],[-165.9,61.27],[-162,58.83],[-158.29,58.73],[-149.33,60.03],[-139.57,59.9],[-134.12,58.24],[-129.85,55],[-128.59,55.06],[-125.7,55.19],[-114.47,52],[-105.19,51.45],[-95.57,50],[-87.79,49.93],[-81.93,48.9],[-72.32,46.3],[-71.03,46.75],[-66.37,50.31],[-60.14,50.41],[-55.66,52.19],[-56.13,53.47]]]},"properties":{"NAME":"Subarctic forest hunter-gatherers","SUBJECTO":"Subarctic forest hunter-gatherers","BORDERPRECISION":1}},
{"type":"Feature","geometry":{"type":"Polygon","coordinates":[[[142.34,-10.92],[140.8,-17.56],[139.25,-17.43],[135.39,-14.9],[136.66,-12.62],[133.56,-11.95],[130.46,-12.76],[129.2,-14.99],[126.85,-13.78],[122.74,-16.58],[120.87,-19.68],[116.42,-20.84],[113.63,-22.57],[113.43,-26.57],[115.75,-32.21],[115.05,-34.42],[118.21,-35.09],[119.77,-34.12],[123.62,-33.92],[126.06,-32.43],[131.28,-31.63],[133.84,-32.34],[135.53,-35.05],[137.46,-33.31],[140.01,-37.64],[143.36,-38.97],[149.5,-37.93],[151.36,-33.52],[152.97,-31.42],[153.07,-26.23],[150.75,-22.81],[146.32,-19.08],[145.18,-15.05],[143.74,-14.47],[142.34,-10.92]]]},"properties":{"NAME":"Australian aboriginal hunter-gatherers","SUBJECTO":"Australian aboriginal hunter-gatherers","BORDERPRECISION":1}},
{"type":"Feature","geometry":{"type":"Polygon","coordinates":[[[146.71,-43.72],[148.27,-41.09],[144.78,-40.84],[146.71,-43.72]]]},"properties":{"NAME":"Tasmanian hunter-gatherers","SUBJECTO":"Tasmanian hunter-gatherers","BORDERPRECISION":1}},
{"type":"Feature","geometry":{"type":"Polygon","coordinates":[[[140.01,41.38],[143.21,41.93],[145.06,43.79],[141.88,45.44],[140.01,41.38]]]},"properties":{"NAME":"Ainu","SUBJECTO":"Ainu","BORDERPRECISION":1}},
{"type":"Feature","geometry":{"type":"Polygon","coordinates":[[[105.4,72.75],[98.46,69.79],[75.86,61.43],[62.81,56.96],[59.09,56.43],[64.86,55.15],[78.36,56.41],[93.7,56.48],[99.49,55.66],[107.96,59.82],[114.02,59.55],[116.71,54.66],[119.94,51.26],[124.13,50.53],[127.34,49.98],[134.87,52.01],[141.05,52.69],[134.99,54.85],[142.85,59.27],[148.42,59.1],[154.32,59.98],[157.1,61.63],[160.64,60.72],[156.78,57.58],[155.47,54.92],[156.7,50.96],[161.5,55.29],[163.39,59.81],[170.34,60.28],[172.44,63.08],[171.77,65.86],[168.14,67.46],[155.89,68.17],[130.87,69.9],[124.54,71.59],[123.5,73.5],[123.41,73.48],[105.6,72.74],[105.4,72.75]]]},"properties":{"NAME":"Paleo-Siberian hunter-gatherers","SUBJECTO":"Paleo-Siberian hunter-gatherers","BORDERPRECISION":1}},
{"type":"Feature","geometry":{"type":"Polygon","coordinates":[[[25.2,65.27],[34.73,65.78],[34.73,65.8],[40.83,67.66],[29.73,69.7],[20.16,69.75],[10.16,64.1],[11.53,61.9],[17.94,62.55],[25.25,65.42],[25.2,65.27]]]},"properties":{"NAME":"Saami","SUBJECTO":"Saami","BORDERPRECISION":1}},
{"type":"Feature","geometry":{"type":"Polygon","coordinates":[[[105.4,72.75],[105.28,72.75],[113.63,75.27],[103.39,77.56],[91.63,75.65],[89.8,75.52],[87.69,73.9],[72.71,72.77],[62.28,69.71],[39.95,65.58],[34.73,65.61],[34.73,65.78],[25.2,65.27],[25.19,65.24],[21.2,62.44],[30.25,61.48],[32.78,60.87],[46.11,57.71],[48.85,57.71],[59.09,56.43],[62.81,56.96],[75.86,61.43],[98.46,69.79],[105.4,72.75]]]},"properties":{"NAME":"Finno-Ugric taiga hunter-gatherers","SUBJECTO":"Finno-Ugric taiga hunter-gatherers","BORDERPRECISION":1}},
{"type":"Feature","geometry":{"type":"MultiPolygon","coordinates":[[[[-43.58,59.94],[-39.69,65.19],[-42.79,65.4],[-43.58,59.94]]],[[[-49.47,67.03],[-50.54,67.49],[-50.94,67.53],[-53.1,65.87],[-48.92,61.42],[-46.16,60.94],[-49.06,64.79],[-49.47,67.03]]],[[[-92.4,56.98],[-94.75,59.95],[-93.42,61.86],[-87.44,64.57],[-86.49,67.38],[-92.96,69.08],[-101.91,67.71],[-112.5,67.69],[-115.29,68.89],[-127.35,70.38],[-137.73,69.02],[-156.9,71.35],[-164.07,69.06],[-166.59,64.73],[-160.94,63.98],[-150.13,63.32],[-139.52,62.42],[-132.43,62.5],[-124.94,64.83],[-118.2,62.71],[-111.28,58.55],[-102.14,57.21],[-92.4,56.98]]],[[[-60.22,53.32],[-57.52,54.47],[-61.93,56.27],[-62.89,58.66],[-69.21,58.75],[-70.03,60.88],[-77.36,62.52],[-78.34,58.55],[-76.44,56.81],[-79.55,54.69],[-78.74,52.74],[-74.2,52.93],[-71.03,55.2],[-65.64,55.26],[-60.22,53.32]]],[[[170.34,60.28],[170.52,60.34],[179.29,62.82],[180,64.95],[180,65.05],[180,65.31],[180,65.38],[180,65.96],[180,66.96],[180,67.96],[180,68.92],[175.61,69.78],[159.44,69.76],[152.13,70.66],[141.29,72.79],[137.63,71.08],[126.22,72.38],[124.22,73.7],[123.5,73.5],[124.54,71.59],[130.87,69.9],[155.89,68.17],[168.14,67.46],[171.77,65.86],[172.44,63.08],[170.34,60.28]]],[[[-75.62,69.1],[-72.3,67.26],[-75.79,65.2],[-71.32,63.06],[-64.47,63.74],[-61.21,66.64],[-68.67,68.72],[-71.25,71.35],[-81.53,73.69],[-88.1,73.64],[-87.95,70.38],[-75.62,69.1]]],[[[-116.93,72.9],[-117.57,69.99],[-113.15,68.6],[-104.62,71.09],[-110.35,71.2],[-116.93,72.9]]],[[[-170.47,66.29],[-180,68.92],[-180,67.96],[-180,66.96],[-180,65.96],[-180,65.38],[-180,65.31],[-180,65.26],[-178.12,65.48],[-173.08,64.38],[-170.47,66.29]]]]},"properties":{"NAME":"Arctic marine mammal hunters","SUBJECTO":"Arctic marine mammal hunters","BORDERPRECISION":1}},
{"type":"Feature","geometry":{"type":"Polygon","coordinates":[[[-80.24,-3.48],[-76.45,-5.04],[-73.08,-4.72],[-74.23,-2.27],[-77.3,-0.89],[-80.87,-1.2],[-80.8,-1.33],[-80.23,-3.47],[-80.24,-3.48]]]},"properties":{"NAME":"Chorrera","SUBJECTO":"Chorrera","BORDERPRECISION":1}},
{"type":"Feature","geometry":{"type":"Polygon","coordinates":[[[-48.73,-28.37],[-48.72,-25.43],[-44.56,-22.99],[-43.24,-23.03],[-45.94,-21.75],[-49.49,-24.55],[-48.8,-28.48],[-48.73,-28.37]]]},"properties":{"NAME":"Shellfish gatherers","SUBJECTO":"Shellfish gatherers","BORDERPRECISION":1}},
{"type":"Feature","geometry":{"type":"Polygon","coordinates":[[[-64.19,-14.69],[-60.27,-13.81],[-51.54,-14.38],[-48.32,-13.92],[-39.94,-8.29],[-37.89,-4.39],[-40.23,-2.85],[-44.55,-3.1],[-49.07,-4.74],[-56.33,-4.33],[-58.44,-2.29],[-55.86,1.7],[-58.56,3.98],[-62.66,4.15],[-66.41,3.04],[-70.16,-5.74],[-69.05,-8.24],[-64.19,-14.69]]]},"properties":{"NAME":"Amazon hunter-gatherers","SUBJECTO":"Amazon hunter-gatherers","BORDERPRECISION":1}},
{"type":"Feature","geometry":{"type":"Polygon","coordinates":[[[-52.04,-31.56],[-48.85,-28.56],[-48.8,-28.48],[-49.49,-24.55],[-45.94,-21.75],[-43.24,-23.03],[-41.96,-22.92],[-39.69,-19.41],[-39.13,-14.32],[-34.89,-7.61],[-35.46,-5.27],[-37.89,-4.39],[-39.94,-8.29],[-48.32,-13.92],[-51.54,-14.38],[-60.27,-13.81],[-64.19,-14.69],[-65.91,-18.31],[-67.12,-25.03],[-69.32,-29.3],[-67.48,-31.66],[-63.56,-30.04],[-57.35,-29.68],[-52.14,-31.74],[-52.04,-31.56]]]},"properties":{"NAME":"Savanna hunter-gatherers","SUBJECTO":"Savanna hunter-gatherers","BORDERPRECISION":1}},
{"type":"Feature","geometry":{"type":"Polygon","coordinates":[[[-69.17,-51.15],[-65.78,-47.23],[-64.94,-40.83],[-62.96,-41.14],[-61.36,-39.03],[-57.81,-38.39],[-56.34,-35],[-54.07,-34.65],[-52.14,-31.75],[-52.14,-31.74],[-57.35,-29.68],[-63.56,-30.04],[-67.48,-31.66],[-69.44,-37.16],[-72.07,-40.55],[-70.58,-40.58],[-72.19,-45.99],[-71.17,-51.56],[-69.11,-51.35],[-69.17,-51.15]]]},"properties":{"NAME":"Pampas cultures","SUBJECTO":"Pampas cultures","BORDERPRECISION":1}},
{"type":"Feature","geometry":{"type":"Polygon","coordinates":[[[-70.11,-20.69],[-70.4,-25.25],[-71.43,-29.1],[-71.62,-33.71],[-73.67,-37.5],[-72.73,-41.55],[-72.07,-40.55],[-69.44,-37.16],[-67.48,-31.66],[-69.32,-29.3],[-67.12,-25.03],[-65.91,-18.31],[-70.15,-20.27],[-70.11,-20.69]]]},"properties":{"NAME":"Andean hunter-gatherers","SUBJECTO":"Andean hunter-gatherers","BORDERPRECISION":1}},
{"type":"Feature","geometry":{"type":"Polygon","coordinates":[[[-69.11,-51.35],[-71.17,-51.56],[-72.19,-45.99],[-70.58,-40.58],[-72.07,-40.55],[-72.73,-41.55],[-74.31,-48.75],[-71.87,-53.7],[-69.08,-51.5],[-69.11,-51.35]]]},"properties":{"NAME":"Patagonian shellfish and marine mammal hunters","SUBJECTO":"Patagonian shellfish and marine mammal hunters","BORDERPRECISION":1}},
{"type":"Feature","geometry":{"type":"Polygon","coordinates":[[[-71.18,9.28],[-70.68,8.56],[-65.97,8.18],[-61.7,8.61],[-61.53,9.85],[-67.98,10.54],[-69.75,11.53],[-71.1,9.33],[-71.18,9.28]]]},"properties":{"NAME":"Caribbean hunter-gatherers","SUBJECTO":"Caribbean hunter-gatherers","BORDERPRECISION":1}},
{"type":"Feature","geometry":{"type":"Polygon","coordinates":[[[-74.67,-14.89],[-76.24,-13.57],[-76.24,-13.91],[-75.2,-15.24],[-74.67,-14.89]]]},"properties":{"NAME":"Paracas","SUBJECTO":"Paracas","BORDERPRECISION":1}},
{"type":"Feature","geometry":{"type":"Polygon","coordinates":[[[-80.37,-3.57],[-80.07,-6.76],[-79.8,-7.19],[-76.36,-13.23],[-76.24,-13.5],[-76.24,-13.57],[-74.67,-14.89],[-75.2,-15.24],[-71.22,-17.81],[-70.58,-18.08],[-70.19,-19.76],[-70.15,-20.27],[-65.91,-18.31],[-64.19,-14.69],[-69.05,-8.24],[-70.16,-5.74],[-66.41,3.04],[-62.66,4.15],[-58.56,3.98],[-55.86,1.7],[-58.44,-2.29],[-56.33,-4.33],[-49.07,-4.74],[-44.55,-3.1],[-47.24,-0.68],[-49.22,-2.11],[-51.53,-0.43],[-49.88,1.21],[-51.21,4.07],[-54.29,5.88],[-56.75,6],[-59.83,8.44],[-61.7,8.61],[-65.97,8.18],[-70.68,8.56],[-71.18,9.28],[-71.29,9.21],[-72.38,11.81],[-75.45,10.63],[-76.76,8.69],[-78.55,8.75],[-78.51,8.69],[-77.11,3.79],[-80.97,-1.03],[-80.87,-1.2],[-77.3,-0.89],[-74.23,-2.27],[-73.08,-4.72],[-76.45,-5.04],[-80.24,-3.48],[-80.37,-3.57]],[[-73.95,-9.04],[-76.04,-11.38],[-77.43,-8.86],[-73.95,-9.04]],[[-70.34,-17.14],[-68.8,-16.38],[-68.73,-17.68],[-70.34,-17.14]]]},"properties":{"NAME":"Manioc farmers","SUBJECTO":"Manioc farmers","BORDERPRECISION":1}},
{"type":"Feature","geometry":{"type":"Polygon","coordinates":[[[-70.34,-17.14],[-68.73,-17.68],[-68.8,-16.38],[-70.34,-17.14]]]},"properties":{"NAME":"Wankarani","SUBJECTO":"Wankarani","BORDERPRECISION":1}},
{"type":"Feature","geometry":{"type":"Polygon","coordinates":[[[-114.47,52],[-114.13,47.95],[-111.67,41.94],[-104.52,33.87],[-97.21,28.07],[-94.12,29.69],[-95.46,33.03],[-96.26,34.62],[-94.12,40.14],[-94.23,46.72],[-95.57,50],[-105.19,51.45],[-114.47,52]]]},"properties":{"NAME":"Plain bison hunters","SUBJECTO":"Plain bison hunters","BORDERPRECISION":1}},
{"type":"Feature","geometry":{"type":"Polygon","coordinates":[[[-111.67,41.94],[-120.47,43.57],[-121.36,39.69],[-120.13,34.52],[-117.5,33.33],[-115.6,29.69],[-113.05,31.14],[-110.53,27.76],[-107.56,27.76],[-104.22,25.12],[-100.36,23.97],[-97.82,24.14],[-97.21,28.07],[-104.52,33.87],[-111.67,41.94]]]},"properties":{"NAME":"Desert hunter-gatherers","SUBJECTO":"Desert hunter-gatherers","BORDERPRECISION":1}},
{"type":"Feature","geometry":{"type":"Polygon","coordinates":[[[-128.59,55.06],[-120.48,48.96],[-120.47,43.57],[-111.67,41.94],[-114.13,47.95],[-114.47,52],[-125.7,55.19],[-128.59,55.06]]]},"properties":{"NAME":"Plateau fichers and hunter gatherers","SUBJECTO":"Plateau fichers and hunter gatherers","BORDERPRECISION":1}},
{"type":"Feature","geometry":{"type":"Polygon","coordinates":[[[-129.85,55],[-130,53.94],[-124.68,48.39],[-123.99,45.76],[-124.36,40.33],[-121.93,36.34],[-120.13,34.52],[-121.36,39.69],[-120.47,43.57],[-120.48,48.96],[-128.59,55.06],[-129.85,55]]]},"properties":{"NAME":"North American Pacifi foraging, hunting and fishing peoples","SUBJECTO":"North American Pacifi foraging, hunting and fishing peoples","BORDERPRECISION":1}},
{"type":"Feature","geometry":{"type":"Polygon","coordinates":[[[32.88,12.47],[30.6,11.12],[24.07,11.18],[17.75,12.83],[8.27,12.37],[2.35,13.29],[-6.26,13.35],[-13.4,14.92],[-16.87,14.36],[-16.77,12.6],[-13.68,9.92],[-12.26,7.35],[-7.53,4.34],[-5,5.24],[-2.03,4.7],[3.95,6.58],[5.45,5.48],[5.36,5.37],[12.6,7.73],[22.22,6.2],[33.93,2.84],[36.02,1.3],[38.77,-2.27],[40.86,0.32],[44.14,1.15],[44.3,1.29],[48.47,5.2],[50.78,9.37],[51.18,11.78],[44.28,10.4],[42.08,13.86],[39.52,15.46],[35.83,14.22],[35.72,13.22],[32.88,12.47]],[[35.58,5.53],[33.02,6.86],[32.35,9.53],[34.23,11.71],[37.13,11.64],[39.14,9.06],[38.61,6.6],[35.58,5.53]]]},"properties":{"NAME":"West African cereal farmers","SUBJECTO":"West African cereal farmers","BORDERPRECISION":1}},
{"type":"Feature","geometry":{"type":"MultiPolygon","coordinates":[[[[5.36,5.37],[5.35,5.36],[8.87,4.62],[9.92,2.82],[9.2,-0.63],[9.66,-2.42],[11.77,-4.54],[13.39,-8.16],[13.65,-12.2],[12.59,-13.46],[11.77,-17.6],[14.42,-22.27],[15.45,-27.62],[18.18,-31.81],[18.49,-34.4],[26.66,-33.85],[32.23,-28.74],[33.35,-25.3],[34.88,-24.72],[34.73,-19.86],[39.47,-16.72],[40.6,-14.4],[40.31,-11.34],[38.92,-6.34],[40.23,-3.19],[43.72,0.8],[44.14,1.15],[40.86,0.32],[38.77,-2.27],[36.02,1.3],[33.93,2.84],[22.22,6.2],[12.6,7.73],[5.36,5.37]]],[[[45.28,-16.05],[43.97,-17.55],[44.47,-20.17],[43.67,-24.23],[45.58,-25.62],[47.26,-24.77],[49.34,-18.23],[50.5,-15.31],[49.82,-12.83],[45.28,-16.05]]]]},"properties":{"NAME":"Khoiasan","SUBJECTO":"Khoiasan","BORDERPRECISION":1}},
{"type":"Feature","geometry":{"type":"Polygon","coordinates":[[[34.55,20.18],[37.13,21.23],[35.19,24.4],[33.66,24.02],[33.69,23.55],[33.35,23.35],[34.53,20.17],[34.55,20.18]]]},"properties":{"NAME":"Blemmyes","SUBJECTO":"Blemmyes","BORDERPRECISION":1}},
{"type":"Feature","geometry":{"type":"Polygon","coordinates":[[[111.5,41.82],[113.32,41.6],[114.54,41.56],[118.55,41.43],[123.75,41.68],[125.88,41.48],[131.08,46.2],[123.99,50.34],[107.07,50.97],[95.82,51.18],[85.48,48.31],[94.98,41.22],[106.04,37.56],[106.8,39.14],[107.21,41.75],[109.08,42.12],[111.5,41.82]]]},"properties":{"NAME":"Xiongnu","SUBJECTO":"Xiongnu","BORDERPRECISION":1}},
{"type":"Feature","geometry":{"type":"Polygon","coordinates":[[[91.57,22.54],[93.11,20.59],[94.27,18.52],[105.56,18.9],[105.84,19.7],[104.95,22.05],[111.26,22.84],[110.85,24.87],[108.17,27.54],[102.13,28.02],[101.65,29.53],[103.44,33.64],[83.65,30.17],[83.24,27.39],[89.76,25.98],[93.07,26.85],[93.42,25.02],[91.57,22.54]]]},"properties":{"NAME":"Thai","SUBJECTO":"Thai","BORDERPRECISION":1}},
{"type":"Feature","geometry":{"type":"Polygon","coordinates":[[[11.53,61.9],[9.83,63.68],[5.15,61.74],[5.62,58.46],[10.55,59.38],[13.3,55.3],[15.77,56.03],[19.04,59.86],[17.94,62.55],[11.53,61.9]]]},"properties":{"NAME":"Norsemen","SUBJECTO":"Norsemen","BORDERPRECISION":1}},
{"type":"Feature","geometry":{"type":"Polygon","coordinates":[[[94.27,18.52],[94.14,16.22],[97.57,16.45],[98.74,11.44],[98.18,8.6],[100.14,6.18],[101.34,2.78],[103.34,4.81],[100.61,6.98],[99.07,9.9],[99.9,12.08],[106.48,9.55],[109.07,11.64],[108.24,16.08],[105.56,18.9],[94.27,18.52]]]},"properties":{"NAME":"Mon-Khmer","SUBJECTO":"Mon-Khmer","BORDERPRECISION":1}},
{"type":"Feature","geometry":{"type":"MultiPolygon","coordinates":[[[[99.87,2.64],[98.6,1.71],[100.81,-2.34],[104.57,-6.07],[105.94,-3.21],[99.87,2.64]]],[[[111.12,1.27],[108.81,0.81],[110.1,-3.08],[115.57,-3.8],[117.53,0.61],[117.07,3.51],[119.04,5.17],[116.6,6.9],[111.12,1.27]]],[[[120.31,14.58],[122.4,17.11],[120.39,18.04],[120.31,14.58]]]]},"properties":{"NAME":"Malays","SUBJECTO":"Malays","BORDERPRECISION":1}},
{"type":"Feature","geometry":{"type":"Polygon","coordinates":[[[31.06,22.68],[31.21,24.25],[28.41,27.74],[25.45,28.98],[25.44,30.68],[22.09,31.75],[20.12,30.96],[18.92,30.2],[15.01,32.36],[10.96,33.58],[8.63,34.03],[5,33.34],[-1.96,32.04],[-9.63,30.41],[-14.37,26.12],[-17.05,21],[-15.98,18.18],[-16.87,14.36],[-13.4,14.92],[-6.26,13.35],[2.35,13.29],[8.27,12.37],[17.75,12.83],[24.07,11.18],[30.6,11.12],[32.88,12.47],[31.06,13.13],[30.27,15.54],[29.85,20.12],[31.06,22.68]]]},"properties":{"NAME":"Saharan Pastoral Nomads","SUBJECTO":"Saharan Pastoral Nomads","BORDERPRECISION":1}},
{"type":"Feature","geometry":{"type":"MultiPolygon","coordinates":[[[[-2.54,43.42],[-7.64,43.72],[-8.85,41.45],[-2.54,43.42]]],[[[-0.2,53.52],[-4.32,53.09],[-3.52,50.62],[0.19,50.73],[-0.2,53.52]]]]},"properties":{"NAME":"Celts","SUBJECTO":"Celts","BORDERPRECISION":1}},
{"type":"Feature","geometry":{"type":"Polygon","coordinates":[[[28.48,40.4],[27.53,40.3],[26.8,39.13],[27.16,37.36],[30.47,36.19],[35.71,36.21],[35.82,34.34],[35.77,31.64],[37.21,32.69],[41.06,32.89],[47.61,29.27],[50.13,30.07],[51.35,28.04],[54.65,26.39],[56.79,26.97],[58.74,25.54],[60.34,27.89],[60.62,31.32],[54.92,31.59],[54.07,36.94],[51.42,36.46],[44.69,36.67],[43.39,39.35],[37.01,37.49],[32.95,37.38],[31.61,39.39],[28.48,40.4]]]},"properties":{"NAME":"Seleucid Kingdom","SUBJECTO":"Seleucid Kingdom","BORDERPRECISION":1}},
{"type":"Feature","geometry":{"type":"Polygon","coordinates":[[[-92.94,18.59],[-96.01,18.93],[-97.5,21.19],[-97.82,24.14],[-100.36,23.97],[-104.22,25.12],[-107.56,27.76],[-110.53,27.76],[-105.54,22.28],[-104.95,19.44],[-103.49,18.35],[-97.88,16.05],[-93.59,15.74],[-92.94,18.59]],[[-100.49,20.9],[-99.11,20.59],[-99.14,18.92],[-100.75,19.59],[-100.49,20.9]],[[-99.21,17.71],[-97.06,18.06],[-96.44,16.22],[-99.02,16.82],[-99.21,17.71]]]},"properties":{"NAME":"Maize farmers","SUBJECTO":"Maize farmers","BORDERPRECISION":1}},
{"type":"Feature","geometry":{"type":"Polygon","coordinates":[[[-82.14,36.96],[-79.98,37.58],[-78.32,40.65],[-79.81,41.45],[-85.97,40.06],[-85.56,37.55],[-82.14,36.96]]]},"properties":{"NAME":"Adena Culture","SUBJECTO":"Adena Culture","BORDERPRECISION":1}},
{"type":"Feature","geometry":{"type":"Polygon","coordinates":[[[-95.57,50],[-94.23,46.72],[-94.12,40.14],[-96.26,34.62],[-95.46,33.03],[-94.12,29.69],[-90.78,29.11],[-89.23,30.41],[-83.89,30.05],[-82.43,27.83],[-80.59,28.49],[-81.51,30.73],[-80.58,32.5],[-76.62,34.76],[-73.74,40.98],[-70.3,41.76],[-70.22,43.8],[-64.53,46.27],[-66.03,49.17],[-71.03,46.75],[-72.32,46.3],[-81.93,48.9],[-87.79,49.93],[-95.57,50]],[[-82.14,36.96],[-85.56,37.55],[-85.97,40.06],[-79.81,41.45],[-78.32,40.65],[-79.98,37.58],[-82.14,36.96]],[[-92.16,46.71],[-88.09,49],[-84.44,46.82],[-92.16,46.71]]]},"properties":{"NAME":"Eastern North Amercian hunter-gatherers","SUBJECTO":"Eastern North Amercian hunter-gatherers","BORDERPRECISION":1}},
{"type":"Feature","geometry":{"type":"Polygon","coordinates":[[[-82.43,27.83],[-81.1,25.13],[-80.05,26.55],[-80.59,28.49],[-82.43,27.83]]]},"properties":{"NAME":"Glades Culture","SUBJECTO":"Glades Culture","BORDERPRECISION":1}},
{"type":"Feature","geometry":{"type":"Polygon","coordinates":[[[5,33.34],[8.63,34.03],[7.91,36.78],[5.84,36.78],[5,33.34]]]},"properties":{"NAME":"Kingdom of Gala","SUBJECTO":"Kingdom of Gala","BORDERPRECISION":1}},
{"type":"Feature","geometry":{"type":"Polygon","coordinates":[[[18.97,52.74],[19.4,54.28],[15.09,54],[15.47,53.8],[18.97,52.74]]]},"properties":{"NAME":"Pomeranian culture ","SUBJECTO":"Pomeranian culture ","BORDERPRECISION":1}},
{"type":"Feature","geometry":{"type":"Polygon","coordinates":[[[21.16,54.9],[19.82,54.46],[19.91,54.39],[21.48,54.44],[21.16,54.9]]]},"properties":{"NAME":"Sambian-Nothangian culture","SUBJECTO":"Sambian-Nothangian culture","BORDERPRECISION":1}},
{"type":"Feature","geometry":{"type":"Polygon","coordinates":[[[15.47,53.8],[18.41,49.55],[24.49,51.38],[20.99,52.62],[18.97,52.74],[15.47,53.8]]]},"properties":{"NAME":"Bell-shaped burials culture","SUBJECTO":"Bell-shaped burials culture","BORDERPRECISION":1}},
{"type":"Feature","geometry":{"type":"Polygon","coordinates":[[[18.97,52.74],[20.99,52.62],[21.48,54.44],[19.91,54.39],[19.82,54.46],[19.4,54.28],[18.97,52.74]]]},"properties":{"NAME":"Western Masurian culture","SUBJECTO":"Western Masurian culture","BORDERPRECISION":1}},
{"type":"Feature","geometry":{"type":"Polygon","coordinates":[[[21.48,54.44],[20.99,52.62],[24.49,51.38],[24.78,51.53],[25.06,51.98],[21.98,54.99],[21.17,54.92],[21.16,54.9],[21.48,54.44]]]},"properties":{"NAME":"Eastern Masurian culture","SUBJECTO":"Eastern Masurian culture","BORDERPRECISION":1}},
{"type":"Feature","geometry":{"type":"Polygon","coordinates":[[[21.98,54.99],[21.86,57.6],[21.17,54.92],[21.98,54.99]]]},"properties":{"NAME":"Curonians","SUBJECTO":"Curonians","BORDERPRECISION":1}},
{"type":"Feature","geometry":{"type":"Polygon","coordinates":[[[25.06,51.98],[29.71,53.3],[29.7,55.66],[24.31,57.1],[21.86,57.6],[21.98,54.99],[25.06,51.98]]]},"properties":{"NAME":"Brushed Pottery culture","SUBJECTO":"Brushed Pottery culture","BORDERPRECISION":1}},
{"type":"Feature","geometry":{"type":"Polygon","coordinates":[[[24.78,51.53],[30.16,50.28],[31.56,50.9],[29.71,53.3],[25.06,51.98],[24.78,51.53]]]},"properties":{"NAME":"Milograd culture","SUBJECTO":"Milograd culture","BORDERPRECISION":1}},
{"type":"Feature","geometry":{"type":"Polygon","coordinates":[[[29.71,53.3],[31.56,50.9],[34.91,51.48],[37.12,54.21],[38.46,55.93],[33.73,56.73],[29.7,55.66],[29.71,53.3]]]},"properties":{"NAME":"Plain-Pottery culture","SUBJECTO":"Plain-Pottery culture","BORDERPRECISION":1}},
{"type":"Feature","geometry":{"type":"Polygon","coordinates":[[[75.6,37.54],[84.4,35.39],[83.65,30.17],[103.44,33.64],[106.04,37.56],[94.98,41.22],[85.48,48.31],[84.34,48.41],[85.56,46.89],[81.85,43.31],[72.28,40.99],[73.58,40.03],[77.77,40.03],[75.6,37.54]]]},"properties":{"NAME":"Yuezhi","SUBJECTO":"Yuezhi","BORDERPRECISION":1}},
{"type":"Feature","geometry":{"type":"Polygon","coordinates":[[[-73.95,-9.04],[-77.43,-8.86],[-76.04,-11.38],[-73.95,-9.04]]]},"properties":{"NAME":"Chavin","SUBJECTO":"Chavin","BORDERPRECISION":1}},
{"type":"Feature","geometry":{"type":"Polygon","coordinates":[[[49.67,40.24],[46.85,44.45],[50.87,44.63],[53.99,37.52],[58.21,39],[61.16,37.7],[66.31,39.76],[72.28,40.99],[81.85,43.31],[85.56,46.89],[84.34,48.41],[82.45,50.78],[64.75,54.78],[64.86,55.15],[59.09,56.43],[48.85,57.71],[37.12,54.21],[34.91,51.48],[31.56,50.9],[30.16,50.28],[30.63,46.36],[33.56,44.94],[35.03,45.53],[35.21,46.64],[37.77,48.64],[40.32,48.24],[37.77,44.74],[41.68,41.79],[47.01,41.39],[49.67,40.24]]]},"properties":{"NAME":"Scythians","SUBJECTO":"Scythians","BORDERPRECISION":1}},
{"type":"Feature","geometry":{"type":"Polygon","coordinates":[[[64.86,55.15],[64.75,54.78],[82.45,50.78],[84.34,48.41],[85.48,48.31],[95.82,51.18],[107.07,50.97],[123.99,50.34],[124.13,50.53],[119.94,51.26],[116.71,54.66],[114.02,59.55],[107.96,59.82],[99.49,55.66],[93.7,56.48],[78.36,56.41],[64.86,55.15]]]},"properties":{"NAME":"Turcik tribes","SUBJECTO":"Turcik tribes","BORDERPRECISION":1}},
{"type":"Feature","geometry":{"type":"Polygon","coordinates":[[[124.13,50.53],[123.99,50.34],[131.08,46.2],[125.88,41.48],[123.75,41.68],[124.1,39.88],[126.63,37.59],[126.37,34.79],[129.44,35.48],[127.28,39.22],[132.18,43.19],[134.14,42.99],[140.08,48.5],[141.05,52.69],[134.87,52.01],[127.34,49.98],[124.13,50.53]]]},"properties":{"NAME":"Tungus","SUBJECTO":"Tungus","BORDERPRECISION":1}},
{"type":"Feature","geometry":{"type":"Polygon","coordinates":[[[74.75,33.66],[76.6,31.04],[78.87,29.33],[83.24,27.39],[83.65,30.17],[84.4,35.39],[75.6,37.54],[74.75,33.66]]]},"properties":{"NAME":"Zhangzhung Kingdom","SUBJECTO":"Zhangzhung Kingdom","BORDERPRECISION":1}},
{"type":"Feature","geometry":{"type":"Polygon","coordinates":[[[121.42,29.35],[121.61,31.83],[119.02,34.69],[120.14,36.19],[117.59,38.28],[121.01,40.85],[124.1,39.88],[123.75,41.68],[118.55,41.43],[114.54,41.56],[113.32,41.6],[111.5,41.82],[109.08,42.12],[107.21,41.75],[106.8,39.14],[106.04,37.56],[103.44,33.64],[101.65,29.53],[102.13,28.02],[108.17,27.54],[110.85,24.87],[111.26,22.84],[113.58,22.93],[116.06,27.68],[117.4,27.21],[121.42,29.35]]]},"properties":{"NAME":"Han Empire","SUBJECTO":"Han Empire","BORDERPRECISION":1}},
{"type":"Feature","geometry":{"type":"Polygon","coordinates":[[[91.57,22.54],[92.18,20.89],[93.11,20.59],[91.57,22.54]]]},"properties":{"NAME":"Arakan","SUBJECTO":"Arakan","BORDERPRECISION":1}}
]}