{"type":"FeatureCollection", "features": [
{"type":"Feature","geometry":{"type":"Polygon","coordinates":[[[33.78,35.21],[32.82,35.28],[32.6,34.61],[33.92,34.95],[33.78,35.21]]]},"properties":{"NAME":"Cyprus","SUBJECTO":"Cyprus","BORDERPRECISION":1}},
{"type":"Feature","geometry":{"type":"Polygon","coordinates":[[[136.81,37.31],[134.43,34.63],[140.32,35.03],[140.87,37.92],[136.81,37.31]]]},"properties":{"NAME":"Imperial Japan (Fujiwara)","SUBJECTO":"Imperial Japan (Fujiwara)","BORDERPRECISION":1}},
{"type":"Feature","geometry":{"type":"Polygon","coordinates":[[[44.67,-16.24],[44.47,-20.17],[43.5,-21.49],[43.67,-24.23],[45.58,-25.62],[47.26,-24.77],[49.34,-18.23],[50.5,-15.31],[49.82,-12.83],[46.92,-15.36],[44.67,-16.24]],[[48.01,-17.02],[48.49,-20.04],[47.19,-23.12],[45.29,-22.65],[46.65,-17.73],[48.01,-17.02]]]},"properties":{"NAME":"Madagascar","SUBJECTO":"Madagascar","BORDERPRECISION":1}},
{"type":"Feature","geometry":{"type":"MultiPolygon","coordinates":[[[[19.58,69.18],[17.41,68.77],[9.83,63.68],[5.15,61.74],[5.62,58.46],[11.74,57.7],[14.34,62.95],[19.58,69.18]]],[[[-24.22,65.53],[-22.37,63.77],[-14.82,64.2],[-16.92,65.98],[-24.22,65.53]]]]},"properties":{"NAME":"Norway","SUBJECTO":"Norway","BORDERPRECISION":1}},
{"type":"Feature","geometry":{"type":"Polygon","coordinates":[[[48.01,-17.02],[46.65,-17.73],[45.29,-22.65],[47.19,-23.12],[48.49,-20.04],[48.01,-17.02]]]},"properties":{"NAME":"Expansionist Kingdom of Merina","SUBJECTO":"Expansionist Kingdom of Merina","BORDERPRECISION":1}},
{"type":"Feature","geometry":{"type":"Polygon","coordinates":[[[139.98,41.5],[143.21,41.93],[145.06,43.79],[141.88,45.44],[139.98,41.5]]]},"properties":{"NAME":"Ainu","SUBJECTO":"Ainu","BORDERPRECISION":1}},
{"type":"Feature","geometry":{"type":"Polygon","coordinates":[[[8.82,38.98],[9.79,40.56],[8.24,40.86],[8.82,38.98]]]},"properties":{"NAME":"Sardinia","SUBJECTO":"Sardinia","BORDERPRECISION":1}},
{"type":"Feature","geometry":{"type":"Polygon","coordinates":[[[109.43,18.1],[110.26,18.63],[110.62,20.02],[108.58,19.19],[109.43,18.1]]]},"properties":{"NAME":"Hainan","SUBJECTO":"Hainan","BORDERPRECISION":1}},
{"type":"Feature","geometry":{"type":"Polygon","coordinates":[[[33.4,-20.02],[32.69,-18.64],[29.69,-18.82],[28.63,-19.88],[28.62,-19.95],[28.28,-21.47],[29.34,-23.05],[32.87,-22],[33.4,-20.02]]]},"properties":{"NAME":"Great Zimbabwe","SUBJECTO":"Great Zimbabwe","BORDERPRECISION":1}},
{"type":"Feature","geometry":{"type":"Polygon","coordinates":[[[40.4,-11.23],[38.92,-6.34],[40.23,-3.19],[43.72,0.8],[46.23,2.55],[46.36,2.67],[47.64,4.1],[44.28,3.36],[43.41,2.51],[39.42,-1.38],[37.73,-4.58],[38.24,-9.29],[40.4,-11.23]]]},"properties":{"NAME":"Islamic city-states","SUBJECTO":"Islamic city-states","BORDERPRECISION":1}},
{"type":"Feature","geometry":{"type":"Polygon","coordinates":[[[16.48,48.2],[15.91,45.63],[16.81,44.94],[22.66,44.64],[27.45,46.53],[24.13,48.81],[22.95,48.97],[22.88,49.22],[19.38,49.8],[16.48,48.2]]]},"properties":{"NAME":"Hungary","SUBJECTO":"Hungary","BORDERPRECISION":1}},
{"type":"Feature","geometry":{"type":"Polygon","coordinates":[[[13.37,45.69],[12.14,45.76],[12.18,45.21],[13.37,45.69]]]},"properties":{"NAME":"Venice","SUBJECTO":"Venice","BORDERPRECISION":1}},
{"type":"Feature","geometry":{"type":"Polygon","coordinates":[[[9.43,42.79],[8.61,42.49],[8.73,41.56],[9.45,42.05],[9.43,42.79]]]},"properties":{"NAME":"Corsica","SUBJECTO":"Corsica","BORDERPRECISION":1}},
{"type":"Feature","geometry":{"type":"Polygon","coordinates":[[[115.96,-3.2],[114.63,-1.66],[111.33,-1.37],[110.1,-3.08],[112.8,-2.97],[114.71,-4.21],[115.96,-3.2]]]},"properties":{"NAME":"East Java","SUBJECTO":"East Java","BORDERPRECISION":1}},
{"type":"Feature","geometry":{"type":"Polygon","coordinates":[[[102.04,37.74],[108.97,37.74],[110.5,39.88],[108.36,41.51],[101.43,41.2],[96.24,41.51],[91.35,42.12],[86.91,41.41],[88.29,38.96],[96.24,38.76],[102.04,37.74]]]},"properties":{"NAME":"Xixia","SUBJECTO":"Xixia","BORDERPRECISION":1}},
{"type":"Feature","geometry":{"type":"Polygon","coordinates":[[[75.44,11.75],[76.7,8.71],[77.9,8.26],[79.83,10.36],[80.46,15.77],[78.2,14.81],[75.44,11.75]]]},"properties":{"NAME":"Chola state","SUBJECTO":"Chola state","BORDERPRECISION":1}},
{"type":"Feature","geometry":{"type":"Polygon","coordinates":[[[88.29,38.96],[88.09,38.15],[79.83,35.5],[79.81,33.06],[80.67,29.68],[82.04,30.19],[85.09,27.69],[89.57,27.3],[94.15,27.67],[94.49,26.51],[98.64,27.48],[100.68,28.69],[100.69,31.4],[103.15,33.28],[101.69,36.31],[102.04,37.74],[96.24,38.76],[88.29,38.96]]]},"properties":{"NAME":"Tibet","SUBJECTO":"Tibet","BORDERPRECISION":1}},
{"type":"Feature","geometry":{"type":"Polygon","coordinates":[[[102.04,37.74],[101.69,36.31],[103.15,33.28],[100.69,31.4],[100.68,28.69],[101.22,26.99],[105.19,25.83],[106.59,22.92],[107.42,21.19],[110.08,20.87],[113.72,22.48],[116.34,22.91],[118.81,24.85],[121.36,28.39],[121.61,31.83],[119.02,34.69],[120.14,36.19],[117.51,38.77],[115.7,39.57],[110.5,39.88],[108.97,37.74],[102.04,37.74]]]},"properties":{"NAME":"Song Empire","SUBJECTO":"Song Empire","BORDERPRECISION":1}},
{"type":"Feature","geometry":{"type":"Polygon","coordinates":[[[101.22,26.99],[98.63,25.2],[99.48,21.66],[103.79,20.22],[106.59,22.92],[105.19,25.83],[101.22,26.99]]]},"properties":{"NAME":"Nan Chao","SUBJECTO":"Nan Chao","BORDERPRECISION":1}},
{"type":"Feature","geometry":{"type":"Polygon","coordinates":[[[106.59,22.92],[103.79,20.22],[103.06,18],[106.45,16.19],[107.38,16.69],[105.53,18.84],[107.42,21.19],[106.59,22.92]]]},"properties":{"NAME":"Đại Việt","SUBJECTO":"Đại Việt","BORDERPRECISION":1}},
{"type":"Feature","geometry":{"type":"Polygon","coordinates":[[[106.45,16.19],[107.9,12.57],[106.77,10.64],[109.07,11.64],[108.79,15.09],[107.38,16.69],[106.45,16.19]]]},"properties":{"NAME":"Champa City States","SUBJECTO":"Champa City States","BORDERPRECISION":1}},
{"type":"Feature","geometry":{"type":"Polygon","coordinates":[[[97.42,16.48],[97.53,18.88],[96.7,19.12],[94.24,18.59],[94.14,16.22],[97.42,16.48]]]},"properties":{"NAME":"Mon state","SUBJECTO":"Mon state","BORDERPRECISION":1}},
{"type":"Feature","geometry":{"type":"Polygon","coordinates":[[[99.48,21.66],[97.53,18.88],[97.42,16.48],[97.99,14.21],[101.61,15.57],[103.06,18],[103.79,20.22],[99.48,21.66]]]},"properties":{"NAME":"Harapunchai","SUBJECTO":"Harapunchai","BORDERPRECISION":1}},
{"type":"Feature","geometry":{"type":"Polygon","coordinates":[[[96.7,19.12],[96.48,21.76],[94.3,22.3],[93.97,19.19],[94.24,18.59],[96.7,19.12]]]},"properties":{"NAME":"Pyu state","SUBJECTO":"Pyu state","BORDERPRECISION":1}},
{"type":"Feature","geometry":{"type":"Polygon","coordinates":[[[140.87,-2.79],[137.85,-1.61],[135.25,-3.54],[133.91,-1.01],[131.21,-1.02],[134.04,-3.95],[137.82,-5.43],[140.95,-9.27],[142.61,-9.38],[144.38,-7.76],[148.59,-9.16],[147.38,-6.12],[143.45,-3.61],[140.87,-2.79]]]},"properties":{"NAME":"Papuans","SUBJECTO":"Papuans","BORDERPRECISION":1}},
{"type":"Feature","geometry":{"type":"Polygon","coordinates":[[[110.5,39.88],[115.7,39.57],[117.51,38.77],[121.01,40.85],[124.11,39.88],[129.82,41.86],[131.87,43.29],[133.71,45.41],[131.91,46.53],[127.58,44.42],[123.61,43.99],[113.83,43.25],[108.36,41.51],[110.5,39.88]]]},"properties":{"NAME":"Liao","SUBJECTO":"Liao","BORDERPRECISION":1}},
{"type":"Feature","geometry":{"type":"Polygon","coordinates":[[[99.86,2.9],[98.15,4.07],[97.6,2.25],[99.86,2.9]]]},"properties":{"NAME":"minor Hindu and Buddhist states","SUBJECTO":"minor Hindu and Buddhist states","BORDERPRECISION":1}},
{"type":"Feature","geometry":{"type":"Polygon","coordinates":[[[42.76,16.65],[43.84,12.66],[48.88,14.17],[47.06,15.75],[45.24,17.69],[42.76,16.65]]]},"properties":{"NAME":"Yemen","SUBJECTO":"Yemen","BORDERPRECISION":1}},
{"type":"Feature","geometry":{"type":"Polygon","coordinates":[[[48.88,14.17],[55.19,17.15],[57.19,18.94],[53.94,19.15],[50.51,17.15],[47.06,15.75],[48.88,14.17]]]},"properties":{"NAME":"Hadramaut","SUBJECTO":"Hadramaut","BORDERPRECISION":1}},
{"type":"Feature","geometry":{"type":"Polygon","coordinates":[[[59.84,22.28],[54.77,24.73],[57.72,22.19],[59.84,22.28]]]},"properties":{"NAME":"Muscat","SUBJECTO":"Muscat","BORDERPRECISION":1}},
{"type":"Feature","geometry":{"type":"Polygon","coordinates":[[[68.07,23.68],[71.16,28.88],[71.32,31.29],[71.4,32.53],[65.02,28.32],[63.6,28.07],[64.06,25.4],[66.62,25.32],[68.07,23.68]]]},"properties":{"NAME":"Kwarizm-Shah","SUBJECTO":"Kwarizm-Shah","BORDERPRECISION":1}},
{"type":"Feature","geometry":{"type":"Polygon","coordinates":[[[71.4,32.53],[72.21,33.37],[69.33,35.69],[66.53,38.12],[63.12,39.81],[55.49,39.34],[54.87,36.81],[56.54,35.94],[61.93,29.75],[63.6,28.07],[65.02,28.32],[71.4,32.53]]]},"properties":{"NAME":"Ghaznavid Emirate","SUBJECTO":"Ghaznavid Emirate","BORDERPRECISION":1}},
{"type":"Feature","geometry":{"type":"Polygon","coordinates":[[[41.68,41.79],[43.33,40.95],[45.43,41.46],[41.12,43.02],[41.68,41.79]]]},"properties":{"NAME":"Georgia","SUBJECTO":"Georgia","BORDERPRECISION":1}},
{"type":"Feature","geometry":{"type":"Polygon","coordinates":[[[43.33,40.95],[41.01,38.34],[44.84,36.78],[46.82,37.67],[46.15,39.69],[45.43,41.46],[43.33,40.95]]]},"properties":{"NAME":"Armenia","SUBJECTO":"Armenia","BORDERPRECISION":1}},
{"type":"Feature","geometry":{"type":"Polygon","coordinates":[[[51.59,24],[48.86,27.52],[47.91,29.89],[50.13,30.07],[51.35,28.04],[54.65,26.39],[61.34,25.03],[64.06,25.4],[63.6,28.07],[61.93,29.75],[56.54,35.94],[54.87,36.81],[54.07,36.94],[51.8,36.43],[48.84,37.51],[49.81,40.58],[48.22,42.28],[46.15,39.69],[46.82,37.67],[44.84,36.78],[41.01,38.34],[37.59,37.16],[37.03,35.75],[38.37,35.14],[40.03,34.39],[44.08,30.34],[48.62,25.69],[51.59,24]]]},"properties":{"NAME":"Buwayhid Emirates","SUBJECTO":"Buwayhid Emirates","BORDERPRECISION":1}},
{"type":"Feature","geometry":{"type":"MultiPolygon","coordinates":[[[[41.68,41.79],[40.36,40.96],[33.56,41.98],[26.13,39.88],[27.16,37.36],[30.47,36.19],[35.71,36.21],[35.85,34.49],[37.03,35.75],[37.59,37.16],[41.01,38.34],[43.33,40.95],[41.68,41.79]]],[[[27.49,42.4],[23.27,42.05],[22.49,40.5],[27.47,40.96],[27.49,42.4]]]]},"properties":{"NAME":"Byzantine Empire","SUBJECTO":"Byzantine Empire","BORDERPRECISION":1}},
{"type":"Feature","geometry":{"type":"Polygon","coordinates":[[[15.45,41.86],[14.74,42.05],[13.57,41.86],[13.6,41.8],[13.5,41.3],[15.67,40.09],[15.45,41.86]]]},"properties":{"NAME":"Dutchy of Benevento","SUBJECTO":"Dutchy of Benevento","BORDERPRECISION":1}},
{"type":"Feature","geometry":{"type":"Polygon","coordinates":[[[38.37,35.14],[37.03,35.75],[35.85,34.49],[33.56,30.97],[29.25,30.75],[20.37,32.3],[18.92,30.2],[15.84,31.29],[10.02,34.08],[10.13,37.1],[1.58,36.51],[1.24,35.89],[0.46,32.55],[1.44,32.61],[2.45,32.67],[7.89,32.59],[17,28.75],[21.68,28.08],[25.44,28.01],[27.43,27.2],[29.34,24.03],[32.51,23.73],[35.19,24.4],[33.93,26.56],[34.89,28.36],[40.82,19.68],[41.81,21.71],[37.42,27.83],[36.52,31.16],[38.37,35.14]]]},"properties":{"NAME":"Fatimid Caliphate","SUBJECTO":"Fatimid Caliphate","BORDERPRECISION":1}},
{"type":"Feature","geometry":{"type":"Polygon","coordinates":[[[8.34,44.22],[8.41,47.46],[6.25,47.96],[5.84,45.38],[7.4,43.76],[8.34,44.22]]]},"properties":{"NAME":"Burgandy","SUBJECTO":"Burgandy","BORDERPRECISION":1}},
{"type":"Feature","geometry":{"type":"Polygon","coordinates":[[[15.91,45.63],[14.35,45.32],[16.64,43.39],[16.81,44.94],[15.91,45.63]]]},"properties":{"NAME":"Croatia","SUBJECTO":"Croatia","BORDERPRECISION":1}},
{"type":"Feature","geometry":{"type":"Polygon","coordinates":[[[16.81,44.94],[16.64,43.39],[19.61,41.76],[20.09,39.6],[22.7,39.83],[22.49,40.5],[23.27,42.05],[27.49,42.4],[29.58,45.06],[29.36,45.21],[24.23,43.79],[22.66,44.64],[16.81,44.94]]]},"properties":{"NAME":"Bulgar Khanate","SUBJECTO":"Bulgar Khanate","BORDERPRECISION":1}},
{"type":"Feature","geometry":{"type":"Polygon","coordinates":[[[39.21,55.56],[36.62,58.6],[28.59,56.78],[27.69,54.88],[24.17,54.28],[24.45,52.96],[27.42,50.85],[31.65,50.34],[36.66,51.95],[39.21,55.56]]]},"properties":{"NAME":"Other Rus Principalities","SUBJECTO":"Other Rus Principalities","BORDERPRECISION":1}},
{"type":"Feature","geometry":{"type":"Polygon","coordinates":[[[22.88,49.22],[22.51,50.64],[23.48,53.02],[24.17,54.28],[14.13,52.41],[13.06,48.56],[16.48,48.2],[19.38,49.8],[22.88,49.22]]]},"properties":{"NAME":"Poland","SUBJECTO":"Poland","BORDERPRECISION":1}},
{"type":"Feature","geometry":{"type":"Polygon","coordinates":[[[17.1,16.22],[12.88,16.06],[12.64,14.47],[15.82,13.12],[18.77,13.51],[17.1,16.22]]]},"properties":{"NAME":"Kanem","SUBJECTO":"Kanem","BORDERPRECISION":1}},
{"type":"Feature","geometry":{"type":"Polygon","coordinates":[[[29.34,24.03],[29.28,18.85],[30.79,15.5],[33.82,16.78],[35.33,15.42],[37.9,18.56],[37.13,21.23],[35.19,24.4],[32.51,23.73],[29.34,24.03]]]},"properties":{"NAME":"Makkura","SUBJECTO":"Makkura","BORDERPRECISION":1}},
{"type":"Feature","geometry":{"type":"Polygon","coordinates":[[[30.79,15.5],[30.79,11.23],[32.85,10.1],[35.41,11.28],[35.33,15.42],[33.82,16.78],[30.79,15.5]]]},"properties":{"NAME":"Alwa","SUBJECTO":"Alwa","BORDERPRECISION":1}},
{"type":"Feature","geometry":{"type":"Polygon","coordinates":[[[-13.62,14.89],[-14.39,16.52],[-16.11,14.65],[-13.62,14.89]]]},"properties":{"NAME":"Takrur","SUBJECTO":"Takrur","BORDERPRECISION":1}},
{"type":"Feature","geometry":{"type":"Polygon","coordinates":[[[-11.7,17.11],[-11.8,15.76],[-8.88,14.29],[-4.8,15.55],[-5.01,16.7],[-7.83,17.64],[-11.7,17.11]]]},"properties":{"NAME":"Ghana","SUBJECTO":"Ghana","BORDERPRECISION":1}},
{"type":"Feature","geometry":{"type":"Polygon","coordinates":[[[-8.74,13.89],[-9.13,11.91],[-5.09,11.54],[-4.96,13.34],[-8.74,13.89]]]},"properties":{"NAME":"Mali","SUBJECTO":"Mali","BORDERPRECISION":1}},
{"type":"Feature","geometry":{"type":"Polygon","coordinates":[[[-77.99,-10.23],[-77.29,-8.98],[-79.15,-8.09],[-77.99,-10.23]]]},"properties":{"NAME":"Chimú Empire","SUBJECTO":"Chimú Empire","BORDERPRECISION":1}},
{"type":"Feature","geometry":{"type":"Polygon","coordinates":[[[-77.99,-10.23],[-76.24,-14.11],[-71.61,-17.22],[-69.54,-13.82],[-75.58,-10.61],[-77.51,-6.97],[-80.34,-6.53],[-79.15,-8.09],[-77.29,-8.98],[-77.99,-10.23]]]},"properties":{"NAME":"Huari Empire","SUBJECTO":"Huari Empire","BORDERPRECISION":1}},
{"type":"Feature","geometry":{"type":"Polygon","coordinates":[[[-71.61,-17.22],[-70.21,-19.07],[-70.4,-25.25],[-71.68,-30.6],[-71.52,-32.18],[-69.41,-29.64],[-69.28,-29.35],[-68.06,-26.47],[-68.03,-26.03],[-67.82,-22.47],[-67.36,-19.19],[-67.94,-15.43],[-69.54,-13.82],[-71.61,-17.22]]]},"properties":{"NAME":"Tiahuanaco Empire","SUBJECTO":"Tiahuanaco Empire","BORDERPRECISION":1}},
{"type":"Feature","geometry":{"type":"Polygon","coordinates":[[[-88.33,17.16],[-87.2,21.53],[-90,21.16],[-90,19.38],[-92.11,18.52],[-88.33,17.16]]]},"properties":{"NAME":"Maya city-states","SUBJECTO":"Maya city-states","BORDERPRECISION":1}},
{"type":"Feature","geometry":{"type":"Polygon","coordinates":[[[-94.24,18.24],[-96.01,18.93],[-97.71,21.8],[-100.25,22.57],[-100.89,20.74],[-105.29,20.67],[-103.49,18.35],[-97.88,16.05],[-93.59,15.74],[-94.24,18.24]],[[-100.02,21.3],[-97.55,20.58],[-99.3,18.35],[-100.65,18.91],[-100.02,21.3]]]},"properties":{"NAME":"Mesoamerican city-states and chiefdoms","SUBJECTO":"Mesoamerican city-states and chiefdoms","BORDERPRECISION":1}},
{"type":"Feature","geometry":{"type":"Polygon","coordinates":[[[-100.02,21.3],[-100.65,18.91],[-99.3,18.35],[-97.55,20.58],[-100.02,21.3]]]},"properties":{"NAME":"Toltec Empire","SUBJECTO":"Toltec Empire","BORDERPRECISION":1}},
{"type":"Feature","geometry":{"type":"Polygon","coordinates":[[[-7.43,55.06],[-9.89,52.19],[-6.41,52.21],[-7.43,55.06]]]},"properties":{"NAME":"Celtic kingdoms","SUBJECTO":"Celtic kingdoms","BORDERPRECISION":1}},
{"type":"Feature","geometry":{"type":"Polygon","coordinates":[[[-2.89,54.17],[-1.94,55.56],[-4.15,57.83],[-4.12,54.76],[-2.89,54.17]]]},"properties":{"NAME":"Scotland","SUBJECTO":"Scotland","BORDERPRECISION":1}},
{"type":"Feature","geometry":{"type":"MultiPolygon","coordinates":[[[[11.74,57.7],[11.88,57.33],[16.06,56.4],[19.04,59.86],[17.87,62.79],[14.34,62.95],[11.74,57.7]]],[[[22.15,63.14],[21.56,60.51],[27.97,60.5],[22.96,61.39],[22.15,63.14]]]]},"properties":{"NAME":"Sweden","SUBJECTO":"Sweden","BORDERPRECISION":1}},
{"type":"Feature","geometry":{"type":"Polygon","coordinates":[[[11.88,57.33],[13.3,55.3],[16.06,56.4],[11.88,57.33]]]},"properties":{"NAME":"Denmark","SUBJECTO":"Denmark","BORDERPRECISION":1}},
{"type":"Feature","geometry":{"type":"MultiPolygon","coordinates":[[[[16.48,48.2],[13.06,48.56],[14.13,52.41],[11.67,52.35],[10.14,54.34],[8.88,54.23],[4.64,52.76],[3.68,51.32],[6.25,47.96],[8.41,47.46],[8.34,44.22],[11.96,42],[12.7,43.93],[12.18,45.21],[12.14,45.76],[13.37,45.69],[13.8,45.57],[14.17,45.01],[14.35,45.32],[15.91,45.63],[16.48,48.2]]],[[[14.74,42.05],[14,42.61],[13.56,41.87],[13.57,41.86],[14.74,42.05]]]]},"properties":{"NAME":"Holy Roman Empire","SUBJECTO":"Holy Roman Empire","BORDERPRECISION":1}},
{"type":"Feature","geometry":{"type":"Polygon","coordinates":[[[-14.51,28.05],[-13.88,28.2],[-14.15,28.39],[-14.51,28.05]]]},"properties":{"NAME":"Guanches","SUBJECTO":"Guanches","BORDERPRECISION":1}},
{"type":"Feature","geometry":{"type":"Polygon","coordinates":[[[19.33,57.96],[19.1,57.98],[19.14,57.91],[19.33,57.96]]]},"properties":{"NAME":"Sweden","SUBJECTO":"Sweden","BORDERPRECISION":1}},
{"type":"Feature","geometry":{"type":"Polygon","coordinates":[[[-60.94,14.74],[-61.23,14.81],[-61.03,14.47],[-60.94,14.74]]]},"properties":{"NAME":"Arawaks","SUBJECTO":"Arawaks","BORDERPRECISION":1}},
{"type":"Feature","geometry":{"type":"Polygon","coordinates":[[[-58.13,49.5],[-56.08,47.87],[-54.13,48.84],[-56.66,50.06],[-58.13,49.5]]]},"properties":{"NAME":"Boethuk","SUBJECTO":"Boethuk","BORDERPRECISION":1}},
{"type":"Feature","geometry":{"type":"Polygon","coordinates":[[[-155.93,20.28],[-156.03,19.11],[-154.95,19.48],[-155.93,20.28]]]},"properties":{"NAME":"Polynesians","SUBJECTO":"Polynesians","BORDERPRECISION":1}},
{"type":"Feature","geometry":{"type":"Polygon","coordinates":[[[-60.22,53.32],[-62.49,54.51],[-64.36,50.31],[-64.33,50.3],[-60.14,50.41],[-55.66,52.19],[-56.13,53.47],[-59.72,53.43],[-60.12,53.52],[-60.22,53.32]]]},"properties":{"NAME":"Innu","SUBJECTO":"Innu","BORDERPRECISION":1}},
{"type":"Feature","geometry":{"type":"Polygon","coordinates":[[[-0.52,42.76],[-1.91,43.31],[-3.36,43.4],[-2.58,41.36],[-1,41.92],[-0.52,42.76]]]},"properties":{"NAME":"Navarre","SUBJECTO":"Navarre","BORDERPRECISION":1}},
{"type":"Feature","geometry":{"type":"Polygon","coordinates":[[[-3.36,43.4],[-5.09,43.49],[-4.44,40.89],[-2.58,41.36],[-3.36,43.4]]]},"properties":{"NAME":"Castilla","SUBJECTO":"Castilla","BORDERPRECISION":1}},
{"type":"Feature","geometry":{"type":"Polygon","coordinates":[[[142.34,-10.92],[141.71,-15.23],[140.8,-17.56],[139.25,-17.43],[135.39,-14.9],[136.66,-12.62],[133.56,-11.95],[130.46,-12.76],[129.2,-14.99],[126.85,-13.78],[122.74,-16.58],[120.87,-19.68],[116.42,-20.84],[113.63,-22.57],[113.43,-26.57],[115.75,-32.21],[115.05,-34.42],[118.21,-35.09],[119.77,-34.12],[123.62,-33.92],[126.06,-32.43],[131.28,-31.63],[133.84,-32.34],[135.53,-35.05],[137.46,-33.31],[140.01,-37.64],[143.36,-38.97],[149.5,-37.93],[151.36,-33.52],[152.97,-31.42],[153.07,-26.23],[150.75,-22.81],[146.32,-19.08],[145.18,-15.05],[143.74,-14.47],[142.34,-10.92]]]},"properties":{"NAME":"Australian aboriginal hunter-gatherers","SUBJECTO":"Australian aboriginal hunter-gatherers","BORDERPRECISION":1}},
{"type":"Feature","geometry":{"type":"Polygon","coordinates":[[[146.71,-43.72],[148.27,-41.09],[144.78,-40.84],[146.71,-43.72]]]},"properties":{"NAME":"Tasmanian hunter-gatherers","SUBJECTO":"Tasmanian hunter-gatherers","BORDERPRECISION":1}},
{"type":"Feature","geometry":{"type":"Polygon","coordinates":[[[105.4,72.75],[98.46,69.79],[75.86,61.43],[62.81,56.96],[59.09,56.43],[65.85,55.1],[78.36,56.41],[88.85,56.46],[99.49,55.66],[107.96,59.82],[114.02,59.55],[115.39,57.65],[116.96,59.88],[127.81,61.8],[137.18,61.33],[142.36,59.14],[148.42,59.1],[154.32,59.98],[157.1,61.63],[160.64,60.72],[156.78,57.58],[155.47,54.92],[156.7,50.96],[161.5,55.29],[163.39,59.81],[170.34,60.28],[172.44,63.08],[171.77,65.86],[168.14,67.46],[155.89,68.17],[130.87,69.9],[124.54,71.59],[123.5,73.5],[111.76,73.66],[105.4,72.75]]]},"properties":{"NAME":"Paleo-Siberian hunter-gatherers","SUBJECTO":"Paleo-Siberian hunter-gatherers","BORDERPRECISION":1}},
{"type":"Feature","geometry":{"type":"Polygon","coordinates":[[[19.82,69.37],[17.26,64.21],[27.23,63.35],[34.29,65.4],[39.19,66.04],[40.83,67.66],[24.57,70.74],[19.82,69.37]]]},"properties":{"NAME":"Sámi","SUBJECTO":"Sámi","BORDERPRECISION":1}},
{"type":"Feature","geometry":{"type":"Polygon","coordinates":[[[-82.04,22.39],[-81.35,22.15],[-81.36,23.12],[-82.96,23.03],[-84.59,21.92],[-81.66,22.51],[-82.04,22.39]]]},"properties":{"NAME":"Guanahatabeyes","SUBJECTO":"Guanahatabeyes","BORDERPRECISION":1}},
{"type":"Feature","geometry":{"type":"MultiPolygon","coordinates":[[[[-81.36,23.12],[-81.35,22.15],[-78.51,21.31],[-77.1,20.53],[-77.5,20.07],[-74.34,20.32],[-75.76,20.75],[-75.75,21.12],[-81.36,23.12]]],[[[-73.47,19.84],[-72.68,19.39],[-72.3,18.66],[-74.42,18.61],[-71.98,18.26],[-68.48,18.71],[-70.88,19.93],[-73.47,19.84]]],[[[-65.78,18.4],[-67.21,18.44],[-67.16,18.33],[-67.15,17.99],[-65.78,18.4]]]]},"properties":{"NAME":"Taino","SUBJECTO":"Taino","BORDERPRECISION":1}},
{"type":"Feature","geometry":{"type":"MultiPolygon","coordinates":[[[[-43.58,59.94],[-39.69,65.19],[-42.79,65.4],[-44.26,61.87],[-43.58,59.94]]],[[[-49.47,67.03],[-50.54,67.49],[-50.94,67.53],[-53.1,65.87],[-48.92,61.42],[-46.16,60.94],[-49.06,64.79],[-49.47,67.03]]],[[[-62.81,81.16],[-65.48,79.16],[-62.45,76.34],[-62.81,81.16]]],[[[-180,68.92],[-180,65.26],[-178.98,66.05],[-177.51,65.52],[-176.78,65.64],[-175.19,64.85],[-173.72,64.38],[-173.54,64.42],[-173.08,64.38],[-172.81,65.63],[-172.85,65.63],[-173.04,65.81],[-171.2,65.56],[-171.67,65.89],[-170.98,65.68],[-170.45,66.05],[-169.99,66.01],[-172.38,67.01],[-172.83,66.96],[-173.87,67.16],[-174.19,66.29],[-180,68.92]]],[[[-60.12,53.52],[-57.52,54.47],[-61.93,56.27],[-62.51,57.97],[-76.46,56.58],[-79.55,54.69],[-78.74,52.74],[-74.2,52.93],[-71.03,55.2],[-62.59,54.57],[-62.49,54.51],[-60.22,53.32],[-60.12,53.52]]],[[[170.34,60.28],[179.29,62.82],[180,64.95],[180,65.05],[180,65.31],[180,65.38],[180,65.96],[180,66.96],[180,67.96],[180,68.92],[175.61,69.78],[159.44,69.76],[152.13,70.66],[141.29,72.79],[137.63,71.08],[130.78,70.68],[123.5,73.5],[124.54,71.59],[130.87,69.9],[155.89,68.17],[168.14,67.46],[171.77,65.86],[172.44,63.08],[170.34,60.28]]],[[[-119.98,69.38],[-137.73,69.02],[-156.9,71.35],[-164.07,69.06],[-163.74,67.22],[-166.59,64.73],[-160.94,63.98],[-150.13,63.32],[-140.05,62.5],[-132.43,62.5],[-124.94,64.83],[-118.2,62.71],[-111.28,58.55],[-102.14,57.21],[-92.4,56.98],[-94.75,59.95],[-91.42,62.85],[-91.03,63.39],[-89.87,63.58],[-89.86,63.65],[-89.99,64.03],[-87.44,64.57],[-97.36,65.12],[-110.86,65.94],[-120.4,67.95],[-119.98,69.38]]]]},"properties":{"NAME":"Arctic marine mammal hunters","SUBJECTO":"Arctic marine mammal hunters","BORDERPRECISION":1}},
{"type":"Feature","geometry":{"type":"MultiPolygon","coordinates":[[[[-87.44,64.57],[-86.49,67.38],[-89.74,68.53],[-90,68.37],[-101.91,67.71],[-112.5,67.69],[-119.98,69.38],[-120.4,67.95],[-110.86,65.94],[-97.36,65.12],[-87.44,64.57]]],[[[-76.46,56.58],[-69.21,58.75],[-70.03,60.88],[-77.36,62.52],[-78.34,58.55],[-76.46,56.58]]],[[[-110.08,72.56],[-118.99,72.03],[-117.57,69.99],[-113.15,68.6],[-103.86,70.7],[-110.08,72.56]]],[[[-72.73,64.01],[-71.32,63.06],[-64.47,63.74],[-61.21,66.64],[-68.67,68.72],[-71.25,71.35],[-81.53,73.69],[-88.1,73.64],[-87.95,70.38],[-78.71,70.01],[-72.3,67.26],[-75.79,65.2],[-72.73,64.01]]],[[[-87.45,82.14],[-87.27,76.5],[-78.37,78.03],[-62.43,82.63],[-87.45,82.14]]]]},"properties":{"NAME":"Dorset","SUBJECTO":"Dorset","BORDERPRECISION":1}},
{"type":"Feature","geometry":{"type":"Polygon","coordinates":[[[-160.94,63.98],[-163.31,63.04],[-163.97,63.2],[-165.51,61.26],[-165.42,61.26],[-164.3,60.94],[-163.89,61.04],[-163.63,60.6],[-164.53,60.75],[-163.54,59.84],[-162.38,60.16],[-161.12,58.75],[-160.43,59],[-158.86,58.45],[-158.52,59],[-157.99,58.72],[-157.14,58.86],[-159.61,55.89],[-153.45,58.88],[-150.31,61.31],[-149.42,60.86],[-149.91,60.91],[-151.39,59.21],[-149.33,60.03],[-148.49,59.9],[-147.94,61.21],[-145.14,60.45],[-145,60.55],[-141.96,60.04],[-141.59,60.14],[-141.14,59.84],[-140.05,62.5],[-150.13,63.32],[-160.94,63.98]]]},"properties":{"NAME":"Thule","SUBJECTO":"Thule","BORDERPRECISION":1}},
{"type":"Feature","geometry":{"type":"Polygon","coordinates":[[[-140.05,62.5],[-141.14,59.84],[-140.13,59.77],[-139.57,59.9],[-136.36,58.52],[-136.94,58.94],[-136.39,58.84],[-136.15,58.9],[-135.28,58.44],[-135.31,59.35],[-132.03,55.89],[-131.19,56.03],[-130.41,55.02],[-130,55.29],[-129.06,53.74],[-128.81,53.76],[-127.87,52.41],[-125.76,53.13],[-122.49,54.24],[-111.28,58.55],[-118.2,62.71],[-124.94,64.83],[-132.43,62.5],[-140.05,62.5]]]},"properties":{"NAME":"Athabaskan","SUBJECTO":"Athabaskan","BORDERPRECISION":1}},
{"type":"Feature","geometry":{"type":"Polygon","coordinates":[[[-62.49,54.51],[-62.59,54.57],[-71.03,55.2],[-74.2,52.93],[-78.74,52.74],[-82.34,52.98],[-82.2,54.97],[-89.73,56.93],[-90.44,57.14],[-92.4,56.98],[-102.14,57.21],[-111.28,58.55],[-122.49,54.24],[-114.47,52],[-105.19,51.45],[-98.92,50.23],[-95.57,50],[-87.79,49.93],[-81.93,48.9],[-72.32,46.3],[-71.03,46.75],[-66.37,50.31],[-64.33,50.3],[-64.36,50.31],[-62.49,54.51]]]},"properties":{"NAME":"Subarctic forest hunter-gatherers","SUBJECTO":"Subarctic forest hunter-gatherers","BORDERPRECISION":1}},
{"type":"Feature","geometry":{"type":"Polygon","coordinates":[[[-69.28,-29.35],[-67.48,-31.66],[-63.56,-30.04],[-57.35,-29.68],[-52.14,-31.74],[-52.04,-31.56],[-48.85,-28.56],[-49.84,-26.8],[-48.47,-23.75],[-53.12,-14.28],[-60.27,-13.81],[-64.19,-14.69],[-65.91,-18.31],[-67.12,-25.03],[-68.03,-26.03],[-68.06,-26.47],[-69.28,-29.35]]]},"properties":{"NAME":"Savanna hunter-gatherers","SUBJECTO":"Savanna hunter-gatherers","BORDERPRECISION":1}},
{"type":"Feature","geometry":{"type":"Polygon","coordinates":[[[-69.11,-51.35],[-71.17,-51.56],[-72.19,-45.99],[-70.58,-40.58],[-72.07,-40.55],[-72.73,-41.55],[-74.31,-48.75],[-71.87,-53.7],[-69.08,-51.5],[-69.11,-51.35]]]},"properties":{"NAME":"Patagonian shellfish and marine mammal hunters","SUBJECTO":"Patagonian shellfish and marine mammal hunters","BORDERPRECISION":1}},
{"type":"Feature","geometry":{"type":"MultiPolygon","coordinates":[[[[-68.03,-26.03],[-67.12,-25.03],[-65.91,-18.31],[-67.36,-19.19],[-67.82,-22.47],[-68.03,-26.03]]],[[[-71.52,-32.18],[-73.67,-37.5],[-72.73,-41.55],[-72.07,-40.55],[-69.44,-37.16],[-67.48,-31.66],[-69.28,-29.35],[-69.41,-29.64],[-71.52,-32.18]]]]},"properties":{"NAME":"Andean hunter-gatherers","SUBJECTO":"Andean hunter-gatherers","BORDERPRECISION":1}},
{"type":"Feature","geometry":{"type":"Polygon","coordinates":[[[-64.19,-14.69],[-60.27,-13.81],[-53.12,-14.28],[-46.28,-3.55],[-49.07,-4.74],[-56.33,-4.33],[-58.44,-2.29],[-57.97,-0.59],[-55.86,1.7],[-58.56,3.98],[-62.66,4.15],[-66.41,3.04],[-70.16,-5.74],[-69.05,-8.24],[-64.19,-14.69]]]},"properties":{"NAME":"Amazon hunter-gatherers","SUBJECTO":"Amazon hunter-gatherers","BORDERPRECISION":1}},
{"type":"Feature","geometry":{"type":"Polygon","coordinates":[[[-61.7,8.61],[-61.53,9.85],[-67.98,10.54],[-69.75,11.53],[-71.1,9.33],[-70.68,8.56],[-65.97,8.18],[-61.7,8.61]]]},"properties":{"NAME":"Caribbean hunter-gatherers","SUBJECTO":"Caribbean hunter-gatherers","BORDERPRECISION":1}},
{"type":"Feature","geometry":{"type":"Polygon","coordinates":[[[-69.17,-51.15],[-65.78,-47.23],[-64.94,-40.83],[-62.96,-41.14],[-61.36,-39.03],[-57.81,-38.39],[-56.34,-35],[-54.07,-34.65],[-52.14,-31.75],[-52.14,-31.74],[-57.35,-29.68],[-63.56,-30.04],[-67.48,-31.66],[-69.44,-37.16],[-72.07,-40.55],[-70.58,-40.58],[-72.19,-45.99],[-71.17,-51.56],[-69.11,-51.35],[-69.17,-51.15]]]},"properties":{"NAME":"Pampas cultures","SUBJECTO":"Pampas cultures","BORDERPRECISION":1}},
{"type":"Feature","geometry":{"type":"MultiPolygon","coordinates":[[[[-121.17,38.88],[-120.47,43.57],[-120.48,48.96],[-125.76,53.13],[-127.87,52.41],[-124.68,48.39],[-124.14,44.79],[-124.23,44.45],[-124.36,40.33],[-123.65,38.88],[-121.17,38.88]]],[[[-132.08,54.02],[-132.38,53.99],[-132.73,54.07],[-132.35,53.36],[-132.08,54.02]]]]},"properties":{"NAME":"North American Pacifi foraging, hunting and fishing peoples","SUBJECTO":"North American Pacifi foraging, hunting and fishing peoples","BORDERPRECISION":1}},
{"type":"Feature","geometry":{"type":"Polygon","coordinates":[[[-102.57,32.43],[-97.76,28.7],[-96.68,28.25],[-94.12,29.69],[-94.12,31.93],[-97.14,34.47],[-94.12,35.88],[-94.12,39.73],[-94.23,46.72],[-95.57,50],[-98.92,50.23],[-105.19,51.45],[-114.47,52],[-114.13,47.95],[-111.67,41.94],[-109.05,38.88],[-102.57,38.88],[-102.57,32.43]]]},"properties":{"NAME":"Plain bison hunters","SUBJECTO":"Plain bison hunters","BORDERPRECISION":1}},
{"type":"Feature","geometry":{"type":"Polygon","coordinates":[[[-125.76,53.13],[-120.48,48.96],[-120.47,43.57],[-111.67,41.94],[-114.13,47.95],[-114.47,52],[-122.49,54.24],[-125.76,53.13]]]},"properties":{"NAME":"Plateau fichers and hunter gatherers","SUBJECTO":"Plateau fichers and hunter gatherers","BORDERPRECISION":1}},
{"type":"Feature","geometry":{"type":"MultiPolygon","coordinates":[[[[-109.05,38.88],[-111.67,41.94],[-120.47,43.57],[-121.17,38.88],[-109.05,38.88]]],[[[-97.76,28.7],[-102.57,32.43],[-102.57,29.99],[-97.76,28.7]]]]},"properties":{"NAME":"Desert hunter-gatherers","SUBJECTO":"Desert hunter-gatherers","BORDERPRECISION":1}},
{"type":"Feature","geometry":{"type":"Polygon","coordinates":[[[47.64,4.1],[48.08,4.67],[50.78,9.37],[51.18,11.78],[44.28,10.4],[43.1,11.53],[40.19,10.01],[38.61,6.6],[35.58,5.53],[33.02,6.86],[32.85,10.1],[30.79,11.23],[24.07,11.18],[20.67,11.96],[18.63,10.17],[15.66,11.31],[14.58,12.67],[8.27,12.37],[0.52,13.3],[-4.96,13.34],[-5.09,11.54],[-9.13,11.91],[-8.74,13.89],[-13.62,14.89],[-16.11,14.65],[-15.74,11.84],[-15.33,11.93],[-12.26,7.35],[-7.41,4.33],[-5,5.24],[-3.13,5.14],[-2.93,5.27],[-1.6,4.95],[0.54,5.72],[0.8,5.71],[1.76,6.25],[2.06,6.28],[3.95,6.58],[5.36,5.37],[12.6,7.73],[22.22,6.2],[33.93,2.84],[34.41,2.49],[43.41,2.51],[44.28,3.36],[47.64,4.1]]]},"properties":{"NAME":"West African cereal farmers","SUBJECTO":"West African cereal farmers","BORDERPRECISION":1}},
{"type":"Feature","geometry":{"type":"Polygon","coordinates":[[[28.62,-19.95],[12.91,-19.7],[12.52,-19.06],[14.42,-22.27],[15.45,-27.62],[17.43,-30.57],[18.49,-34.4],[18.57,-34.19],[18.97,-34.4],[19.88,-34.99],[20.85,-34.5],[21.35,-34.54],[22.68,-34.1],[23.19,-34.24],[23.5,-34.07],[24.59,-34.36],[25.06,-34.07],[25.52,-34.17],[25.87,-33.89],[26.31,-33.89],[29.09,-32.13],[31.33,-29.51],[32.23,-28.74],[33.35,-25.3],[34.88,-24.72],[34.72,-20.04],[33.4,-20.02],[32.87,-22],[29.34,-23.05],[28.28,-21.47],[28.62,-19.95]]]},"properties":{"NAME":"Khoiasan","SUBJECTO":"Khoiasan","BORDERPRECISION":1}},
{"type":"Feature","geometry":{"type":"Polygon","coordinates":[[[-95.57,50],[-94.23,46.72],[-94.12,39.73],[-94.12,35.88],[-97.14,34.47],[-94.12,31.93],[-94.12,29.69],[-90.78,29.11],[-89.23,30.41],[-83.89,30.05],[-82.43,27.83],[-80.59,28.49],[-81.51,30.73],[-80.58,32.5],[-76.62,34.76],[-73.74,40.98],[-70.3,41.76],[-70.22,43.8],[-67.17,44.71],[-65.71,43.56],[-61.03,45.38],[-64.53,46.27],[-66.03,49.17],[-71.03,46.75],[-72.32,46.3],[-81.93,48.9],[-87.79,49.93],[-95.57,50]],[[-84.63,45.75],[-80.81,45.95],[-81.81,43.32],[-84.63,45.75]],[[-92.26,46.65],[-88.09,49],[-87.27,46.51],[-92.26,46.65]]]},"properties":{"NAME":"Eastern North Amercian hunter-gatherers","SUBJECTO":"Eastern North Amercian hunter-gatherers","BORDERPRECISION":1}},
{"type":"Feature","geometry":{"type":"Polygon","coordinates":[[[-2.01,47.75],[-4.76,48.55],[-4.35,48.39],[-4.39,48.3],[-4.35,48.2],[-4.31,48.1],[-4.39,47.94],[-2.47,47.49],[-2.01,47.75]]]},"properties":{"NAME":"Britany","SUBJECTO":"Britany","BORDERPRECISION":1}},
{"type":"Feature","geometry":{"type":"Polygon","coordinates":[[[33.4,-20.02],[34.72,-20.04],[37.28,-17.71],[39.47,-16.72],[40.85,-14.58],[40.4,-11.23],[38.24,-9.29],[37.73,-4.58],[39.42,-1.38],[43.41,2.51],[34.41,2.49],[33.93,2.84],[22.22,6.2],[12.6,7.73],[5.36,5.37],[6.92,4.34],[7.18,4.53],[7.89,4.45],[8.33,4.84],[9.54,4.04],[9.88,0.08],[9.66,0.08],[8.82,-0.9],[11.77,-4.54],[13.02,-7.61],[13.65,-12.2],[12.3,-14.56],[11.77,-17.6],[12.52,-19.06],[12.91,-19.7],[28.62,-19.95],[28.63,-19.88],[29.69,-18.82],[32.69,-18.64],[33.4,-20.02]]]},"properties":{"NAME":"Bantou","SUBJECTO":"Bantou","BORDERPRECISION":1}},
{"type":"Feature","geometry":{"type":"Polygon","coordinates":[[[-82.43,27.83],[-81.1,25.13],[-80.05,26.55],[-80.59,28.49],[-82.43,27.83]]]},"properties":{"NAME":"Caloosahatchee cultureure","SUBJECTO":"Caloosahatchee cultureure","BORDERPRECISION":1}},
{"type":"Feature","geometry":{"type":"Polygon","coordinates":[[[121.73,25.14],[120.12,23.63],[120.88,22.34],[121.73,25.14]]]},"properties":{"NAME":"Taiwanese Tribes","SUBJECTO":"Taiwanese Tribes","BORDERPRECISION":1}},
{"type":"Feature","geometry":{"type":"Polygon","coordinates":[[[27.45,46.53],[29.36,45.21],[29.58,45.06],[29.68,45.37],[29.54,45.45],[30.83,46.58],[28.64,48.38],[28.61,48.4],[27.42,50.85],[24.45,52.96],[23.48,53.02],[22.51,50.64],[22.88,49.22],[22.95,48.97],[24.13,48.81],[27.45,46.53]]]},"properties":{"NAME":"Principality of Galicia-Volhynia","SUBJECTO":"Principality of Galicia-Volhynia","BORDERPRECISION":1}},
{"type":"Feature","geometry":{"type":"Polygon","coordinates":[[[27.42,50.85],[28.61,48.4],[28.64,48.38],[28.68,48.4],[32.5,48.36],[31.65,50.34],[27.42,50.85]]]},"properties":{"NAME":"Principality of Kyiv","SUBJECTO":"Principality of Kyiv","BORDERPRECISION":1}},
{"type":"Feature","geometry":{"type":"Polygon","coordinates":[[[72.21,33.37],[76.81,33.18],[76.61,35.92],[73.26,37.22],[69.33,35.69],[72.21,33.37]]]},"properties":{"NAME":"Buyiids","SUBJECTO":"Buyiids","BORDERPRECISION":1}},
{"type":"Feature","geometry":{"type":"Polygon","coordinates":[[[36.62,58.6],[36.02,60.61],[41.55,62.56],[39.69,64.49],[34.46,65.06],[31.14,61.52],[28.54,60.51],[26.52,59.42],[28.59,56.78],[36.62,58.6]]]},"properties":{"NAME":"Principality of Novgorod","SUBJECTO":"Principality of Novgorod","BORDERPRECISION":1}},
{"type":"Feature","geometry":{"type":"Polygon","coordinates":[[[105.4,72.75],[113.63,75.27],[103.39,77.56],[99.47,75.97],[90.89,75.6],[90.03,75.56],[87.69,73.9],[72.71,72.77],[62.28,69.71],[39.95,65.58],[39.69,64.49],[41.55,62.56],[46.73,62.61],[47.52,57.71],[55.71,57.2],[59.09,56.43],[62.81,56.96],[75.86,61.43],[98.46,69.79],[105.4,72.75]]]},"properties":{"NAME":"Finno-Ugric taiga hunter-gatherers","SUBJECTO":"Finno-Ugric taiga hunter-gatherers","BORDERPRECISION":1}},
{"type":"Feature","geometry":{"type":"Polygon","coordinates":[[[39.21,55.56],[42.32,55],[42.02,56.78],[47.52,57.71],[46.73,62.61],[41.55,62.56],[36.02,60.61],[36.62,58.6],[39.21,55.56]]]},"properties":{"NAME":"Principality of Vladimir-Suzdal","SUBJECTO":"Principality of Vladimir-Suzdal","BORDERPRECISION":1}},
{"type":"Feature","geometry":{"type":"Polygon","coordinates":[[[45.43,41.46],[46.15,39.69],[48.22,42.28],[46.85,44.45],[50.87,44.63],[53.56,39.84],[57.26,41.65],[57.63,42.07],[59.18,44.43],[61.47,46.46],[62.75,47.45],[65.85,55.1],[59.09,56.43],[55.71,57.2],[54.34,53.4],[50.87,51.55],[44.83,52.12],[42.32,55],[39.21,55.56],[36.66,51.95],[31.65,50.34],[32.5,48.36],[28.68,48.4],[28.64,48.38],[30.83,46.58],[33.64,45.93],[37.42,47.08],[37.47,44.69],[41.12,43.02],[45.43,41.46]]]},"properties":{"NAME":"Cuman Khanates","SUBJECTO":"Cuman Khanates","BORDERPRECISION":1}},
{"type":"Feature","geometry":{"type":"Polygon","coordinates":[[[47.52,57.71],[42.02,56.78],[42.32,55],[44.83,52.12],[50.87,51.55],[54.34,53.4],[55.71,57.2],[47.52,57.71]]]},"properties":{"NAME":"Volga Bulgars","SUBJECTO":"Volga Bulgars","BORDERPRECISION":1}},
{"type":"Feature","geometry":{"type":"Polygon","coordinates":[[[108.36,41.51],[113.83,43.25],[123.61,43.99],[127.58,44.42],[131.91,46.53],[133.71,45.41],[131.87,43.29],[134.14,42.99],[140.08,48.5],[140.85,51.56],[115.39,57.65],[114.02,59.55],[107.96,59.82],[99.49,55.66],[88.85,56.46],[86.91,41.41],[91.35,42.12],[96.24,41.51],[101.43,41.2],[108.36,41.51]]]},"properties":{"NAME":"Mongol Empire","SUBJECTO":"Mongol Empire","BORDERPRECISION":1}},
{"type":"Feature","geometry":{"type":"Polygon","coordinates":[[[124.11,39.88],[126.63,37.59],[126.37,34.79],[129.44,35.48],[129.34,37.26],[127.28,39.22],[129.82,41.86],[124.11,39.88]]]},"properties":{"NAME":"Goryeo","SUBJECTO":"Goryeo","BORDERPRECISION":1}},
{"type":"Feature","geometry":{"type":"Polygon","coordinates":[[[115.39,57.65],[140.85,51.56],[140.1,53.8],[134.99,54.85],[142.36,59.14],[137.18,61.33],[127.81,61.8],[116.96,59.88],[115.39,57.65]]]},"properties":{"NAME":"Tungusic Tribes","SUBJECTO":"Tungusic Tribes","BORDERPRECISION":1}},
{"type":"Feature","geometry":{"type":"Polygon","coordinates":[[[94.49,26.51],[93.72,24.96],[98.63,25.2],[101.22,26.99],[100.68,28.69],[98.64,27.48],[94.49,26.51]]]},"properties":{"NAME":"Kamarupa","SUBJECTO":"Kamarupa","BORDERPRECISION":1}},
{"type":"Feature","geometry":{"type":"Polygon","coordinates":[[[103.06,18],[101.61,15.57],[97.99,14.21],[98.6,12.74],[99.93,13.26],[102.66,12.07],[103.04,10.9],[106.77,10.64],[107.9,12.57],[106.45,16.19],[103.06,18]]]},"properties":{"NAME":"Khmer Empire","SUBJECTO":"Khmer Empire","BORDERPRECISION":1}},
{"type":"Feature","geometry":{"type":"Polygon","coordinates":[[[98.63,25.2],[93.72,24.96],[93.62,24.77],[91.41,22.72],[93.97,19.19],[94.3,22.3],[96.48,21.76],[96.7,19.12],[97.53,18.88],[99.48,21.66],[98.63,25.2]]]},"properties":{"NAME":"Bagan","SUBJECTO":"Bagan","BORDERPRECISION":1}},
{"type":"Feature","geometry":{"type":"Polygon","coordinates":[[[98.6,12.74],[98.18,8.6],[100.21,6.54],[100.75,7.01],[99.07,9.9],[99.93,13.26],[98.6,12.74]]]},"properties":{"NAME":"minor Hindu and Buddhist states","SUBJECTO":"minor Hindu and Buddhist states","BORDERPRECISION":1}},
{"type":"Feature","geometry":{"type":"MultiPolygon","coordinates":[[[[111.33,-1.37],[110.97,1.23],[108.81,0.81],[110.1,-3.08],[111.33,-1.37]]],[[[97.6,2.25],[98.6,1.71],[100.81,-2.34],[104.57,-6.07],[105.94,-3.21],[102.47,0.62],[99.86,2.9],[97.6,2.25]]],[[[100.21,6.54],[101.34,2.78],[103.43,1.38],[103.34,4.81],[100.75,7.01],[100.21,6.54]]]]},"properties":{"NAME":"Srivijaya Empire","SUBJECTO":"Srivijaya Empire","BORDERPRECISION":1}},
{"type":"Feature","geometry":{"type":"MultiPolygon","coordinates":[[[[115.96,-3.2],[116.05,-1.93],[118.52,1.17],[117.07,3.51],[119.04,5.17],[116.6,6.9],[110.97,1.23],[111.33,-1.37],[114.63,-1.66],[115.96,-3.2]]],[[[120.64,0.92],[119.91,0.54],[118.68,-2.9],[122.26,-3.21],[119.87,-0.46],[120.64,0.92]]]]},"properties":{"NAME":"Malays","SUBJECTO":"Malays","BORDERPRECISION":1}},
{"type":"Feature","geometry":{"type":"Polygon","coordinates":[[[-13.62,14.89],[-8.74,13.89],[-4.96,13.34],[0.52,13.3],[0.32,29.66],[-2.62,30.34],[-1.8,32.43],[-9.63,30.41],[-14.37,26.12],[-17.05,21],[-15.98,18.18],[-16.11,14.65],[-14.39,16.52],[-13.62,14.89]],[[-11.7,17.11],[-7.83,17.64],[-5.01,16.7],[-4.8,15.55],[-8.88,14.29],[-11.8,15.76],[-11.7,17.11]]]},"properties":{"NAME":"Berber Tribes","SUBJECTO":"Berber Tribes","BORDERPRECISION":1}},
{"type":"Feature","geometry":{"type":"Polygon","coordinates":[[[35.33,15.42],[35.41,11.28],[32.85,10.1],[33.02,6.86],[35.58,5.53],[38.61,6.6],[40.19,10.01],[43.1,11.53],[42.41,13.18],[39.52,15.46],[37.9,18.56],[35.33,15.42]]]},"properties":{"NAME":"Ifat","SUBJECTO":"Ifat","BORDERPRECISION":1}},
{"type":"Feature","geometry":{"type":"Polygon","coordinates":[[[0.46,32.55],[-1.8,32.43],[-2.62,30.34],[0.32,29.66],[1.95,30.77],[2.45,32.67],[1.44,32.61],[0.46,32.55]]]},"properties":{"NAME":"Ibadites","SUBJECTO":"Ibadites","BORDERPRECISION":1}},
{"type":"Feature","geometry":{"type":"Polygon","coordinates":[[[2.45,32.67],[1.95,30.77],[0.32,29.66],[0.52,13.3],[8.27,12.37],[14.58,12.67],[15.66,11.31],[18.63,10.17],[20.67,11.96],[24.07,11.18],[30.79,11.23],[30.79,15.5],[29.28,18.85],[29.34,24.03],[27.43,27.2],[25.44,28.01],[21.68,28.08],[17,28.75],[7.89,32.59],[2.45,32.67]],[[17.1,16.22],[18.77,13.51],[15.82,13.12],[12.64,14.47],[12.88,16.06],[17.1,16.22]]]},"properties":{"NAME":"Tuareg Nomadic Tribes","SUBJECTO":"Tuareg Nomadic Tribes","BORDERPRECISION":1}},
{"type":"Feature","geometry":{"type":"Polygon","coordinates":[[[14.34,62.95],[17.87,62.79],[17.26,64.21],[19.82,69.37],[19.58,69.18],[14.34,62.95]]]},"properties":{"NAME":"Finno-Ugric taiga hunter-gatherers","SUBJECTO":"Finno-Ugric taiga hunter-gatherers","BORDERPRECISION":1}},
{"type":"Feature","geometry":{"type":"Polygon","coordinates":[[[27.97,60.5],[28.54,60.51],[31.14,61.52],[34.46,65.06],[34.29,65.4],[27.23,63.35],[22.15,63.14],[22.96,61.39],[27.97,60.5]]]},"properties":{"NAME":"Finno-Ugric taiga hunter-gatherers","SUBJECTO":"Finno-Ugric taiga hunter-gatherers","BORDERPRECISION":1}},
{"type":"Feature","geometry":{"type":"Polygon","coordinates":[[[13.57,41.86],[13.56,41.87],[14,42.61],[12.7,43.93],[11.96,42],[13.5,41.3],[13.6,41.8],[13.57,41.86]]]},"properties":{"NAME":"Papal States","SUBJECTO":"Papal States","BORDERPRECISION":1}},
{"type":"Feature","geometry":{"type":"MultiPolygon","coordinates":[[[[1.24,35.89],[-2.04,35.05],[-5.93,35.73],[-9.22,32.58],[-9.63,30.41],[-1.8,32.43],[0.46,32.55],[1.24,35.89]]],[[[-2.58,41.36],[-4.44,40.89],[-6.95,40.61],[-8.83,38.18],[-8.67,37.12],[-2.24,36.73],[0.17,38.74],[1.44,41.18],[-1,41.92],[-2.58,41.36]]]]},"properties":{"NAME":"Almohad Caliphate","SUBJECTO":"Almohad Caliphate","BORDERPRECISION":1}},
{"type":"Feature","geometry":{"type":"Polygon","coordinates":[[[-5.09,43.49],[-7.64,43.72],[-8.84,41.97],[-6.95,40.61],[-4.44,40.89],[-5.09,43.49]]]},"properties":{"NAME":"León","SUBJECTO":"León","BORDERPRECISION":1}},
{"type":"Feature","geometry":{"type":"Polygon","coordinates":[[[-6.95,40.61],[-8.84,41.97],[-8.83,38.18],[-6.95,40.61]]]},"properties":{"NAME":"Portugal","SUBJECTO":"Portugal","BORDERPRECISION":1}},
{"type":"Feature","geometry":null,"properties":{"NAME":"Kingdom of France","SUBJECTO":"France","BORDERPRECISION":1}},
{"type":"Feature","geometry":{"type":"MultiPolygon","coordinates":[[[[-2.75,51.64],[0.19,50.73],[1.69,52.31],[-1.94,55.56],[-2.89,54.17],[-2.91,53.27],[-2.75,51.64]]],[[[-0.52,42.76],[0.5,42.63],[2.61,44.79],[1.15,45.55],[1.05,49.95],[-4.76,48.55],[-2.01,47.75],[-1.08,46.01],[-1.91,43.31],[-0.52,42.76]]]]},"properties":{"NAME":"Angevin Empire","SUBJECTO":"Angevin Empire","BORDERPRECISION":1}},
{"type":"Feature","geometry":{"type":"Polygon","coordinates":[[[5.84,45.38],[2.61,44.79],[0.5,42.63],[3.04,42.87],[7.4,43.76],[5.84,45.38]]]},"properties":{"NAME":"Comté de Toulouse","SUBJECTO":"France","BORDERPRECISION":1}},
{"type":"Feature","geometry":{"type":"Polygon","coordinates":[[[6.25,47.96],[3.68,51.32],[1.05,49.95],[1.15,45.55],[2.61,44.79],[5.84,45.38],[6.25,47.96]]]},"properties":{"NAME":"Kingdom of France","SUBJECTO":"France","BORDERPRECISION":1}},
{"type":"Feature","geometry":{"type":"Polygon","coordinates":[[[-1,41.92],[1.44,41.18],[3.04,42.87],[0.5,42.63],[-0.52,42.76],[-1,41.92]]]},"properties":{"NAME":"Aragón","SUBJECTO":"Aragón","BORDERPRECISION":1}},
{"type":"Feature","geometry":{"type":"Polygon","coordinates":[[[80.67,29.68],[83.08,27.28],[85.09,27.69],[82.04,30.19],[80.67,29.68]]]},"properties":{"NAME":"Nepal","SUBJECTO":"Nepal","BORDERPRECISION":1}},
{"type":"Feature","geometry":{"type":"Polygon","coordinates":[[[86.91,41.41],[88.85,56.46],[78.36,56.41],[65.85,55.1],[62.75,47.45],[61.47,46.46],[59.18,44.43],[57.63,42.07],[57.26,41.65],[53.56,39.84],[54.07,36.94],[54.87,36.81],[55.49,39.34],[63.12,39.81],[66.53,38.12],[69.33,35.69],[73.26,37.22],[76.61,35.92],[76.81,33.18],[79.81,33.06],[79.83,35.5],[88.09,38.15],[88.29,38.96],[86.91,41.41]]]},"properties":{"NAME":"Kara Khitai Khaganate","SUBJECTO":"Kara Khitai Khaganate","BORDERPRECISION":1}},
{"type":"Feature","geometry":{"type":"Polygon","coordinates":[[[89.57,27.3],[93.62,24.77],[93.72,24.96],[94.49,26.51],[94.15,27.67],[89.57,27.3]]]},"properties":{"NAME":"Bhutan","SUBJECTO":"Bhutan","BORDERPRECISION":1}},
{"type":"Feature","geometry":{"type":"Polygon","coordinates":[[[85.09,27.69],[83.08,27.28],[80.67,29.68],[79.81,33.06],[76.81,33.18],[72.21,33.37],[71.4,32.53],[71.32,31.29],[75.48,29.1],[71.91,27.44],[74.97,26.43],[82.22,24.47],[90,22.23],[91.41,22.72],[93.62,24.77],[89.57,27.3],[85.09,27.69]]]},"properties":{"NAME":"Sultanate of Delhi","SUBJECTO":"Sultanate of Delhi","BORDERPRECISION":1}},
{"type":"Feature","geometry":{"type":"Polygon","coordinates":[[[80.46,15.77],[86.12,19.81],[87.64,21.56],[90,22.23],[82.22,24.47],[74.97,26.43],[71.91,27.44],[75.48,29.1],[71.32,31.29],[71.16,28.88],[68.07,23.68],[69.13,21.97],[72.76,20.06],[73.84,15.39],[75.44,11.75],[78.2,14.81],[80.46,15.77]]]},"properties":{"NAME":"Rajput Kingdoms","SUBJECTO":"Rajput Kingdoms","BORDERPRECISION":1}},
{"type":"Feature","geometry":{"type":"Polygon","coordinates":[[[178.18,-18.24],[178.17,-17.34],[177.51,-17.51],[177.33,-18.12],[178.18,-18.24]]]},"properties":{"NAME":"Tuʻi Tonga Empire","SUBJECTO":"Tuʻi Tonga Empire","BORDERPRECISION":1}},
{"type":"Feature","geometry":{"type":"Polygon","coordinates":[[[-109.24,-27.13],[-109.37,-27.06],[-109.43,-27.2],[-109.24,-27.13]]]},"properties":{"NAME":"Polynesians","SUBJECTO":"Polynesians","BORDERPRECISION":1}}
]}