{"type":"FeatureCollection", "features": [
{"type":"Feature","geometry":{"type":"Polygon","coordinates":[[[34.41,20.54],[33.35,23.35],[31.06,22.68],[29.85,20.12],[29.51,17.43],[31.06,13.13],[32.88,12.47],[35.72,13.22],[35.83,14.22],[35.97,15.48],[35.23,18.51],[34.55,20.18],[34.41,20.54]]]},"properties":{"NAME":"Meroe","SUBJECTO":"Meroe","BORDERPRECISION":1}},
{"type":"Feature","geometry":{"type":"Polygon","coordinates":[[[79.64,21.35],[78.68,23.53],[79.46,24.84],[76.06,26.59],[75.36,29.64],[76.05,33.51],[74.75,33.66],[74.14,32.61],[70.29,31.29],[67.39,28.23],[66.43,25.49],[69.13,21.97],[72.12,21.16],[73.03,18.22],[79.64,21.35]]]},"properties":{"NAME":"Saka Kingdom","SUBJECTO":"Saka Kingdom","BORDERPRECISION":1}},
{"type":"Feature","geometry":{"type":"Polygon","coordinates":[[[73.03,18.22],[74.78,13.53],[77.63,12.98],[80.32,13.33],[80.09,15.18],[84.75,19.03],[80.68,19.35],[80.62,21.02],[79.64,21.35],[73.03,18.22]]]},"properties":{"NAME":"Satavahanihara","SUBJECTO":"Satavahanihara","BORDERPRECISION":1}},
{"type":"Feature","geometry":{"type":"Polygon","coordinates":[[[49.71,14.77],[54.76,16.95],[53.2,17.77],[49,17.61],[49.71,14.77]]]},"properties":{"NAME":"Hadramaut","SUBJECTO":"Hadramaut","BORDERPRECISION":1}},
{"type":"Feature","geometry":{"type":"Polygon","coordinates":[[[49,17.61],[45.43,17.77],[43.79,18.66],[40.98,22.4],[39.06,22.57],[42.76,16.65],[43.84,12.66],[49.71,14.77],[49,17.61]]]},"properties":{"NAME":"Himyarite Kingdom","SUBJECTO":"Himyarite Kingdom","BORDERPRECISION":1}},
{"type":"Feature","geometry":{"type":"Polygon","coordinates":[[[79.64,21.35],[80.62,21.02],[83.04,22.75],[83.83,25.89],[86.09,24.93],[86.82,21.19],[91.57,22.54],[92.04,23.12],[93.42,25.02],[93.07,26.85],[89.76,25.98],[86.18,26.41],[82.87,27.9],[79.11,31.04],[77.2,33.28],[76.05,33.51],[75.36,29.64],[76.06,26.59],[79.46,24.84],[78.68,23.53],[79.64,21.35]]]},"properties":{"NAME":"Hindu kingdoms","SUBJECTO":"Hindu kingdoms","BORDERPRECISION":1}},
{"type":"Feature","geometry":{"type":"Polygon","coordinates":[[[109.55,19.91],[108.58,19.19],[109.43,18.1],[110.26,18.63],[109.55,19.91]]]},"properties":{"NAME":"Hainan","SUBJECTO":"Hainan","BORDERPRECISION":1}},
{"type":"Feature","geometry":{"type":"Polygon","coordinates":[[[79.72,8.42],[80.22,6.06],[81.87,7.08],[79.72,8.42]]]},"properties":{"NAME":"Simhala","SUBJECTO":"Simhala","BORDERPRECISION":1}},
{"type":"Feature","geometry":{"type":"Polygon","coordinates":[[[-92.94,18.59],[-93.59,15.74],[-90.11,13.75],[-87.57,15.91],[-88.66,15.73],[-87.2,21.53],[-90.28,21.14],[-90.93,19.38],[-92.94,18.59]]]},"properties":{"NAME":"Maya chiefdoms and states","SUBJECTO":"Maya chiefdoms and states","BORDERPRECISION":1}},
{"type":"Feature","geometry":{"type":"Polygon","coordinates":[[[-57.86,49.99],[-58.65,48.38],[-52.73,47.45],[-54.13,48.84],[-57.86,49.99]]]},"properties":{"NAME":"Paleo-Inuit","SUBJECTO":"Paleo-Inuit","BORDERPRECISION":1}},
{"type":"Feature","geometry":{"type":"Polygon","coordinates":[[[-3.19,51.18],[-4.28,51.19],[-4.54,50.36],[-3.13,50.66],[-3.19,51.18]]]},"properties":{"NAME":"Dumonii","SUBJECTO":"Dumonii","BORDERPRECISION":1}},
{"type":"Feature","geometry":{"type":"Polygon","coordinates":[[[-76.65,-12.84],[-75.99,-12.19],[-78.57,-7.1],[-80.89,-5.9],[-79.06,-8.22],[-76.65,-12.84]]]},"properties":{"NAME":"Moche","SUBJECTO":"Moche","BORDERPRECISION":1}},
{"type":"Feature","geometry":{"type":"Polygon","coordinates":[[[-99.02,16.82],[-96.44,16.22],[-97.06,18.06],[-99.02,16.82]]]},"properties":{"NAME":"Monte Albán","SUBJECTO":"Monte Albán","BORDERPRECISION":1}},
{"type":"Feature","geometry":{"type":"Polygon","coordinates":[[[42.08,13.86],[39.52,15.46],[38.3,13.22],[42.35,13.27],[42.08,13.86]]]},"properties":{"NAME":"Axum","SUBJECTO":"Axum","BORDERPRECISION":1}},
{"type":"Feature","geometry":{"type":"Polygon","coordinates":[[[74.75,33.66],[70.56,34.88],[62.8,34.62],[59.57,27.29],[59.3,25.34],[61.34,25.03],[66.43,25.49],[67.39,28.23],[70.29,31.29],[74.14,32.61],[74.75,33.66]]]},"properties":{"NAME":"Suren Kingdom","SUBJECTO":"Kushan Empire","BORDERPRECISION":1}},
{"type":"Feature","geometry":{"type":"Polygon","coordinates":[[[84.75,19.03],[86.82,21.19],[86.09,24.93],[83.83,25.89],[83.04,22.75],[80.62,21.02],[80.68,19.35],[84.75,19.03]]]},"properties":{"NAME":"Kalinga","SUBJECTO":"Kalinga","BORDERPRECISION":1}},
{"type":"Feature","geometry":{"type":"Polygon","coordinates":[[[74.78,13.53],[76.7,8.71],[77.9,8.26],[79.83,10.36],[80.32,13.33],[77.63,12.98],[74.78,13.53]]]},"properties":{"NAME":"Hindu kingdoms","SUBJECTO":"Hindu kingdoms","BORDERPRECISION":1}},
{"type":"Feature","geometry":{"type":"Polygon","coordinates":[[[-100.75,19.59],[-99.14,18.92],[-99.11,20.59],[-100.49,20.9],[-100.75,19.59]]]},"properties":{"NAME":"Teotihuacán","SUBJECTO":"Teotihuacán","BORDERPRECISION":1}},
{"type":"Feature","geometry":{"type":"Polygon","coordinates":[[[-13.52,29.43],[-14.15,28.39],[-13.88,28.2],[-13.78,28.88],[-13.42,29.09],[-13.52,29.43]]]},"properties":{"NAME":"Guanches","SUBJECTO":"Guanches","BORDERPRECISION":1}},
{"type":"Feature","geometry":{"type":"Polygon","coordinates":[[[18.98,49.87],[17.85,50.44],[16.48,49.58],[16.08,48.43],[15.89,47.87],[17.8,47.1],[18.91,47.44],[19.43,47.6],[18.98,49.87]]]},"properties":{"NAME":"Boihaenum","SUBJECTO":"Boihaenum","BORDERPRECISION":1}},
{"type":"Feature","geometry":{"type":"Polygon","coordinates":[[[25.26,43.82],[25.13,47.7],[22.87,47.27],[22.95,44.65],[25.26,43.82]]]},"properties":{"NAME":"Dacia","SUBJECTO":"Dacia","BORDERPRECISION":1}},
{"type":"Feature","geometry":{"type":"Polygon","coordinates":[[[44.61,38],[45.43,38.04],[48.98,38.87],[49.67,40.24],[47.01,41.39],[41.96,41.81],[41.68,38.51],[44.61,38]]]},"properties":{"NAME":"Armenia","SUBJECTO":"Armenia","BORDERPRECISION":1}},
{"type":"Feature","geometry":{"type":"Polygon","coordinates":[[[33.53,45.05],[34.01,44.49],[35.04,45.37],[33.53,45.05]]]},"properties":{"NAME":"Bosporian Kingdom","SUBJECTO":"Roman Empire","BORDERPRECISION":1}},
{"type":"Feature","geometry":{"type":"Polygon","coordinates":[[[62.8,34.62],[61.86,36],[60.96,37.32],[57.3,38.08],[54.07,36.94],[51.8,36.43],[45.43,38.04],[44.61,38],[41.68,38.51],[41.36,35.7],[43.09,35.39],[43.65,32.48],[48.03,29.97],[50.13,30.07],[51.35,28.04],[54.65,26.39],[59.3,25.34],[59.57,27.29],[62.8,34.62]]]},"properties":{"NAME":"Parthian Empire","SUBJECTO":"Parthian Empire","BORDERPRECISION":1}},
{"type":"Feature","geometry":{"type":"MultiPolygon","coordinates":[[[[33.35,23.35],[35.19,24.4],[32.49,29.79],[32.37,31.06],[29.25,30.75],[23.15,32.14],[21.67,32.82],[20.12,30.96],[19.12,30.2],[15.84,31.29],[10.02,34.08],[11.13,35.24],[10.13,37.1],[1.06,36.46],[-2.04,35.05],[-5.93,35.73],[-8.64,33.12],[7.99,35.5],[9.83,32.92],[14.45,31.16],[18.61,29.41],[22.31,29.96],[28.41,27.74],[31.06,22.68],[33.35,23.35]]],[[[-3.13,50.66],[0.19,50.73],[1.69,52.31],[-1.56,54.93],[-3.17,54.83],[-3.19,51.18],[-3.13,50.66]]],[[[48.13,29.27],[48.03,29.97],[43.65,32.48],[43.09,35.39],[41.36,35.7],[41.68,38.51],[41.96,41.81],[41.68,41.79],[40.36,40.96],[36.38,41.24],[33.56,41.98],[26.13,39.88],[27.16,37.36],[30.47,36.19],[35.71,36.21],[35.87,34.42],[34.29,31.36],[36.82,30.34],[37.57,32.03],[37.89,31.64],[39.34,31.99],[42.86,30.99],[44.47,29.34],[48.13,29.27]]],[[[16.08,48.43],[8.54,49.39],[5.14,52.13],[3.78,51.39],[0.03,49.33],[-3.95,47.9],[-1.08,46.01],[-1.56,43.52],[-7.64,43.72],[-9.55,38.77],[-8.67,37.12],[-2.24,36.73],[0.17,38.74],[0.88,41.02],[3.13,41.86],[4.08,43.49],[6.52,43.15],[8.9,44.44],[12.64,41.53],[15.41,43.93],[19.61,41.76],[19.37,40.26],[21.23,37.9],[23.56,38.35],[22.6,40.4],[28.83,40.91],[27.5,42.52],[29.62,45.41],[25.26,43.82],[22.95,44.65],[18.86,45.58],[18.91,47.44],[17.8,47.1],[15.89,47.87],[16.08,48.43]]]]},"properties":{"NAME":"Roman Empire","SUBJECTO":"Roman Empire","BORDERPRECISION":1}},
{"type":"Feature","geometry":{"type":"Polygon","coordinates":[[[-70.87,47.05],[-66.37,50.31],[-60.14,50.41],[-55.66,52.19],[-56.13,53.47],[-60.17,53.3],[-60.22,53.32],[-65.64,55.26],[-71.03,55.2],[-74.2,52.93],[-78.74,52.74],[-82.34,52.98],[-82.2,54.97],[-92.4,56.98],[-102.14,57.21],[-111.28,58.55],[-118.2,62.71],[-124.94,64.83],[-132.43,62.5],[-139.52,62.42],[-150.13,63.32],[-160.94,63.98],[-165.9,61.27],[-162,58.83],[-158.29,58.73],[-149.33,60.03],[-139.57,59.9],[-134.12,58.24],[-129.85,55],[-128.59,55.06],[-125.7,55.19],[-114.47,52],[-105.19,51.45],[-97.2,50.11],[-101.05,54.62],[-97.09,55.07],[-96.2,52.38],[-93.99,50.64],[-90.71,50.27],[-91.08,49.95],[-87.79,49.93],[-76.06,47.31],[-74.19,47.97],[-70.87,47.05]]]},"properties":{"NAME":"Subarctic forest hunter-gatherers","SUBJECTO":"Subarctic forest hunter-gatherers","BORDERPRECISION":1}},
{"type":"Feature","geometry":{"type":"Polygon","coordinates":[[[98.29,41.5],[100.84,40.37],[101.36,40.64],[105.64,39.59],[106.36,42.04],[98.71,42.82],[98.29,41.5]]]},"properties":{"NAME":"Southern Xiongnu","SUBJECTO":"S. Xiongnu","BORDERPRECISION":1}},
{"type":"Feature","geometry":{"type":"Polygon","coordinates":[[[73.93,45.37],[73.66,47.77],[71.5,46.69],[71.42,44.61],[73.93,45.37]]]},"properties":{"NAME":"Yueban","SUBJECTO":"Yueban","BORDERPRECISION":1}},
{"type":"Feature","geometry":{"type":"Polygon","coordinates":[[[142.34,-10.92],[141.71,-15.23],[140.8,-17.56],[139.25,-17.43],[135.39,-14.9],[136.66,-12.62],[133.56,-11.95],[130.46,-12.76],[129.2,-14.99],[126.85,-13.78],[122.74,-16.58],[120.87,-19.68],[116.42,-20.84],[113.63,-22.57],[113.43,-26.57],[115.75,-32.21],[115.05,-34.42],[118.21,-35.09],[119.77,-34.12],[123.62,-33.92],[126.06,-32.43],[131.28,-31.63],[133.84,-32.34],[135.53,-35.05],[137.46,-33.31],[139.37,-35.61],[140.01,-37.64],[143.36,-38.97],[149.5,-37.93],[151.36,-33.52],[152.97,-31.42],[153.49,-28.84],[153.07,-26.23],[150.75,-22.81],[146.32,-19.08],[145.18,-15.05],[143.74,-14.47],[142.34,-10.92]]]},"properties":{"NAME":"Australian aboriginal hunter-gatherers","SUBJECTO":"Australian aboriginal hunter-gatherers","BORDERPRECISION":1}},
{"type":"Feature","geometry":{"type":"Polygon","coordinates":[[[146.71,-43.72],[148.27,-41.09],[144.78,-40.84],[146.71,-43.72]]]},"properties":{"NAME":"Tasmanian hunter-gatherers","SUBJECTO":"Tasmanian hunter-gatherers","BORDERPRECISION":1}},
{"type":"Feature","geometry":{"type":"MultiPolygon","coordinates":[[[[146.66,43.7],[146.84,43.87],[146.78,43.86],[146.65,43.71],[146.66,43.7]]],[[[149.45,45.6],[149.69,45.64],[150.2,45.93],[150.35,46.21],[150.07,46.08],[150.04,46.06],[149.96,46.02],[149.86,45.92],[149.67,45.85],[149.47,45.6],[149.45,45.6]]],[[[150.87,46.44],[150.83,46.47],[150.8,46.45],[150.8,46.44],[150.87,46.44]]],[[[152.42,47.3],[152.43,47.38],[152.41,47.37],[152.39,47.35],[152.39,47.33],[152.39,47.32],[152.42,47.3]]],[[[153.22,48.05],[153.14,48.09],[153.21,48.05],[153.22,48.05]]],[[[154.75,49.59],[154.75,49.57],[154.64,49.42],[154.59,49.29],[154.71,49.26],[154.81,49.64],[154.75,49.59]]],[[[154.41,49.73],[154.37,49.82],[154.35,49.77],[154.37,49.75],[154.4,49.73],[154.41,49.73]]],[[[151.78,46.77],[152.01,46.89],[152.05,47.02],[152.02,46.99],[151.86,46.86],[151.85,46.86],[151.83,46.85],[151.71,46.85],[151.71,46.8],[151.76,46.77],[151.78,46.77]]],[[[155.36,50.05],[155.7,50.18],[155.74,50.18],[156.02,50.77],[155.9,50.7],[155.89,50.69],[155.86,50.64],[155.75,50.45],[155.64,50.38],[155.32,50.06],[155.36,50.05]]],[[[155.45,50.88],[155.45,50.87],[155.48,50.83],[155.55,50.81],[155.59,50.8],[155.57,50.93],[155.51,50.93],[155.47,50.92],[155.45,50.88]]],[[[143.97,49.06],[143.07,51.27],[143.14,52.86],[141.84,52.96],[142.02,51.43],[142.11,51.22],[141.89,48.45],[141.98,48.28],[141.91,47.07],[141.9,45.91],[143.3,46.01],[142.61,47.46],[143.97,49.06]]],[[[145.35,44.2],[141.75,44.63],[140.52,43.06],[139.85,42.04],[140.1,41.95],[140.11,41.27],[140.98,41.65],[140.25,42.23],[145.2,43.05],[145.06,43.79],[145.35,44.2]]],[[[146.36,44.42],[146.1,44.49],[146.08,44.46],[145.97,44.29],[145.95,44.27],[145.94,44.27],[145.92,44.26],[145.89,44.25],[145.88,44.24],[145.76,44.12],[145.76,44.11],[145.75,44.08],[145.76,44.07],[145.75,44.06],[145.66,43.99],[145.55,43.93],[145.54,43.65],[145.66,43.9],[145.67,43.9],[146.49,44.43],[146.36,44.42]]],[[[147.31,44.88],[147.14,44.73],[147.16,44.72],[147.16,44.69],[147.14,44.66],[147.11,44.63],[146.94,44.55],[146.84,44.46],[146.83,44.44],[147.74,44.94],[147.75,44.94],[148.62,45.32],[148.66,45.32],[148.68,45.31],[148.56,45.46],[148.4,45.34],[147.9,45.4],[147.87,45.37],[147.86,45.34],[147.89,45.24],[147.89,45.22],[147.86,45.21],[147.76,45.19],[147.75,45.18],[147.69,45.12],[147.66,45.08],[147.61,45.06],[147.6,45.06],[147.5,45.04],[147.49,44.99],[147.48,44.97],[147.31,44.88]]]]},"properties":{"NAME":"Ainu","SUBJECTO":"Ainu","BORDERPRECISION":1}},
{"type":"Feature","geometry":{"type":"Polygon","coordinates":[[[98.29,41.5],[94.73,40.03],[100.84,37.15],[100.23,35.57],[103.55,34.79],[102.67,31.74],[99.75,27.47],[100.41,25.09],[102.38,24.01],[103.23,20.12],[104.38,18.33],[106.39,17.66],[105.53,18.84],[107.9,21.48],[110.08,20.87],[113.72,22.48],[116.34,22.91],[118.81,24.85],[121.36,28.39],[121.61,31.83],[119.02,34.69],[120.14,36.19],[117.59,38.28],[121.01,40.85],[125.3,39.36],[126.17,37.71],[125.65,42.65],[120.47,41.68],[113.32,41.6],[106.95,42.38],[106.36,42.04],[105.64,39.59],[101.36,40.64],[100.84,40.37],[98.29,41.5]]]},"properties":{"NAME":"Han","SUBJECTO":"Han","BORDERPRECISION":1}},
{"type":"Feature","geometry":{"type":"Polygon","coordinates":[[[135.06,33.69],[136.73,34.87],[140.32,35.03],[140.87,37.92],[139.2,37.92],[135.16,35.65],[135.06,33.69]]]},"properties":{"NAME":"Yayoi","SUBJECTO":"Yayoi","BORDERPRECISION":1}},
{"type":"Feature","geometry":{"type":"Polygon","coordinates":[[[105.4,72.75],[98.46,69.79],[75.86,61.43],[62.81,56.96],[59.09,56.43],[65.31,55.05],[78.36,56.41],[93.7,56.48],[99.49,55.66],[107.96,59.82],[114.02,59.55],[116.71,54.66],[119.94,51.26],[127.34,49.98],[134.87,52.01],[141.05,52.69],[140.83,52.83],[141.09,52.99],[137.07,53.49],[137.33,53.74],[136.35,53.7],[136.34,53.89],[134.9,54.56],[142.85,59.27],[145.5,59.21],[145.65,58.98],[151.86,59.06],[151.14,58.73],[154.39,59.04],[153.94,59.4],[155.85,60.88],[156.38,61.21],[160.12,61.75],[159.82,60.98],[160.24,60.95],[160.12,60.56],[162.75,61.61],[162.71,61.76],[165.29,62.29],[163.83,61.23],[156.84,57.51],[155.63,54.47],[156.18,52.61],[156.33,52.27],[156.7,50.96],[159.92,53.3],[159.68,53.58],[161.88,54.56],[161.5,55.29],[162.72,56.34],[162.77,55.92],[163.17,56.38],[162.51,57.03],[162.93,57.37],[161.8,57.86],[162.62,58.73],[162.75,58.97],[162.84,59.06],[163.04,59.46],[163.77,59.88],[164.11,60.08],[166.2,60.35],[166.03,59.71],[167.1,60.27],[169.15,60.43],[169.88,59.87],[170.27,60.01],[170.27,60.15],[170.34,60.28],[169.48,61.19],[172.44,63.08],[171.77,65.86],[168.14,67.46],[155.89,68.17],[130.87,69.9],[124.54,71.59],[123.5,73.5],[123.51,73.17],[118.34,73.19],[113.31,73.38],[110.18,73.8],[110.4,73.74],[105.4,72.75]]]},"properties":{"NAME":"Paleo-Siberian hunter-gatherers","SUBJECTO":"Paleo-Siberian hunter-gatherers","BORDERPRECISION":1}},
{"type":"Feature","geometry":{"type":"Polygon","coordinates":[[[25.2,65.27],[34.73,65.78],[32.22,66.99],[39.19,66.04],[41.26,66.94],[40.95,67.33],[33.32,69.07],[32.08,69.82],[28.73,70.14],[30.8,70.31],[27.88,70.43],[28.14,70.83],[26.62,70.39],[26.62,70.8],[25.07,70.14],[25.23,70.56],[20.2,69.32],[20.28,69.58],[17.13,68.42],[16.65,68.05],[15.76,67.68],[14.62,67.25],[14.78,67.22],[13.99,66.69],[13.26,66.39],[13.58,66.19],[12.5,65.38],[11.51,64.52],[11.53,61.9],[15.43,61.87],[21.05,64.22],[20.92,64.71],[21.33,64.89],[21.28,65.21],[25.25,65.42],[25.2,65.27]]]},"properties":{"NAME":"Saami","SUBJECTO":"Saami","BORDERPRECISION":1}},
{"type":"Feature","geometry":{"type":"Polygon","coordinates":[[[105.4,72.75],[105.28,72.75],[112.58,74.89],[113.11,75.49],[106.4,76.43],[107.07,76.77],[104.49,77],[105.47,77.33],[101.39,76.62],[99.83,76.21],[95.98,75.9],[86.98,74.3],[87.69,73.9],[86.12,73.45],[86.33,73.63],[80.83,73.01],[80.98,72.45],[83.56,71.62],[83.5,70.81],[83.66,70.6],[83.04,70.24],[82.05,70.42],[82.88,71.49],[76.61,71.52],[78.61,70.85],[75.28,71.45],[75.67,72.41],[73.27,71.37],[74.25,70.57],[73.91,69.27],[74.32,69.16],[78.01,68.26],[77.69,67.76],[78.54,67.61],[76.95,67.65],[77.11,68.11],[74.67,68.1],[72.21,66.17],[69.08,66.69],[71.35,66.66],[71.4,66.95],[73.39,68.38],[72.53,69.07],[72.77,70.46],[71.8,71.43],[72.84,72.49],[66.77,70.74],[67.4,70.6],[66.88,69.62],[68.11,69.43],[68.26,68.94],[69.11,68.83],[60.99,69],[59.06,68.5],[53.32,68.14],[53.81,68.61],[44.87,67.31],[46.16,67.68],[44.17,68.1],[43.84,67.16],[44.36,66.91],[39.98,65.15],[40.46,64.75],[37,64.41],[38.05,64.13],[34.81,64.46],[34.43,65.11],[34.29,65.4],[34.73,65.78],[25.2,65.27],[25.29,65],[25.35,64.94],[21.2,62.44],[32.52,60.93],[46.11,57.71],[53.98,57.71],[59.09,56.43],[62.81,56.96],[75.86,61.43],[98.46,69.79],[105.4,72.75]]]},"properties":{"NAME":"Finno-Ugric taiga hunter-gatherers","SUBJECTO":"Finno-Ugric taiga hunter-gatherers","BORDERPRECISION":1}},
{"type":"Feature","geometry":{"type":"MultiPolygon","coordinates":[[[[-43.01,59.83],[-43.5,60.48],[-42.78,60.53],[-42.82,60.8],[-43.04,61.29],[-42.31,61.73],[-43.23,62.68],[-41.83,62.69],[-41.9,63.05],[-41.23,63.25],[-41.38,63.52],[-40.77,63.57],[-41.48,64.27],[-40.36,64.43],[-41.06,65.04],[-39.73,65],[-42.79,65.4],[-44.26,61.87],[-43.72,60],[-43.01,59.83]]],[[[-49.47,67.03],[-53.39,67.36],[-52.98,67.31],[-53.4,67],[-52.3,66.91],[-52.86,66.35],[-52.61,66.27],[-52.84,65.65],[-52.08,65.37],[-51.99,65.01],[-51.8,64.23],[-50.02,64.61],[-51.1,63.47],[-50.62,63.43],[-50.47,63.05],[-49.86,62.97],[-50.1,62.36],[-49.12,62.1],[-48.92,61.42],[-47.87,60.94],[-47.63,60.6],[-46.13,61.76],[-49.06,64.79],[-49.47,67.03]]],[[[-63.36,78.24],[-62.81,81.16],[-66.85,80.04],[-64.62,79.95],[-65.48,79.16],[-71.89,77.95],[-66.15,77.55],[-71.06,77.03],[-68.19,76.7],[-67.62,76.02],[-63.36,78.24]]],[[[-71.26,63.57],[-71.62,63.21],[-66.77,61.94],[-68.84,63.65],[-65.02,62.55],[-65.13,62.9],[-64.74,62.93],[-65.26,63.76],[-64.36,63.44],[-65.42,64.27],[-65.33,64.36],[-68.38,66.28],[-67.31,65.93],[-67.76,66.37],[-65.03,65.95],[-64.84,65.38],[-64.28,65.38],[-64.18,65.19],[-62.07,65.94],[-62.66,66.34],[-61.33,66.53],[-63.16,66.93],[-64.61,67.12],[-64.24,67.37],[-66.9,68.1],[-68.78,68.84],[-68.08,68.9],[-68.53,69.25],[-66.83,69.17],[-68.21,69.59],[-67.5,69.8],[-69.7,70.07],[-68.54,70.49],[-70.65,70.76],[-71.88,70.93],[-71.28,71.32],[-75.2,71.57],[-74.31,71.95],[-79.06,71.96],[-79.13,72.17],[-81.03,72.05],[-80.46,72.97],[-84.31,73.2],[-83.88,73.07],[-85.15,72.48],[-84.29,72.26],[-85.2,71.77],[-84.53,71.54],[-85.89,71.12],[-85.29,71.41],[-86.45,72.13],[-86.41,72.32],[-86.86,72.86],[-85.67,73.6],[-89.33,72.17],[-89.44,71.44],[-87.17,71.02],[-89.02,70.68],[-86.37,70.46],[-85.98,70.11],[-81.6,69.96],[-81.14,70.01],[-78.71,70.01],[-80.66,70.75],[-77.7,70.14],[-77.37,69.81],[-75.55,69.22],[-75.98,68.81],[-72.35,67.53],[-74.28,66.06],[-73.42,65.53],[-75.33,65.09],[-77.74,64.39],[-73.16,64.57],[-72.73,64.01],[-71.26,63.57]]],[[[-77.52,80.75],[-81.36,79.91],[-80.73,79.66],[-85.69,79.72],[-81.6,78.75],[-86.63,78.3],[-84.84,78.16],[-84.41,77.63],[-83.05,77.63],[-87.58,77.46],[-87.1,77.28],[-88.59,76.47],[-84.67,76.47],[-84.8,76.87],[-83.09,76.48],[-82.57,76.7],[-77.8,76.73],[-82.1,77.32],[-78.22,77.57],[-78.37,78.03],[-76.29,78.01],[-76.62,78.3],[-74.91,78.82],[-77.3,79.29],[-73.67,79.52],[-74.54,79.89],[-70.42,80.05],[-70.51,80.55],[-65.3,81.46],[-67.85,81.75],[-61.99,82.31],[-70.92,82.93],[-73.23,82.86],[-76.23,82.91],[-75.8,82.68],[-75.99,82.34],[-77.52,80.75]]],[[[-114.04,72.06],[-118.65,71.8],[-115.52,71.42],[-117.76,70.72],[-111.54,70.33],[-116.99,69.74],[-113.54,69.11],[-113.15,68.6],[-101.81,69.14],[-103.27,69.33],[-100.97,69.63],[-105.6,71.04],[-114.04,72.06]]],[[[-178.89,68.64],[-180,65.26],[-178.98,66.05],[-177.51,65.52],[-176.78,65.64],[-175.19,64.85],[-173.54,64.42],[-173.03,64.51],[-173.04,65.81],[-171.73,65.61],[-171.41,65.71],[-171.67,65.89],[-170.61,66.04],[-170.45,66.05],[-169.83,66.02],[-171.96,66.96],[-172.83,66.96],[-173.43,67.03],[-174.19,66.29],[-178.89,68.64]]],[[[-121.65,73.99],[-124.74,74.24],[-124.06,73.87],[-125.14,72.61],[-125.83,72.08],[-121.65,73.99]]],[[[-79.68,75.21],[-91.16,75.97],[-90.09,76.29],[-92.79,76.24],[-92.09,75.81],[-92.17,75.1],[-88.39,74.99],[-88.14,74.57],[-81.47,74.58],[-80.56,74.92],[-79.68,75.21]]],[[[-80.37,63.68],[-81.87,63.99],[-85.2,65.38],[-86.06,64.14],[-86.03,63.68],[-85.43,63.6],[-85.16,63.18],[-80.37,63.68]]],[[[-98.37,71.37],[-98.48,71.8],[-96.35,72.5],[-98.39,73.13],[-97.08,73.67],[-100.91,73.71],[-99.96,73.26],[-101.65,72.37],[-98.37,71.37]]],[[[-90.45,73.86],[-94.99,73.94],[-94.76,73.74],[-95.12,72.52],[-94.54,72.19],[-93.72,72.39],[-94.27,72.85],[-90.45,73.86]]],[[[-95.64,68.76],[-96.15,69.17],[-98.88,68.89],[-95.64,68.76]]],[[[-92.4,56.98],[-94.75,59.95],[-93.42,61.86],[-87.44,64.57],[-86.49,67.38],[-92.96,69.08],[-101.91,67.71],[-105.64,68.35],[-112.5,67.69],[-115.29,68.89],[-127.35,70.38],[-131.67,69.28],[-137.73,69.02],[-156.9,71.35],[-164.07,69.06],[-163.74,67.22],[-166.59,64.73],[-160.94,63.98],[-150.13,63.32],[-139.52,62.42],[-132.43,62.5],[-124.94,64.83],[-118.2,62.71],[-111.28,58.55],[-102.14,57.21],[-92.4,56.98]]],[[[-60.22,53.32],[-57.52,54.47],[-61.93,56.27],[-62.89,58.66],[-69.21,58.75],[-70.03,60.88],[-73.39,62.35],[-77.36,62.52],[-78.34,58.55],[-76.44,56.81],[-79.55,54.69],[-78.74,52.74],[-74.2,52.93],[-71.03,55.2],[-65.64,55.26],[-60.22,53.32]]],[[[170.34,60.28],[172.49,61.26],[177.19,62.67],[177.29,62.49],[179.23,62.64],[178.93,62.77],[178.08,63.43],[178.4,63.66],[178.18,64.01],[177.81,64.05],[177.08,64.3],[175.9,64.55],[175.97,64.9],[177.13,64.93],[177.25,64.86],[177.37,64.76],[177.84,64.58],[179.31,64.79],[180,64.95],[180,65.05],[180,65.31],[180,65.38],[180,65.96],[180,66.96],[180,67.96],[180,68.92],[170.43,69.56],[170.9,69.03],[160.67,69.27],[159.44,69.76],[159.57,70],[148.71,71.63],[144.8,71.59],[145.68,71.93],[144.82,72.14],[141.29,72.79],[139.05,72.16],[139.85,72.24],[138.18,71.36],[130.78,70.68],[126.11,72.28],[128.52,72.95],[123.5,73.5],[124.54,71.59],[130.87,69.9],[155.89,68.17],[168.14,67.46],[171.77,65.86],[172.44,63.08],[169.48,61.19],[170.34,60.28]]]]},"properties":{"NAME":"Arctic marine mammal hunters","SUBJECTO":"Arctic marine mammal hunters","BORDERPRECISION":1}},
{"type":"Feature","geometry":{"type":"Polygon","coordinates":[[[-69.07,-20.07],[-70.15,-20.27],[-70.42,-23.53],[-71.23,-29.52],[-71.42,-32.75],[-73.44,-37.9],[-73.67,-41.48],[-73.46,-41.79],[-72.73,-41.55],[-72.07,-40.55],[-69.44,-37.16],[-67.65,-33.58],[-67.48,-31.66],[-69.32,-29.3],[-68.62,-26.67],[-67.12,-25.03],[-65.91,-18.31],[-69.07,-20.07]]]},"properties":{"NAME":"Andean hunter-gatherers","SUBJECTO":"Andean hunter-gatherers","BORDERPRECISION":1}},
{"type":"Feature","geometry":{"type":"Polygon","coordinates":[[[-52.14,-31.74],[-57.35,-29.68],[-63.56,-30.04],[-67.48,-31.66],[-67.65,-33.58],[-69.44,-37.16],[-72.07,-40.55],[-70.58,-40.58],[-72.19,-45.99],[-71.17,-51.56],[-69.11,-51.35],[-65.78,-47.71],[-67.47,-46.27],[-65.66,-44.94],[-65.63,-44.72],[-64.7,-43.2],[-65.09,-42.78],[-64.17,-42.65],[-64,-42.85],[-63.62,-42.57],[-64.12,-42.38],[-64.99,-42.19],[-64.92,-41.73],[-65.13,-41.24],[-62.26,-40.8],[-62.47,-40.37],[-62.11,-39.69],[-62.35,-39.33],[-57.81,-38.39],[-56.7,-36.94],[-57.37,-36.15],[-57.24,-35.58],[-58.52,-34.59],[-54.07,-34.65],[-52.14,-31.74]]]},"properties":{"NAME":"Pampas cultures","SUBJECTO":"Pampas cultures","BORDERPRECISION":1}},
{"type":"Feature","geometry":{"type":"MultiPolygon","coordinates":[[[[-61.76,16.35],[-61.7,15.95],[-61.55,16.05],[-61.52,16.39],[-61.54,16.29],[-61.74,16.36],[-61.76,16.35]]],[[[-81.66,22.51],[-81.79,22.21],[-78.51,21.31],[-78.16,20.82],[-77.1,20.53],[-77.46,19.87],[-74.28,20.15],[-75.76,20.75],[-81.43,23.14],[-84.35,21.81],[-81.66,22.51]]],[[[-68.46,18.5],[-70.88,19.93],[-73.36,19.66],[-72.68,19.39],[-72.7,18.94],[-72.3,18.66],[-74.36,18.38],[-68.46,18.5]]],[[[-65.81,18.17],[-67.16,18.33],[-66.91,17.94],[-65.81,18.17]]],[[[-61.12,9.17],[-62.3,9.72],[-62.93,10.37],[-62.2,10.62],[-64.88,10.14],[-68.3,10.73],[-69.74,11.66],[-69.78,11.79],[-69.79,11.87],[-69.87,12.01],[-70.2,11.75],[-69.87,11.76],[-69.79,11.69],[-71.46,10.88],[-71.5,10.65],[-71.38,10.41],[-71.09,9.92],[-70.68,8.56],[-65.97,8.18],[-63.07,8.33],[-61.12,9.17]]]]},"properties":{"NAME":"Caribbean hunter-gatherers","SUBJECTO":"Caribbean hunter-gatherers","BORDERPRECISION":1}},
{"type":"Feature","geometry":{"type":"MultiPolygon","coordinates":[[[[-72.84,-52.65],[-73.24,-52.57],[-73.08,-53.03],[-72.84,-52.65]]],[[[-69.06,-54.6],[-70.5,-54.92],[-65.26,-54.82],[-68.71,-53.23],[-68.31,-52.94],[-70.33,-53.47],[-69.44,-53.41],[-70.04,-53.99],[-69.06,-54.6]]],[[[-73.46,-42.26],[-74.17,-42.35],[-74.24,-43.37],[-73.7,-43.39],[-73.83,-42.56],[-73.46,-42.26]]],[[[-69.11,-51.35],[-71.17,-51.56],[-72.19,-45.99],[-70.58,-40.58],[-72.07,-40.55],[-72.73,-41.55],[-72.59,-41.62],[-72.61,-42],[-72.47,-42.03],[-72.53,-43.06],[-72.76,-44.37],[-72.58,-44.44],[-73.14,-45.34],[-73.05,-45.38],[-73.97,-46.71],[-74,-46.49],[-74.43,-46.53],[-74.04,-46.09],[-75.44,-46.63],[-75.02,-46.55],[-74.86,-46.82],[-73.98,-47.03],[-74.38,-47.42],[-74.3,-47.76],[-73.36,-47.97],[-73.96,-49.24],[-73.93,-49.99],[-73.93,-50.51],[-73.53,-50.43],[-74.21,-51.02],[-73.68,-51.23],[-73.78,-51.61],[-73.26,-51.71],[-73.11,-52.1],[-72.45,-52.16],[-72.21,-52.57],[-71.68,-52.64],[-72.75,-53.14],[-71.15,-52.96],[-71.44,-53.88],[-68.46,-52.42],[-69.08,-51.5],[-69.11,-51.35]]]]},"properties":{"NAME":"Patagonian shellfish and marine mammal hunters","SUBJECTO":"Patagonian shellfish and marine mammal hunters","BORDERPRECISION":1}},
{"type":"Feature","geometry":{"type":"Polygon","coordinates":[[[-43.24,-23.03],[-42.98,-22.57],[-43.28,-21.59],[-45.94,-21.75],[-49.49,-24.55],[-49.84,-26.8],[-48.8,-28.48],[-48.59,-27.21],[-48.78,-26.39],[-48.52,-25.88],[-48.72,-25.53],[-44.56,-22.99],[-43.82,-22.96],[-43.24,-23.03]]]},"properties":{"NAME":"Shellfish gatherers","SUBJECTO":"Shellfish gatherers","BORDERPRECISION":1}},
{"type":"Feature","geometry":{"type":"Polygon","coordinates":[[[-65.91,-18.31],[-67.12,-25.03],[-68.62,-26.67],[-69.32,-29.3],[-67.48,-31.66],[-63.56,-30.04],[-57.35,-29.68],[-52.14,-31.74],[-50.61,-30.3],[-51.12,-31.47],[-48.8,-28.48],[-49.84,-26.8],[-49.49,-24.55],[-45.94,-21.75],[-43.28,-21.59],[-42.98,-22.57],[-43.24,-23.03],[-41.96,-22.92],[-39.69,-19.41],[-39.48,-18],[-39.16,-17.74],[-39.13,-14.32],[-38.51,-12.8],[-38.39,-12.98],[-37.19,-10.84],[-35.6,-9.63],[-35.31,-5.75],[-37.89,-4.39],[-39.94,-8.29],[-48.32,-13.92],[-51.54,-14.38],[-60.27,-13.81],[-64.19,-14.69],[-65.91,-18.31]]]},"properties":{"NAME":"Savanna hunter-gatherers","SUBJECTO":"Savanna hunter-gatherers","BORDERPRECISION":1}},
{"type":"Feature","geometry":{"type":"Polygon","coordinates":[[[-64.19,-14.69],[-60.27,-13.81],[-51.54,-14.38],[-48.32,-13.92],[-39.94,-8.29],[-37.89,-4.39],[-40.23,-2.85],[-43.33,-2.43],[-44.58,-3.33],[-49.07,-4.74],[-56.33,-4.33],[-58.44,-2.29],[-57.97,-0.59],[-55.86,1.7],[-58.56,3.98],[-62.66,4.15],[-66.41,3.04],[-70.16,-5.74],[-69.05,-8.24],[-64.19,-14.69]]]},"properties":{"NAME":"Amazon hunter-gatherers","SUBJECTO":"Amazon hunter-gatherers","BORDERPRECISION":1}},
{"type":"Feature","geometry":{"type":"Polygon","coordinates":[[[-95.7,33.56],[-94.28,35.13],[-94.12,36.33],[-95.79,37.17],[-94.12,40.14],[-94.51,47.39],[-95.62,47.72],[-97.2,50.11],[-105.19,51.45],[-114.47,52],[-114.13,47.95],[-111.67,41.94],[-104.52,33.87],[-97.21,28.07],[-94.12,29.69],[-94.12,31.64],[-96.04,32.99],[-96.04,33.01],[-95.46,33.03],[-95.7,33.56]]]},"properties":{"NAME":"Plain bison hunters","SUBJECTO":"Plain bison hunters","BORDERPRECISION":1}},
{"type":"Feature","geometry":{"type":"Polygon","coordinates":[[[-97.82,24.21],[-97.21,28.07],[-104.52,33.87],[-111.67,41.94],[-120.47,43.57],[-121.36,39.69],[-120.13,34.52],[-117.5,33.33],[-115.6,29.69],[-113.05,31.14],[-110.53,27.76],[-107.56,27.76],[-104.22,25.12],[-100.36,23.97],[-97.82,24.21]]]},"properties":{"NAME":"Desert hunter-gatherers","SUBJECTO":"Desert hunter-gatherers","BORDERPRECISION":1}},
{"type":"Feature","geometry":{"type":"Polygon","coordinates":[[[-128.59,55.06],[-120.48,48.96],[-120.47,43.57],[-111.67,41.94],[-114.13,47.95],[-114.47,52],[-125.7,55.19],[-128.59,55.06]]]},"properties":{"NAME":"Plateau fichers and hunter gatherers","SUBJECTO":"Plateau fichers and hunter gatherers","BORDERPRECISION":1}},
{"type":"Feature","geometry":{"type":"MultiPolygon","coordinates":[[[[-125.89,49.38],[-125.78,49.09],[-125,49.17],[-125.1,48.8],[-123.59,48.63],[-125.72,50.41],[-128.34,50.67],[-126.52,49.82],[-126.56,49.57],[-125.89,49.38]]],[[[-132.17,54.85],[-132.69,55.65],[-132.62,55.75],[-133.27,55.83],[-133.02,55.37],[-132.17,54.85]]],[[[-129.85,55],[-130,53.94],[-127.25,50.97],[-124.94,50.6],[-124.79,50.04],[-122.61,48.83],[-124.68,48.39],[-123.99,45.76],[-124.36,40.33],[-121.93,36.34],[-120.13,34.52],[-121.36,39.69],[-120.47,43.57],[-120.48,48.96],[-128.59,55.06],[-129.85,55]]]]},"properties":{"NAME":"North American Pacifi foraging, hunting and fishing peoples","SUBJECTO":"North American Pacifi foraging, hunting and fishing peoples","BORDERPRECISION":1}},
{"type":"Feature","geometry":{"type":"MultiPolygon","coordinates":[[[[47.88,-14.72],[47.24,-15.37],[46.46,-15.86],[44.45,-16.24],[44.39,-18.79],[44.41,-19.27],[44.54,-19.37],[43.66,-23.05],[43.78,-23.27],[43.73,-24.35],[43.98,-24.63],[44.04,-24.99],[47.26,-24.77],[49.9,-16.46],[49.68,-16.05],[50.5,-15.31],[50.25,-14.77],[49.98,-13.3],[47.81,-14.63],[47.88,-14.72]]],[[[44.14,1.15],[40.86,0.32],[40.45,-1.36],[38.77,-2.27],[36.02,1.3],[33.93,2.84],[22.22,6.2],[12.6,7.73],[5.36,5.37],[5.35,5.36],[5.61,4.63],[8.3,4.56],[8.26,4.75],[8.87,4.62],[9.03,4.14],[9.78,3.85],[9.56,1.13],[9.62,1.09],[9.6,0.33],[9.85,0.17],[8.98,-1.1],[9.11,-1.35],[9.47,-1.59],[9.66,-2.42],[10.06,-2.57],[10.52,-3.24],[10.64,-3.45],[11.77,-4.54],[12.67,-6.7],[12.8,-6.86],[13.17,-7.84],[13.39,-8.16],[13.42,-9.99],[13.64,-10.3],[13.65,-12.2],[11.78,-15.87],[12.08,-18.49],[12.52,-19.06],[13.96,-21.69],[14.42,-22.27],[15.66,-27.89],[16.79,-29.14],[17.57,-30.83],[17.9,-31.29],[17.93,-33.1],[18.07,-33.22],[18.35,-34.35],[18.72,-34.22],[18.84,-34.44],[19.28,-34.5],[19.88,-34.99],[22.68,-34.1],[26.66,-33.85],[28.92,-32.3],[32.39,-28.38],[32.3,-28.13],[32.92,-26.52],[32.5,-26.07],[35.5,-24.09],[35.3,-23.83],[35.53,-22.46],[35.23,-22.2],[35.2,-21.95],[34.99,-21.27],[35.03,-21.19],[34.67,-20.52],[37.28,-17.71],[40.57,-15.48],[40.53,-15.18],[40.86,-14.7],[40.6,-14.4],[40.6,-13.53],[40.37,-12.99],[40.39,-11.55],[40.31,-11.34],[40.54,-11.03],[39.39,-8.74],[39.4,-8.31],[39.27,-7.8],[39.56,-7.17],[38.92,-6.34],[39.27,-4.78],[41.65,-1.75],[41.61,-1.59],[43.72,0.8],[44.14,1.15]]]]},"properties":{"NAME":"Khoiasan","SUBJECTO":"Khoiasan","BORDERPRECISION":1}},
{"type":"Feature","geometry":{"type":"Polygon","coordinates":[[[32.88,12.47],[30.6,11.12],[24.07,11.18],[17.75,12.83],[8.27,12.37],[2.35,13.29],[-6.26,13.35],[-13.4,14.92],[-16.87,14.36],[-16.64,13.84],[-16.47,13.72],[-16.57,12.31],[-16.28,12.21],[-16.09,11.97],[-15.1,11.81],[-15.34,11.22],[-15.03,11.16],[-14.97,10.85],[-14.57,10.78],[-14.47,10.33],[-13.68,9.92],[-13.28,9.27],[-13.14,8.72],[-12.93,8.63],[-13.04,8.14],[-12.27,7.63],[-12.05,7.26],[-7.53,4.34],[-5,5.24],[-2.8,5.19],[-2.72,5.04],[-2.03,4.7],[1.56,6.24],[3.95,6.58],[5.1,5.76],[5.15,5.64],[5.38,5.61],[5.45,5.48],[5.36,5.37],[12.6,7.73],[22.22,6.2],[33.93,2.84],[36.02,1.3],[38.77,-2.27],[40.45,-1.36],[40.86,0.32],[44.14,1.15],[44.3,1.29],[46.36,2.67],[48.47,5.2],[49.82,7.7],[49.78,7.85],[51.13,10.71],[51.07,10.99],[51.06,11.24],[47.39,11.16],[44.28,10.4],[42.56,11.57],[43.47,12.1],[42.35,13.27],[38.3,13.22],[39.52,15.46],[42.08,13.86],[39.52,15.46],[35.83,14.22],[35.72,13.22],[32.88,12.47]],[[39.14,9.06],[38.61,6.6],[35.58,5.53],[33.02,6.86],[32.35,9.53],[34.23,11.71],[37.13,11.64],[39.14,9.06]]]},"properties":{"NAME":"West African cereal farmers","SUBJECTO":"West African cereal farmers","BORDERPRECISION":1}},
{"type":"Feature","geometry":{"type":"Polygon","coordinates":[[[34.55,20.18],[37.14,21.13],[37.13,21.23],[35.47,23.72],[35.62,23.84],[35.19,24.4],[33.35,23.35],[34.41,20.54],[34.55,20.18]]]},"properties":{"NAME":"Blemmyes","SUBJECTO":"Blemmyes","BORDERPRECISION":1}},
{"type":"Feature","geometry":{"type":"Polygon","coordinates":[[[-94.12,29.69],[-90.78,29.11],[-89.79,30.69],[-90.66,33.45],[-92.22,33.32],[-93.81,31.94],[-94.12,31.64],[-94.12,29.69]]]},"properties":{"NAME":"Marksville Culture","SUBJECTO":"Marksville Culture","BORDERPRECISION":1}},
{"type":"Feature","geometry":{"type":"MultiPolygon","coordinates":[[[[-96.04,32.99],[-95.46,33.03],[-96.04,33.01],[-96.04,32.99]]],[[[-95.7,33.56],[-95.46,33.03],[-93.81,31.94],[-92.22,33.32],[-94.28,35.13],[-95.7,33.56]]]]},"properties":{"NAME":"Fourche Maline Culture","SUBJECTO":"Fourche Maline Culture","BORDERPRECISION":1}},
{"type":"Feature","geometry":{"type":"Polygon","coordinates":[[[-94.12,31.64],[-93.81,31.94],[-95.46,33.03],[-96.04,32.99],[-94.12,31.64]]]},"properties":{"NAME":"Mill Creek Culture","SUBJECTO":"Mill Creek Culture","BORDERPRECISION":1}},
{"type":"Feature","geometry":{"type":"Polygon","coordinates":[[[-80.9,32.04],[-82.39,34.14],[-85.77,34.16],[-85.77,34.15],[-86.84,32.65],[-87.3,31.3],[-85.3,29.66],[-83.7,29.87],[-81.38,30],[-80.9,32.04]]]},"properties":{"NAME":"Swift Creek Culture","SUBJECTO":"Swift Creek Culture","BORDERPRECISION":1}},
{"type":"Feature","geometry":{"type":"Polygon","coordinates":[[[-88.07,35.11],[-89.79,35.28],[-90.62,34.17],[-88.38,33.19],[-88.07,35.11]]]},"properties":{"NAME":"Miller","SUBJECTO":"Miller","BORDERPRECISION":1}},
{"type":"Feature","geometry":{"type":"MultiPolygon","coordinates":[[[[-97.2,50.11],[-95.62,47.72],[-94.51,47.39],[-91.15,47.37],[-88.16,48.99],[-91.08,49.95],[-90.71,50.27],[-93.99,50.64],[-96.2,52.38],[-97.09,55.07],[-101.05,54.62],[-97.2,50.11]]],[[[-83.49,47.46],[-86.46,48.95],[-84.44,46.82],[-89.09,46.96],[-87.2,45.57],[-86.1,44.76],[-84.18,45.6],[-83.49,47.46]]]]},"properties":{"NAME":"Laurel complex","SUBJECTO":"Laurel complex","BORDERPRECISION":1}},
{"type":"Feature","geometry":{"type":"Polygon","coordinates":[[[-85.77,34.16],[-85.85,34.43],[-88.07,35.11],[-88.38,33.19],[-88.54,32.82],[-86.99,32.82],[-86.84,32.65],[-85.77,34.15],[-85.77,34.16]]]},"properties":{"NAME":"Copena","SUBJECTO":"Copena","BORDERPRECISION":1}},
{"type":"Feature","geometry":{"type":"Polygon","coordinates":[[[-86.84,32.65],[-86.99,32.82],[-88.54,32.82],[-88.03,30.68],[-87.3,31.3],[-86.84,32.65]]]},"properties":{"NAME":"Porter","SUBJECTO":"Porter","BORDERPRECISION":1}},
{"type":"Feature","geometry":{"type":"Polygon","coordinates":[[[-83.74,43.62],[-86.45,44.13],[-87.38,41.63],[-87.35,41.17],[-84.74,41.72],[-83.74,43.62]]]},"properties":{"NAME":"Goodall Focus","SUBJECTO":"Goodall Focus","BORDERPRECISION":1}},
{"type":"Feature","geometry":{"type":"Polygon","coordinates":[[[-79.64,42.85],[-80.52,44.6],[-82.17,43.08],[-81.86,42.26],[-79.64,42.85]]]},"properties":{"NAME":"Saugeen Complex","SUBJECTO":"Saugeen Complex","BORDERPRECISION":1}},
{"type":"Feature","geometry":{"type":"Polygon","coordinates":[[[-84.74,41.72],[-83.66,40.61],[-82.28,40.91],[-81.95,41.51],[-82.77,42.27],[-82.46,43.2],[-83.74,43.62],[-84.74,41.72]]]},"properties":{"NAME":"Couture Complex","SUBJECTO":"Couture Complex","BORDERPRECISION":1}},
{"type":"Feature","geometry":{"type":"Polygon","coordinates":[[[-76.06,47.31],[-80.3,45.95],[-80.29,44.52],[-79.37,43.61],[-76.18,43.61],[-75.59,43.68],[-70.56,45.31],[-70.87,47.05],[-74.19,47.97],[-76.06,47.31]]]},"properties":{"NAME":"Point Peninsula","SUBJECTO":"Point Peninsula","BORDERPRECISION":1}},
{"type":"Feature","geometry":{"type":"Polygon","coordinates":[[[-94.12,36.33],[-93.43,38.34],[-90.81,38.01],[-88.51,36.06],[-85.56,37.55],[-82.14,36.96],[-79.98,37.58],[-78.29,41.02],[-75.59,43.68],[-76.18,43.61],[-78.82,43.31],[-79.19,42.85],[-79.56,42.39],[-82.28,40.91],[-83.66,40.61],[-86.55,39.41],[-87.35,41.17],[-87.38,41.63],[-87.48,41.69],[-87.79,42.83],[-89.32,44.49],[-94.11,42.03],[-94.12,40.14],[-95.79,37.17],[-94.12,36.33]]]},"properties":{"NAME":"Hopewell Culture","SUBJECTO":"Hopewell Culture","BORDERPRECISION":1}},
{"type":"Feature","geometry":{"type":"Polygon","coordinates":[[[-75.56,-12.87],[-76.05,-14.41],[-74.38,-15.82],[-74.22,-15.38],[-73.89,-14.85],[-75.56,-12.87]]]},"properties":{"NAME":"Nazca","SUBJECTO":"Nazca","BORDERPRECISION":1}},
{"type":"Feature","geometry":{"type":"Polygon","coordinates":[[[-82.43,27.83],[-81.1,25.13],[-80.05,26.55],[-80.59,28.49],[-82.43,27.83]]]},"properties":{"NAME":"Glades Culture","SUBJECTO":"Glades Culture","BORDERPRECISION":1}},
{"type":"Feature","geometry":{"type":"Polygon","coordinates":[[[18.97,52.74],[19.4,54.28],[15.47,53.8],[18.97,52.74]]]},"properties":{"NAME":"Pomeranian culture ","SUBJECTO":"Pomeranian culture ","BORDERPRECISION":1}},
{"type":"Feature","geometry":{"type":"Polygon","coordinates":[[[21.16,54.9],[19.82,54.46],[19.91,54.39],[21.48,54.44],[21.16,54.9]]]},"properties":{"NAME":"Sambian-Nothangian culture","SUBJECTO":"Sambian-Nothangian culture","BORDERPRECISION":1}},
{"type":"Feature","geometry":{"type":"Polygon","coordinates":[[[18.98,49.87],[21.14,49.76],[24.49,51.38],[20.99,52.62],[18.97,52.74],[15.47,53.8],[17.85,50.44],[18.98,49.87]]]},"properties":{"NAME":"Bell-shaped burials culture","SUBJECTO":"Bell-shaped burials culture","BORDERPRECISION":1}},
{"type":"Feature","geometry":{"type":"Polygon","coordinates":[[[18.97,52.74],[20.99,52.62],[21.48,54.44],[19.91,54.39],[19.82,54.46],[19.4,54.28],[18.97,52.74]]]},"properties":{"NAME":"Western Masurian culture","SUBJECTO":"Western Masurian culture","BORDERPRECISION":1}},
{"type":"Feature","geometry":{"type":"Polygon","coordinates":[[[21.48,54.44],[20.99,52.62],[24.49,51.38],[24.78,51.53],[25.06,51.98],[23.92,54.88],[21.98,54.99],[21.17,54.92],[21.16,54.9],[21.48,54.44]]]},"properties":{"NAME":"Eastern Masurian culture","SUBJECTO":"Eastern Masurian culture","BORDERPRECISION":1}},
{"type":"Feature","geometry":{"type":"Polygon","coordinates":[[[21.98,54.99],[22.32,56.81],[21.86,57.6],[21.17,54.92],[21.98,54.99]]]},"properties":{"NAME":"Curonians","SUBJECTO":"Curonians","BORDERPRECISION":1}},
{"type":"Feature","geometry":{"type":"Polygon","coordinates":[[[25.06,51.98],[29.71,53.3],[29.7,55.66],[25.72,57],[21.86,57.6],[22.32,56.81],[21.98,54.99],[23.92,54.88],[25.06,51.98]]]},"properties":{"NAME":"Brushed Pottery culture","SUBJECTO":"Brushed Pottery culture","BORDERPRECISION":1}},
{"type":"Feature","geometry":{"type":"Polygon","coordinates":[[[24.78,51.53],[30.59,50.16],[31.56,50.9],[29.71,53.3],[25.06,51.98],[24.78,51.53]]]},"properties":{"NAME":"Milograd culture","SUBJECTO":"Milograd culture","BORDERPRECISION":1}},
{"type":"Feature","geometry":{"type":"Polygon","coordinates":[[[29.71,53.3],[31.56,50.9],[34.91,51.48],[38.31,53.65],[38.46,55.93],[33.73,56.73],[29.7,55.66],[29.71,53.3]]]},"properties":{"NAME":"Plain-Pottery culture","SUBJECTO":"Plain-Pottery culture","BORDERPRECISION":1}},
{"type":"Feature","geometry":{"type":"Polygon","coordinates":[[[127.68,37.62],[128.14,35.25],[128.39,35.04],[128.62,38.16],[128.54,38.13],[127.68,37.62]]]},"properties":{"NAME":"Silla","SUBJECTO":"Silla","BORDERPRECISION":1}},
{"type":"Feature","geometry":{"type":"Polygon","coordinates":[[[49.67,40.24],[46.89,44.69],[39.6,46.02],[38.95,44.19],[41.68,41.79],[41.96,41.81],[47.01,41.39],[49.67,40.24]]]},"properties":{"NAME":"Alans","SUBJECTO":"Alans","BORDERPRECISION":1}},
{"type":"Feature","geometry":{"type":"Polygon","coordinates":[[[76.05,33.51],[77.2,33.28],[75.93,39.06],[73.17,41.17],[63.09,40.06],[61.86,36],[62.8,34.62],[70.56,34.88],[74.75,33.66],[76.05,33.51]]]},"properties":{"NAME":"Kushan Empire","SUBJECTO":"Kushan Empire","BORDERPRECISION":1}},
{"type":"Feature","geometry":{"type":"Polygon","coordinates":[[[35.04,45.37],[38.95,44.19],[39.6,46.02],[41.24,47.81],[34.8,47.52],[32.16,46.63],[33.53,45.05],[35.04,45.37]]]},"properties":{"NAME":"Scythians","SUBJECTO":"Scythians","BORDERPRECISION":1}},
{"type":"Feature","geometry":{"type":"Polygon","coordinates":[[[127.68,37.62],[126.79,37.01],[127.83,34.95],[128.14,35.25],[127.68,37.62]]]},"properties":{"NAME":"Paekche","SUBJECTO":"Paekche","BORDERPRECISION":1}},
{"type":"Feature","geometry":{"type":"Polygon","coordinates":[[[128.14,35.25],[127.83,34.95],[128.39,35.04],[128.14,35.25]]]},"properties":{"NAME":"Gaya","SUBJECTO":"Gaya","BORDERPRECISION":1}},
{"type":"Feature","geometry":{"type":"Polygon","coordinates":[[[126.17,37.71],[126.79,37.01],[127.68,37.62],[128.54,38.13],[128.62,38.16],[127.28,39.22],[129.64,41.66],[125.65,42.65],[126.17,37.71]]]},"properties":{"NAME":"Koguryo","SUBJECTO":"Koguryo","BORDERPRECISION":1}},
{"type":"Feature","geometry":{"type":"Polygon","coordinates":[[[91.57,22.54],[91.65,22.36],[91.85,21.91],[92.07,21.12],[92.92,20.37],[93.11,20.59],[92.9,21.61],[92.04,23.12],[91.57,22.54]]]},"properties":{"NAME":"Arakan","SUBJECTO":"Arakan","BORDERPRECISION":1}},
{"type":"Feature","geometry":{"type":"Polygon","coordinates":[[[38.51,30.88],[37.89,31.64],[37.57,32.03],[36.82,30.34],[34.29,31.36],[32.37,31.06],[32.49,29.79],[34.06,27.79],[36.14,26.66],[38.51,30.88]]]},"properties":{"NAME":"Nabatean Kingdom","SUBJECTO":"Nabatean Kingdom","BORDERPRECISION":1}}
]}