{"type":"FeatureCollection", "features": [
{"type":"Feature","geometry":{"type":"Polygon","coordinates":[[[109.43,18.1],[110.26,18.63],[110.62,20.02],[108.58,19.19],[109.43,18.1]]]},"properties":{"NAME":"Hainan","SUBJECTO":"Hainan","BORDERPRECISION":1}},
{"type":"Feature","geometry":{"type":"Polygon","coordinates":[[[106.45,16.19],[106.93,11.84],[106.77,10.64],[109.07,11.64],[108.79,15.09],[107.38,16.69],[106.45,16.19]]]},"properties":{"NAME":"Champa","SUBJECTO":"Champa","BORDERPRECISION":1}},
{"type":"Feature","geometry":{"type":"Polygon","coordinates":[[[-71.61,-17.22],[-70.21,-19.07],[-70.4,-25.25],[-68.19,-25.49],[-67.36,-19.19],[-67.94,-15.43],[-69.87,-14.38],[-71.61,-17.22]]]},"properties":{"NAME":"Tiahuanaco Empire","SUBJECTO":"Tiahuanaco Empire","BORDERPRECISION":1}},
{"type":"Feature","geometry":{"type":"Polygon","coordinates":[[[80.56,5.93],[81.87,7.08],[80.66,9.3],[79.67,8.8],[80.56,5.93]]]},"properties":{"NAME":"Simhala","SUBJECTO":"Simhala","BORDERPRECISION":1}},
{"type":"Feature","geometry":{"type":"Polygon","coordinates":[[[-100.49,20.9],[-100.75,19.59],[-99.14,18.92],[-99.11,20.59],[-100.49,20.9]]]},"properties":{"NAME":"Teotihuacàn","SUBJECTO":"Teotihuacàn","BORDERPRECISION":1}},
{"type":"Feature","geometry":{"type":"Polygon","coordinates":[[[-96.21,17.89],[-98.59,17.99],[-99.02,16.82],[-96.44,16.22],[-96.19,17.88],[-96.21,17.89]]]},"properties":{"NAME":"Monte Alb?n","SUBJECTO":"Monte Alb?n","BORDERPRECISION":1}},
{"type":"Feature","geometry":{"type":"Polygon","coordinates":[[[-87.57,15.91],[-87.2,21.53],[-90,21.16],[-90,19.38],[-92.94,18.59],[-93.14,16.98],[-93.59,15.74],[-90,13.75],[-87.57,15.91]]]},"properties":{"NAME":"Maya states","SUBJECTO":"Maya states","BORDERPRECISION":1}},
{"type":"Feature","geometry":{"type":"Polygon","coordinates":[[[-79.49,-7.62],[-79.06,-5.97],[-80.67,-6.35],[-79.49,-7.62]]]},"properties":{"NAME":"Moche","SUBJECTO":"Moche","BORDERPRECISION":1}},
{"type":"Feature","geometry":{"type":"Polygon","coordinates":[[[-96.19,17.88],[-93.14,16.98],[-92.94,18.59],[-96.01,18.93],[-97.53,21.25],[-98.45,19.79],[-96.21,17.89],[-96.19,17.88]]]},"properties":{"NAME":"Veracruz civilization","SUBJECTO":"Veracruz civilization","BORDERPRECISION":1}},
{"type":"Feature","geometry":{"type":"Polygon","coordinates":[[[-69.87,-14.38],[-72.23,-12.24],[-75.58,-10.61],[-76.72,-12.73],[-74.05,-16.04],[-71.61,-17.22],[-69.87,-14.38]]]},"properties":{"NAME":"Huari Empire","SUBJECTO":"Huari Empire","BORDERPRECISION":1}},
{"type":"Feature","geometry":{"type":"Polygon","coordinates":[[[35.32,15.53],[34.52,12.5],[34.87,11.69],[34.87,9.82],[38.65,9.69],[43.1,11.53],[42.41,13.18],[39.52,15.46],[38.76,17.8],[35.32,15.53]]]},"properties":{"NAME":"Axum","SUBJECTO":"Axum","BORDERPRECISION":1}},
{"type":"Feature","geometry":{"type":"Polygon","coordinates":[[[35.32,15.53],[35.27,16.39],[30.53,15.82],[30.53,14.09],[30.72,13.74],[32.88,12.47],[34.52,12.5],[35.32,15.53]]]},"properties":{"NAME":"Alwa","SUBJECTO":"Alwa","BORDERPRECISION":1}},
{"type":"Feature","geometry":{"type":"Polygon","coordinates":[[[35.27,16.39],[34.53,20.17],[34.42,20.51],[29.85,20.12],[29.66,18.64],[30.53,15.82],[35.27,16.39]]]},"properties":{"NAME":"Makkura","SUBJECTO":"Makkura","BORDERPRECISION":1}},
{"type":"Feature","geometry":{"type":"Polygon","coordinates":[[[34.42,20.51],[33.66,24.02],[30.49,22.95],[30.54,22.75],[29.85,20.12],[34.42,20.51]]]},"properties":{"NAME":"Nobatia","SUBJECTO":"Nobatia","BORDERPRECISION":1}},
{"type":"Feature","geometry":{"type":"Polygon","coordinates":[[[-6.71,34.18],[-9.22,32.58],[-9.63,30.41],[-5.23,31.39],[-6.71,34.18]]]},"properties":{"NAME":"Barghawata","SUBJECTO":"Umayyad Caliphate","BORDERPRECISION":1}},
{"type":"Feature","geometry":{"type":"Polygon","coordinates":[[[-2.61,47.57],[-2.79,48.59],[-3.95,47.9],[-2.61,47.57]]]},"properties":{"NAME":"Broërec","SUBJECTO":"Broërec","BORDERPRECISION":1}},
{"type":"Feature","geometry":{"type":"Polygon","coordinates":[[[15.87,41.5],[14.43,42.33],[13.33,41.31],[14.99,40.37],[15.87,41.5]]]},"properties":{"NAME":"Lombard principalities","SUBJECTO":"Lombard principalities","BORDERPRECISION":1}},
{"type":"Feature","geometry":{"type":"Polygon","coordinates":[[[10.74,42.85],[12.45,47.11],[9,46.96],[8.05,44.02],[10.74,42.85]]]},"properties":{"NAME":"Lombard principalities","SUBJECTO":"Lombard principalities","BORDERPRECISION":1}},
{"type":"Feature","geometry":{"type":"Polygon","coordinates":[[[103.23,20.12],[106.43,24.87],[103.68,26.06],[100.68,24.13],[100.14,23.68],[100.26,20],[103.23,20.12]]]},"properties":{"NAME":"Thai Kingdoms","SUBJECTO":"Thai Kingdoms","BORDERPRECISION":1}},
{"type":"Feature","geometry":{"type":"Polygon","coordinates":[[[100.91,13.45],[98.19,13.66],[98.65,12.24],[99.98,12.84],[100.91,13.45]]]},"properties":{"NAME":"Dvaravati","SUBJECTO":"Dvaravati","BORDERPRECISION":1}},
{"type":"Feature","geometry":{"type":"Polygon","coordinates":[[[106.45,16.19],[104.11,15.51],[104.39,11.98],[106.93,11.84],[106.45,16.19]]]},"properties":{"NAME":"Chen-La","SUBJECTO":"Chen-La","BORDERPRECISION":1}},
{"type":"Feature","geometry":{"type":"Polygon","coordinates":[[[88.33,28.01],[85.65,28.58],[80.74,30.9],[78.34,32.59],[76.92,29.39],[78.54,27.63],[80.46,25.71],[83.98,24.78],[88.34,26.45],[88.33,28.01]]]},"properties":{"NAME":"Kanauj","SUBJECTO":"Kanauj","BORDERPRECISION":1}},
{"type":"Feature","geometry":{"type":"Polygon","coordinates":[[[88.34,26.45],[91.59,25.52],[91.57,22.54],[91.65,22.36],[94.49,26.24],[88.33,28.01],[88.34,26.45]]]},"properties":{"NAME":"Hindu states","SUBJECTO":"Hindu states","BORDERPRECISION":1}},
{"type":"Feature","geometry":{"type":"Polygon","coordinates":[[[69.51,24.25],[67.68,23.82],[71.02,20.66],[72.69,21.68],[76.75,22.31],[77.45,24.61],[75.31,25.51],[71.67,25.11],[69.51,24.25]]]},"properties":{"NAME":"Maitraka Kingdom","SUBJECTO":"Maitraka Kingdom","BORDERPRECISION":1}},
{"type":"Feature","geometry":{"type":"Polygon","coordinates":[[[83.98,24.78],[85.38,19.61],[87.64,21.56],[91.57,22.54],[91.59,25.52],[88.34,26.45],[83.98,24.78]]]},"properties":{"NAME":"Palas","SUBJECTO":"Palas","BORDERPRECISION":1}},
{"type":"Feature","geometry":{"type":"Polygon","coordinates":[[[76.35,12.61],[75.08,14.39],[74.52,14.16],[75.36,11.87],[76.35,12.61]]]},"properties":{"NAME":"Western Gangas","SUBJECTO":"Western Gangas","BORDERPRECISION":1}},
{"type":"Feature","geometry":{"type":"Polygon","coordinates":[[[76.35,12.61],[78.27,11.1],[79.71,11.42],[80.09,14.95],[78.05,17.45],[75.08,14.39],[76.35,12.61]]]},"properties":{"NAME":"Pallavas","SUBJECTO":"Pallavas","BORDERPRECISION":1}},
{"type":"Feature","geometry":{"type":"Polygon","coordinates":[[[107.38,16.69],[105.53,18.84],[107.9,21.48],[110.08,20.87],[116.34,22.91],[118.81,24.85],[121.36,28.39],[121.61,31.83],[119.02,34.69],[120.14,36.19],[117.59,38.28],[122.08,40.49],[124.7,42.31],[119.04,42.31],[118.21,40.83],[110.71,40.89],[104.84,41.23],[101.05,40.08],[96.6,39.71],[96.43,38.45],[99.35,37.59],[101.79,37.67],[100.68,32.85],[99.91,26.91],[100.68,24.13],[103.68,26.06],[106.43,24.87],[103.23,20.12],[106.45,16.19],[107.38,16.69]]]},"properties":{"NAME":"Sui Empire","SUBJECTO":"Sui Empire","BORDERPRECISION":1}},
{"type":"Feature","geometry":{"type":"Polygon","coordinates":[[[122.08,40.49],[125.29,38.69],[127.4,39.08],[131.06,42.75],[132.83,42.86],[129.25,45.19],[124.7,42.31],[122.08,40.49]]]},"properties":{"NAME":"Koguryo","SUBJECTO":"Koguryo","BORDERPRECISION":1}},
{"type":"Feature","geometry":{"type":"Polygon","coordinates":[[[139.48,38.33],[135.16,35.65],[140.32,35.03],[140.87,37.92],[139.48,38.33]]]},"properties":{"NAME":"Yamato","SUBJECTO":"Yamato","BORDERPRECISION":1}},
{"type":"Feature","geometry":{"type":"Polygon","coordinates":[[[112.68,-7.72],[107.54,-7.13],[105.79,-6.29],[106.48,-7.5],[112.41,-8.49],[112.68,-7.72]]]},"properties":{"NAME":"Mataram","SUBJECTO":"Mataram","BORDERPRECISION":1}},
{"type":"Feature","geometry":{"type":"Polygon","coordinates":[[[99.12,7.64],[101.34,2.78],[103.34,4.81],[100.3,7.89],[99.12,7.64]]]},"properties":{"NAME":"minor states under Indian influence","SUBJECTO":"minor states under Indian influence","BORDERPRECISION":1}},
{"type":"Feature","geometry":{"type":"MultiPolygon","coordinates":[[[[112.68,-7.72],[105.79,-6.29],[107.54,-7.13],[112.68,-7.72]]],[[[105.19,-5.54],[105.94,-3.21],[102.7,0.57],[102.72,-1.37],[105.19,-5.54]]],[[[109.78,-1.31],[110.1,-3.08],[114.22,-3.43],[109.78,-1.31]]]]},"properties":{"NAME":"minor states under Indian influence","SUBJECTO":"minor states under Indian influence","BORDERPRECISION":1}},
{"type":"Feature","geometry":{"type":"Polygon","coordinates":[[[57.36,23.86],[57.93,20.4],[59.84,22.28],[57.36,23.86]]]},"properties":{"NAME":"Mazun","SUBJECTO":"Mazun","BORDERPRECISION":1}},
{"type":"Feature","geometry":{"type":"Polygon","coordinates":[[[43.47,19.18],[41.2,18.9],[42.76,16.65],[43.84,12.66],[51.31,15.25],[52.36,16.23],[50.77,16.79],[45.48,16],[43.47,19.18]]]},"properties":{"NAME":"Sasanian dependencies","SUBJECTO":"Sasanian dependencies","BORDERPRECISION":1}},
{"type":"Feature","geometry":{"type":"Polygon","coordinates":[[[36.31,26.42],[39.17,21.22],[41.2,18.9],[43.47,19.18],[38.79,26.58],[36.31,26.42]]]},"properties":{"NAME":"Hejaz","SUBJECTO":"Hejaz","BORDERPRECISION":1}},
{"type":"Feature","geometry":{"type":"Polygon","coordinates":[[[44.67,-16.24],[43.67,-24.23],[45.58,-25.62],[47.26,-24.77],[50.5,-15.31],[49.82,-12.83],[46.92,-15.36],[44.67,-16.24]]]},"properties":{"NAME":"Vazimba","SUBJECTO":"Vazimba","BORDERPRECISION":1}},
{"type":"Feature","geometry":{"type":"Polygon","coordinates":[[[18.21,56.91],[18.71,57.24],[18.81,57.7],[18.11,57.52],[18.21,56.91]]]},"properties":{"NAME":"Guta","SUBJECTO":"Guta","BORDERPRECISION":1}},
{"type":"Feature","geometry":{"type":"Polygon","coordinates":[[[-2.82,51.62],[-3.27,51.18],[-2.96,50.72],[0.19,50.73],[-0.3,53.63],[-2.82,51.62]]]},"properties":{"NAME":"Cantia","SUBJECTO":"Cantia","BORDERPRECISION":1}},
{"type":"Feature","geometry":{"type":"Polygon","coordinates":[[[-3.27,51.18],[-4.28,51.19],[-4.54,50.36],[-2.96,50.72],[-3.27,51.18]]]},"properties":{"NAME":"Dumnonia","SUBJECTO":"Dumnonia","BORDERPRECISION":1}},
{"type":"Feature","geometry":{"type":"Polygon","coordinates":[[[-0.87,43.3],[-1.4,44.2],[-3.81,43.43],[-0.87,43.3]]]},"properties":{"NAME":"Vasconia","SUBJECTO":"Frankish Kingdom","BORDERPRECISION":1}},
{"type":"Feature","geometry":{"type":"Polygon","coordinates":[[[-2.61,47.57],[-2.11,46.84],[-1.2,46.56],[4.89,50.94],[4.2,50.94],[2.52,51.09],[-2.79,48.59],[-2.61,47.57]]]},"properties":{"NAME":"Neustria","SUBJECTO":"Frankish Kingdom","BORDERPRECISION":1}},
{"type":"Feature","geometry":{"type":"Polygon","coordinates":[[[24.85,47.44],[18.38,48.42],[15.71,49.01],[13.95,48.72],[12.72,49.48],[12.87,47.18],[15.41,46.14],[18.63,44.86],[22.95,44.65],[24.85,47.44]]]},"properties":{"NAME":"Avars","SUBJECTO":"Avars","BORDERPRECISION":1}},
{"type":"Feature","geometry":{"type":"Polygon","coordinates":[[[5.77,51.4],[7.62,51.31],[7.51,53.61],[3.98,51.87],[5.77,51.4]]]},"properties":{"NAME":"Frisians","SUBJECTO":"Frisians","BORDERPRECISION":1}},
{"type":"Feature","geometry":{"type":"Polygon","coordinates":[[[12.85,56.48],[13.3,55.3],[14.4,55.97],[12.85,56.48]]]},"properties":{"NAME":"Danes","SUBJECTO":"Danes","BORDERPRECISION":1}},
{"type":"Feature","geometry":{"type":"Polygon","coordinates":[[[8.22,53.49],[8.22,53.34],[8.86,53.87],[8.22,53.53],[8.22,53.49]]]},"properties":{"NAME":"Saxons","SUBJECTO":"Saxons","BORDERPRECISION":1}},
{"type":"Feature","geometry":{"type":"Polygon","coordinates":[[[12.45,47.11],[12.88,47.06],[12.87,47.18],[12.72,49.48],[12.66,49.51],[12.53,49.85],[7.62,51.31],[5.77,51.4],[5.12,50.94],[4.89,50.94],[-1.2,46.56],[-2.11,46.84],[-1.4,44.2],[-0.87,43.3],[1.83,42.53],[3.81,43.47],[8.05,44.02],[9,46.96],[12.45,47.11]]]},"properties":{"NAME":"Frankish Kingdom","SUBJECTO":"Frankish Kingdom","BORDERPRECISION":1}},
{"type":"Feature","geometry":{"type":"Polygon","coordinates":[[[12.87,47.18],[12.88,47.06],[13.61,45.72],[13.79,45.55],[14.35,45.31],[14.54,45.26],[15.41,46.14],[12.87,47.18]]]},"properties":{"NAME":"Slavs","SUBJECTO":"Eastern Roman Empire","BORDERPRECISION":1}},
{"type":"Feature","geometry":{"type":"Polygon","coordinates":[[[-56.13,53.47],[-60.17,53.3],[-60.22,53.32],[-65.64,55.26],[-71.03,55.2],[-74.2,52.93],[-78.74,52.74],[-82.2,54.97],[-92.4,56.98],[-102.14,57.21],[-111.28,58.55],[-118.2,62.71],[-124.94,64.83],[-132.43,62.5],[-139.52,62.42],[-150.13,63.32],[-160.94,63.98],[-165.9,61.27],[-162,58.83],[-158.29,58.73],[-149.33,60.03],[-139.57,59.9],[-134.12,58.24],[-129.85,55],[-128.59,55.06],[-125.7,55.19],[-114.47,52],[-105.19,51.45],[-95.57,50],[-87.79,49.93],[-72.32,46.3],[-71.03,46.75],[-66.37,50.31],[-60.14,50.41],[-55.66,52.19],[-56.13,53.47]]]},"properties":{"NAME":"Subarctic forest hunter-gatherers","SUBJECTO":"Subarctic forest hunter-gatherers","BORDERPRECISION":1}},
{"type":"Feature","geometry":{"type":"Polygon","coordinates":[[[142.34,-10.92],[140.8,-17.56],[139.25,-17.43],[135.39,-14.9],[136.66,-12.62],[133.56,-11.95],[130.46,-12.76],[129.2,-14.99],[126.85,-13.78],[122.74,-16.58],[120.87,-19.68],[116.42,-20.84],[113.63,-22.57],[113.43,-26.57],[115.75,-32.21],[115.05,-34.42],[118.21,-35.09],[119.77,-34.12],[123.62,-33.92],[126.06,-32.43],[131.28,-31.63],[133.84,-32.34],[135.53,-35.05],[137.46,-33.31],[140.01,-37.64],[143.36,-38.97],[149.5,-37.93],[151.36,-33.52],[152.97,-31.42],[153.07,-26.23],[150.75,-22.81],[146.32,-19.08],[145.18,-15.05],[143.74,-14.47],[142.34,-10.92]]]},"properties":{"NAME":"Australian aboriginal hunter-gatherers","SUBJECTO":"Australian aboriginal hunter-gatherers","BORDERPRECISION":1}},
{"type":"Feature","geometry":{"type":"Polygon","coordinates":[[[146.71,-43.72],[148.27,-41.09],[144.78,-40.84],[146.71,-43.72]]]},"properties":{"NAME":"Tasmanian hunter-gatherers","SUBJECTO":"Tasmanian hunter-gatherers","BORDERPRECISION":1}},
{"type":"Feature","geometry":{"type":"Polygon","coordinates":[[[140.01,41.38],[143.21,41.93],[145.06,43.79],[141.88,45.44],[140.01,41.38]]]},"properties":{"NAME":"Ainu","SUBJECTO":"Ainu","BORDERPRECISION":1}},
{"type":"Feature","geometry":{"type":"Polygon","coordinates":[[[105.4,72.75],[98.46,69.79],[75.63,61.35],[62.81,56.96],[59.09,56.43],[65.31,55.05],[78.36,56.41],[93.7,56.48],[99.49,55.66],[107.96,59.82],[114.02,59.55],[115.21,57.39],[116.96,59.88],[127.81,61.8],[137.18,61.33],[142.36,59.14],[148.42,59.1],[154.32,59.98],[157.1,61.63],[160.64,60.72],[155.47,54.92],[156.7,50.96],[161.5,55.29],[163.39,59.81],[170.34,60.28],[172.44,63.08],[171.77,65.86],[168.14,67.46],[155.89,68.17],[130.87,69.9],[124.54,71.59],[123.5,73.5],[123.41,73.48],[105.6,72.74],[105.4,72.75]]]},"properties":{"NAME":"Paleo-Siberian hunter-gatherers","SUBJECTO":"Paleo-Siberian hunter-gatherers","BORDERPRECISION":1}},
{"type":"Feature","geometry":{"type":"Polygon","coordinates":[[[25.2,65.27],[34.73,65.78],[34.73,65.8],[40.83,67.66],[29.73,69.7],[20.16,69.75],[10.16,64.1],[11.53,61.9],[17.94,62.55],[25.25,65.42],[25.2,65.27]]]},"properties":{"NAME":"Saami","SUBJECTO":"Saami","BORDERPRECISION":1}},
{"type":"Feature","geometry":{"type":"Polygon","coordinates":[[[75.63,61.35],[65.23,66.95],[66.08,69.01],[62.28,69.71],[39.95,65.58],[34.73,65.61],[34.73,65.78],[25.2,65.27],[25.19,65.24],[21.23,62.42],[30.25,61.48],[32.78,60.87],[37.17,59.83],[46.11,57.71],[53.98,57.71],[59.09,56.43],[62.81,56.96],[75.63,61.35]],[[34.98,63.56],[34.55,63.46],[34.36,63.7],[34.86,63.72],[34.98,63.56]],[[33.36,63.42],[33.93,63.42],[34.07,63.23],[33.5,63.22],[33.36,63.42]]]},"properties":{"NAME":"Finno-Ugric taiga hunter-gatherers","SUBJECTO":"Finno-Ugric taiga hunter-gatherers","BORDERPRECISION":1}},
{"type":"Feature","geometry":{"type":"MultiPolygon","coordinates":[[[[-43.58,59.94],[-39.69,65.19],[-42.79,65.4],[-43.58,59.94]]],[[[-49.47,67.03],[-50.54,67.49],[-50.94,67.53],[-53.1,65.87],[-48.92,61.42],[-46.16,60.94],[-49.47,67.03]]],[[[-92.4,56.98],[-94.75,59.95],[-93.42,61.86],[-87.44,64.57],[-86.49,67.38],[-92.96,69.08],[-101.91,67.71],[-112.5,67.69],[-127.35,70.38],[-137.73,69.02],[-156.9,71.35],[-164.07,69.06],[-166.59,64.73],[-160.94,63.98],[-150.13,63.32],[-139.52,62.42],[-132.43,62.5],[-124.94,64.83],[-118.2,62.71],[-111.28,58.55],[-102.14,57.21],[-92.4,56.98]]],[[[-60.22,53.32],[-62.89,58.66],[-69.21,58.75],[-70.03,60.88],[-77.36,62.52],[-78.34,58.55],[-76.44,56.81],[-79.55,54.69],[-78.74,52.74],[-74.2,52.93],[-71.03,55.2],[-65.64,55.26],[-60.22,53.32]]],[[[170.34,60.28],[170.52,60.34],[179.29,62.82],[180,64.95],[180,65.05],[180,65.31],[180,65.38],[180,65.96],[180,66.96],[180,67.96],[180,68.92],[175.61,69.78],[159.44,69.76],[152.13,70.66],[141.29,72.79],[137.63,71.08],[126.22,72.38],[124.22,73.7],[123.5,73.5],[124.54,71.59],[130.87,69.9],[155.89,68.17],[168.14,67.46],[171.77,65.86],[172.44,63.08],[170.34,60.28]]],[[[-75.62,69.1],[-72.3,67.26],[-75.79,65.2],[-71.32,63.06],[-64.47,63.74],[-61.21,66.64],[-68.67,68.72],[-71.25,71.35],[-81.53,73.69],[-88.1,73.64],[-87.95,70.38],[-75.62,69.1]]],[[[-117.22,72.86],[-117.57,69.99],[-113.15,68.6],[-104.62,71.09],[-110.35,71.2],[-117.22,72.86]]],[[[-170.47,66.29],[-180,68.92],[-180,67.96],[-180,66.96],[-180,65.96],[-180,65.38],[-180,65.31],[-180,65.26],[-178.12,65.48],[-173.08,64.38],[-170.47,66.29]]]]},"properties":{"NAME":"Arctic marine mammal hunters","SUBJECTO":"Arctic marine mammal hunters","BORDERPRECISION":1}},
{"type":"Feature","geometry":{"type":"Polygon","coordinates":[[[-70.4,-25.25],[-71.43,-29.1],[-71.62,-33.71],[-73.67,-37.5],[-72.73,-41.55],[-72.07,-40.55],[-69.44,-37.16],[-67.48,-31.66],[-69.32,-29.3],[-67.12,-25.03],[-65.91,-18.31],[-67.36,-19.19],[-68.19,-25.49],[-70.4,-25.25]]]},"properties":{"NAME":"Andean hunter-gatherers","SUBJECTO":"Andean hunter-gatherers","BORDERPRECISION":1}},
{"type":"Feature","geometry":{"type":"Polygon","coordinates":[[[-64.19,-14.69],[-60.27,-13.81],[-51.54,-14.38],[-48.32,-13.92],[-39.94,-8.29],[-38.53,-5.73],[-37.89,-4.39],[-40.23,-2.85],[-44.55,-3.1],[-49.07,-4.74],[-56.33,-4.33],[-58.44,-2.29],[-55.86,1.7],[-58.56,3.98],[-62.66,4.15],[-66.41,3.04],[-70.16,-5.74],[-69.05,-8.24],[-64.19,-14.69]]]},"properties":{"NAME":"Amazon hunter-gatherers","SUBJECTO":"Amazon hunter-gatherers","BORDERPRECISION":1}},
{"type":"Feature","geometry":{"type":"Polygon","coordinates":[[[-69.11,-51.35],[-71.17,-51.56],[-72.19,-45.99],[-70.58,-40.58],[-72.07,-40.55],[-72.73,-41.55],[-74.31,-48.75],[-71.87,-53.7],[-69.08,-51.5],[-69.11,-51.35]]]},"properties":{"NAME":"Patagonian shellfish and marine mammal hunters","SUBJECTO":"Patagonian shellfish and marine mammal hunters","BORDERPRECISION":1}},
{"type":"Feature","geometry":{"type":"Polygon","coordinates":[[[-61.7,8.61],[-61.53,9.85],[-67.98,10.54],[-69.75,11.53],[-71.1,9.33],[-70.68,8.56],[-65.97,8.18],[-61.7,8.61]]]},"properties":{"NAME":"Caribbean hunter-gatherers","SUBJECTO":"Caribbean hunter-gatherers","BORDERPRECISION":1}},
{"type":"Feature","geometry":{"type":"Polygon","coordinates":[[[-65.91,-18.31],[-67.12,-25.03],[-69.32,-29.3],[-67.48,-31.66],[-63.56,-30.04],[-57.35,-29.68],[-52.14,-31.74],[-52.04,-31.56],[-48.85,-28.56],[-48.8,-28.48],[-49.49,-24.55],[-45.94,-21.75],[-43.24,-23.03],[-41.96,-22.92],[-39.69,-19.41],[-39.13,-14.32],[-34.89,-7.61],[-35.46,-5.27],[-37.89,-4.39],[-38.53,-5.73],[-39.94,-8.29],[-48.32,-13.92],[-51.54,-14.38],[-60.27,-13.81],[-64.19,-14.69],[-65.91,-18.31]]]},"properties":{"NAME":"Savanna hunter-gatherers","SUBJECTO":"Savanna hunter-gatherers","BORDERPRECISION":1}},
{"type":"Feature","geometry":{"type":"Polygon","coordinates":[[[-48.73,-28.37],[-48.72,-25.43],[-44.56,-22.99],[-43.24,-23.03],[-45.94,-21.75],[-49.49,-24.55],[-48.8,-28.48],[-48.73,-28.37]]]},"properties":{"NAME":"Shellfish gatherers","SUBJECTO":"Shellfish gatherers","BORDERPRECISION":1}},
{"type":"Feature","geometry":{"type":"Polygon","coordinates":[[[-52.14,-31.74],[-57.35,-29.68],[-63.56,-30.04],[-67.48,-31.66],[-69.44,-37.16],[-72.07,-40.55],[-70.58,-40.58],[-72.19,-45.99],[-71.17,-51.56],[-69.11,-51.35],[-69.17,-51.15],[-65.78,-47.23],[-64.94,-40.83],[-61.36,-39.03],[-57.81,-38.39],[-56.34,-35],[-54.07,-34.65],[-52.14,-31.75],[-52.14,-31.74]]]},"properties":{"NAME":"Pampas cultures","SUBJECTO":"Pampas cultures","BORDERPRECISION":1}},
{"type":"Feature","geometry":{"type":"Polygon","coordinates":[[[-114.47,52],[-114.13,47.95],[-111.67,41.94],[-104.52,33.87],[-97.21,28.07],[-97.12,28.11],[-96.83,28.16],[-94.12,29.69],[-94.12,31.93],[-97.14,34.47],[-94.12,35.88],[-94.23,46.72],[-95.57,50],[-105.19,51.45],[-114.47,52]]]},"properties":{"NAME":"Plain bison hunters","SUBJECTO":"Plain bison hunters","BORDERPRECISION":1}},
{"type":"Feature","geometry":{"type":"Polygon","coordinates":[[[-111.67,41.94],[-120.47,43.57],[-121.36,39.69],[-120.13,34.52],[-117.5,33.33],[-115.6,29.69],[-113.05,31.14],[-110.6,27.86],[-107.56,27.76],[-104.22,25.12],[-100.36,23.97],[-97.82,24.14],[-97.45,27.99],[-97.21,28.07],[-104.52,33.87],[-111.67,41.94]]]},"properties":{"NAME":"Desert hunter-gatherers","SUBJECTO":"Desert hunter-gatherers","BORDERPRECISION":1}},
{"type":"Feature","geometry":{"type":"Polygon","coordinates":[[[-128.59,55.06],[-120.48,48.96],[-120.47,43.57],[-111.67,41.94],[-114.13,47.95],[-114.47,52],[-125.7,55.19],[-128.59,55.06]]]},"properties":{"NAME":"Plateau fichers and hunter gatherers","SUBJECTO":"Plateau fichers and hunter gatherers","BORDERPRECISION":1}},
{"type":"Feature","geometry":{"type":"Polygon","coordinates":[[[-129.85,55],[-130,53.94],[-124.68,48.39],[-123.99,45.76],[-124.36,40.33],[-120.13,34.52],[-121.36,39.69],[-120.47,43.57],[-120.48,48.96],[-128.59,55.06],[-129.85,55]]]},"properties":{"NAME":"North American Pacifi foraging, hunting and fishing peoples","SUBJECTO":"North American Pacifi foraging, hunting and fishing peoples","BORDERPRECISION":1}},
{"type":"Feature","geometry":{"type":"Polygon","coordinates":[[[38.65,9.69],[39.14,9.06],[38.61,6.6],[35.58,5.53],[33.02,6.86],[32.35,9.53],[34.87,11.69],[34.52,12.5],[32.88,12.47],[30.6,11.12],[24.07,11.18],[17.75,12.83],[8.27,12.37],[2.35,13.29],[-6.26,13.35],[-8.91,12.64],[-10.18,14.21],[-13.4,14.92],[-16.87,14.36],[-16.77,12.6],[-13.68,9.92],[-12.26,7.35],[-7.53,4.34],[-5,5.24],[-2.03,4.7],[3.95,6.58],[5.36,5.37],[12.6,7.73],[22.22,6.2],[33.93,2.84],[36.02,1.3],[38.77,-2.27],[40.86,0.32],[44.14,1.15],[44.22,1.22],[41.8,6.17],[43.61,11.16],[43.1,11.53],[38.65,9.69]]]},"properties":{"NAME":"West African cereal farmers","SUBJECTO":"West African cereal farmers","BORDERPRECISION":1}},
{"type":"Feature","geometry":{"type":"Polygon","coordinates":[[[5.36,5.37],[8.87,4.62],[9.92,2.82],[9.2,-0.63],[11.77,-4.54],[13.39,-8.16],[13.65,-12.2],[12.59,-13.46],[11.77,-17.6],[14.42,-22.27],[15.45,-27.62],[18.18,-31.81],[18.49,-34.4],[26.66,-33.85],[32.23,-28.74],[33.35,-25.3],[34.88,-24.72],[34.73,-19.86],[39.47,-16.72],[40.6,-14.4],[40.31,-11.34],[38.92,-6.34],[40.23,-3.19],[43.72,0.8],[44.14,1.15],[40.86,0.32],[38.77,-2.27],[36.02,1.3],[33.93,2.84],[22.22,6.2],[12.6,7.73],[5.36,5.37]]]},"properties":{"NAME":"Khoiasan","SUBJECTO":"Khoiasan","BORDERPRECISION":1}},
{"type":"Feature","geometry":{"type":"Polygon","coordinates":[[[34.53,20.17],[37.14,21.13],[35.19,24.4],[33.66,24.02],[34.42,20.51],[34.53,20.17]]]},"properties":{"NAME":"Blemmyes","SUBJECTO":"Blemmyes","BORDERPRECISION":1}},
{"type":"Feature","geometry":{"type":"Polygon","coordinates":[[[38.76,17.8],[37.14,21.13],[34.53,20.17],[35.27,16.39],[35.32,15.53],[38.76,17.8]]]},"properties":{"NAME":"Bega","SUBJECTO":"Bega","BORDERPRECISION":1}},
{"type":"Feature","geometry":{"type":"Polygon","coordinates":[[[34.87,11.69],[32.35,9.53],[33.02,6.86],[35.58,5.53],[38.61,6.6],[39.14,9.06],[38.65,9.69],[34.87,9.82],[34.87,11.69]]]},"properties":{"NAME":"Ethiopian HIghland Peoples","SUBJECTO":"Ethiopian HIghland Peoples","BORDERPRECISION":1}},
{"type":"Feature","geometry":{"type":"Polygon","coordinates":[[[9.56,58.94],[11.43,58.22],[13.27,60.19],[10.51,60.82],[9.56,58.94]]]},"properties":{"NAME":"West Getaes","SUBJECTO":"West Getaes","BORDERPRECISION":1}},
{"type":"Feature","geometry":{"type":"Polygon","coordinates":[[[124.7,42.31],[129.25,45.19],[132.83,42.86],[137.26,45.61],[130.26,50.15],[110.7,50.98],[93.94,51.1],[82.21,51.33],[80.72,46.44],[85.45,46.21],[91.33,45.92],[90.96,43.55],[94.6,41.12],[101.05,40.08],[104.84,41.23],[110.71,40.89],[118.21,40.83],[119.04,42.31],[124.7,42.31]]]},"properties":{"NAME":"Göktürks","SUBJECTO":"Göktürks","BORDERPRECISION":1}},
{"type":"Feature","geometry":{"type":"Polygon","coordinates":[[[14.9,56.1],[16.45,58.6],[14.25,58.06],[14.9,56.1]]]},"properties":{"NAME":"East Getaes","SUBJECTO":"East Getaes","BORDERPRECISION":1}},
{"type":"Feature","geometry":{"type":"Polygon","coordinates":[[[14.4,55.97],[14.9,56.1],[14.25,58.06],[16.45,58.6],[19.04,59.86],[17.94,62.55],[11.53,61.9],[5.15,61.74],[5.62,58.46],[9.56,58.94],[10.51,60.82],[13.27,60.19],[11.43,58.22],[12.85,56.48],[14.4,55.97]]]},"properties":{"NAME":"Swedes","SUBJECTO":"Swedes","BORDERPRECISION":1}},
{"type":"Feature","geometry":{"type":"Polygon","coordinates":[[[105.4,72.75],[105.28,72.75],[113.63,75.27],[103.39,77.56],[91.63,75.65],[89.8,75.52],[87.69,73.9],[66.08,69.01],[65.23,66.95],[75.63,61.35],[98.46,69.79],[105.4,72.75]]]},"properties":{"NAME":"Samoyèdes","SUBJECTO":"Samoyèdes","BORDERPRECISION":1}},
{"type":"Feature","geometry":{"type":"Polygon","coordinates":[[[61.11,41.27],[58.76,42.62],[57.14,40.09],[58.35,40.01],[58.72,39.98],[60.38,40.09],[60.94,41],[61.11,41.27]]]},"properties":{"NAME":"Kwarezm","SUBJECTO":"Kwarezm","BORDERPRECISION":1}},
{"type":"Feature","geometry":{"type":"Polygon","coordinates":[[[96.43,38.45],[96.41,38.32],[99.35,37.59],[96.43,38.45]]]},"properties":{"NAME":"Tufan Empire","SUBJECTO":"Tufan Empire","BORDERPRECISION":1}},
{"type":"Feature","geometry":{"type":"Polygon","coordinates":[[[96.6,39.71],[84.56,40.58],[76.09,40.63],[81.92,36.5],[91.49,37.79],[97.9,36.76],[99.35,37.59],[96.41,38.32],[96.43,38.45],[96.6,39.71]]]},"properties":{"NAME":"Uyghurs","SUBJECTO":"Uyghurs","BORDERPRECISION":1}},
{"type":"Feature","geometry":{"type":"Polygon","coordinates":[[[101.05,40.08],[94.6,41.12],[90.96,43.55],[91.33,45.92],[85.45,46.21],[84.56,40.58],[96.6,39.71],[101.05,40.08]]]},"properties":{"NAME":"Karluks","SUBJECTO":"Karluks","BORDERPRECISION":1}},
{"type":"Feature","geometry":{"type":"Polygon","coordinates":[[[115.21,57.39],[110.7,50.98],[130.26,50.15],[137.26,45.61],[140.08,48.5],[141.12,53.05],[134.99,54.85],[142.36,59.14],[137.18,61.33],[127.81,61.8],[116.96,59.88],[115.21,57.39]]]},"properties":{"NAME":"Tungus","SUBJECTO":"Tungus","BORDERPRECISION":1}},
{"type":"Feature","geometry":{"type":"Polygon","coordinates":[[[15.71,49.01],[16.69,50.19],[12.4,50.17],[12.53,49.85],[12.66,49.51],[12.72,49.48],[13.95,48.72],[15.71,49.01]]]},"properties":{"NAME":"Czechs","SUBJECTO":"Slavic tribes","BORDERPRECISION":1}},
{"type":"Feature","geometry":{"type":"Polygon","coordinates":[[[18.38,48.42],[16.69,50.19],[15.71,49.01],[18.38,48.42]]]},"properties":{"NAME":"Moravians","SUBJECTO":"Moravians","BORDERPRECISION":1}},
{"type":"Feature","geometry":{"type":"Polygon","coordinates":[[[-5.23,31.39],[-0.4,32.33],[-0.87,35.69],[-4.59,35.15],[-6.33,34.81],[-6.71,34.18],[-5.23,31.39]]]},"properties":{"NAME":"Mauri","SUBJECTO":"Umayyad Caliphate","BORDERPRECISION":1}},
{"type":"Feature","geometry":{"type":"Polygon","coordinates":[[[8.5,33.64],[6.05,36.84],[4.16,36.83],[3.42,33.05],[8.5,33.64]]]},"properties":{"NAME":"Aures","SUBJECTO":"Umayyad Caliphate","BORDERPRECISION":1}},
{"type":"Feature","geometry":{"type":"Polygon","coordinates":[[[-0.4,32.33],[3.42,33.05],[4.16,36.83],[-0.87,35.69],[-0.4,32.33]]]},"properties":{"NAME":"Warsenis","SUBJECTO":"Umayyad Caliphate","BORDERPRECISION":1}},
{"type":"Feature","geometry":{"type":"Polygon","coordinates":[[[30.53,15.82],[29.66,18.64],[29.85,20.12],[30.54,22.75],[30.49,22.95],[30.04,24.62],[28.41,27.74],[22.31,29.96],[18.61,29.41],[10,32.43],[8.5,33.64],[3.42,33.05],[-0.4,32.33],[-5.23,31.39],[-9.63,30.41],[-14.37,26.12],[-17.05,21],[-15.98,18.18],[-16.87,14.36],[-13.4,14.92],[-10.18,14.21],[-11.18,15.46],[-9.91,17.89],[-7.46,19.44],[-5.18,17.2],[-4.55,15.11],[-6.26,13.35],[2.35,13.29],[8.27,12.37],[17.75,12.83],[24.07,11.18],[30.6,11.12],[32.88,12.47],[30.72,13.74],[30.53,14.09],[30.53,15.82]]]},"properties":{"NAME":"Saharan Nomadic Tribes","SUBJECTO":"Saharan Nomadic Tribes","BORDERPRECISION":1}},
{"type":"Feature","geometry":{"type":"MultiPolygon","coordinates":[[[[33.66,24.02],[35.19,24.4],[35.11,28.07],[38.38,33.53],[41.22,37.54],[35.96,36.75],[35.87,34.42],[33.56,30.97],[29.25,30.75],[20.37,32.3],[18.92,30.2],[15.84,31.29],[10.02,34.08],[10.13,37.1],[6.05,36.84],[8.5,33.64],[10,32.43],[18.61,29.41],[22.31,29.96],[28.41,27.74],[30.04,24.62],[30.49,22.95],[33.66,24.02]]],[[[1.83,42.53],[0.17,42.17],[-6.82,43.52],[-8.64,42.42],[-9.55,38.77],[-8.67,37.12],[-2.24,36.73],[0.17,38.74],[0.88,41.02],[3.81,43.47],[1.83,42.53]]]]},"properties":{"NAME":"Umayyad Caliphate","SUBJECTO":"Umayyad Caliphate","BORDERPRECISION":1}},
{"type":"Feature","geometry":{"type":"Polygon","coordinates":[[[44.22,1.22],[44.3,1.29],[48.47,5.2],[50.78,9.37],[51.18,11.78],[44.28,10.4],[43.61,11.16],[41.8,6.17],[44.22,1.22]]]},"properties":{"NAME":"Kushites","SUBJECTO":"Kushites","BORDERPRECISION":1}},
{"type":"Feature","geometry":{"type":"Polygon","coordinates":[[[22.95,44.65],[25.26,43.82],[27.94,44.93],[28.22,45.48],[24.85,47.44],[22.95,44.65]]]},"properties":{"NAME":"Danube Bulgars","SUBJECTO":"Danube Bulgars","BORDERPRECISION":1}},
{"type":"Feature","geometry":{"type":"Polygon","coordinates":[[[-95.57,50],[-94.23,46.72],[-94.12,35.88],[-97.14,34.47],[-94.12,31.93],[-94.12,29.69],[-90.78,29.11],[-89.23,30.41],[-83.89,30.05],[-82.43,27.83],[-80.59,28.49],[-81.51,30.73],[-80.58,32.5],[-76.62,34.76],[-73.74,40.98],[-70.3,41.76],[-70.22,43.8],[-64.53,46.27],[-66.03,49.17],[-71.03,46.75],[-72.32,46.3],[-87.79,49.93],[-95.57,50]],[[-92.27,46.65],[-88.09,49],[-87.27,46.51],[-92.27,46.65]]]},"properties":{"NAME":"Eastern North Amercian hunter-gatherers","SUBJECTO":"Eastern North Amercian hunter-gatherers","BORDERPRECISION":1}},
{"type":"Feature","geometry":{"type":"Polygon","coordinates":[[[-82.43,27.83],[-81.1,25.13],[-80.05,26.55],[-80.59,28.49],[-82.43,27.83]]]},"properties":{"NAME":"Caloosahatchee cultureure","SUBJECTO":"Caloosahatchee cultureure","BORDERPRECISION":1}},
{"type":"Feature","geometry":{"type":"Polygon","coordinates":[[[-6.26,13.35],[-4.55,15.11],[-5.18,17.2],[-7.46,19.44],[-9.91,17.89],[-11.18,15.46],[-10.18,14.21],[-8.91,12.64],[-6.26,13.35]]]},"properties":{"NAME":"Empire of Ghana","SUBJECTO":"Empire of Ghana","BORDERPRECISION":1}},
{"type":"Feature","geometry":{"type":"Polygon","coordinates":[[[128.16,34.89],[126.67,37.51],[126.37,34.79],[128.16,34.89]]]},"properties":{"NAME":"Paekche","SUBJECTO":"Paekche","BORDERPRECISION":1}},
{"type":"Feature","geometry":{"type":"Polygon","coordinates":[[[33.49,48.94],[39.55,48.61],[35.78,49.97],[33.49,48.94]]]},"properties":{"NAME":"Magyars","SUBJECTO":"Magyars","BORDERPRECISION":1}},
{"type":"Feature","geometry":{"type":"Polygon","coordinates":[[[32.72,49.55],[33.29,51.33],[29.22,50.59],[30.08,49.18],[32.37,49.32],[32.52,49.41],[32.66,49.51],[32.72,49.55]]]},"properties":{"NAME":"Severians","SUBJECTO":"Severians","BORDERPRECISION":1}},
{"type":"Feature","geometry":{"type":"Polygon","coordinates":[[[34.98,63.56],[34.86,63.72],[34.36,63.7],[34.55,63.46],[34.98,63.56]]]},"properties":{"NAME":"Lake Vygozero","SUBJECTO":"Lake Vygozero","BORDERPRECISION":1}},
{"type":"Feature","geometry":{"type":"Polygon","coordinates":[[[33.36,63.42],[33.5,63.22],[34.07,63.23],[33.93,63.42],[33.36,63.42]]]},"properties":{"NAME":"Lake Segozerskoye","SUBJECTO":"Lake Segozerskoye","BORDERPRECISION":1}},
{"type":"Feature","geometry":{"type":"Polygon","coordinates":[[[32.78,60.87],[31.11,59.93],[27.76,58.87],[27.45,58.26],[29.04,56.16],[38.46,56.84],[38.45,58.12],[37.19,58.83],[37.17,59.83],[32.78,60.87]]]},"properties":{"NAME":"Kryvichs","SUBJECTO":"Kryvichs","BORDERPRECISION":1}},
{"type":"Feature","geometry":{"type":"Polygon","coordinates":[[[17.4,52.93],[16.76,51.01],[19.87,50.72],[21.92,51.96],[17.4,52.93]]]},"properties":{"NAME":"Polanes","SUBJECTO":"Polanes","BORDERPRECISION":1}},
{"type":"Feature","geometry":{"type":"Polygon","coordinates":[[[27.45,58.26],[27.39,59],[27.27,59.34],[23.42,59.12],[19.92,54.4],[22.39,53.79],[29.04,56.16],[27.45,58.26]]]},"properties":{"NAME":"Balts","SUBJECTO":"Balts","BORDERPRECISION":1}},
{"type":"Feature","geometry":{"type":"Polygon","coordinates":[[[33.6,46.01],[33.53,45.05],[35.25,44.99],[34.07,46.09],[33.6,46.01]]]},"properties":{"NAME":"Goths","SUBJECTO":"Bulgars","BORDERPRECISION":1}},
{"type":"Feature","geometry":{"type":"Polygon","coordinates":[[[39.55,48.61],[33.49,48.94],[31.4,46.68],[33.6,46.01],[34.07,46.09],[37.42,47.08],[38.81,44.26],[39.06,44.66],[40.29,46.85],[40.62,47.41],[39.55,48.61]]]},"properties":{"NAME":"Bulgars","SUBJECTO":"Bulgars","BORDERPRECISION":1}},
{"type":"Feature","geometry":{"type":"Polygon","coordinates":[[[43.98,41.25],[44.22,41.54],[44.39,41.88],[41.12,43.02],[41.68,41.85],[43.98,41.25]]]},"properties":{"NAME":"Georgian Kingdom","SUBJECTO":"Georgian Kingdom","BORDERPRECISION":1}},
{"type":"Feature","geometry":{"type":"Polygon","coordinates":[[[46.25,42.06],[48.25,42.25],[47.31,44.19],[45.61,44.08],[45.03,44.04],[46.25,42.06]]]},"properties":{"NAME":"Huns","SUBJECTO":"Huns","BORDERPRECISION":1}},
{"type":"Feature","geometry":{"type":"Polygon","coordinates":[[[24.85,47.44],[29.11,47.27],[22.39,53.79],[19.92,54.4],[13.78,53.78],[9.65,54.85],[9.62,54.87],[9.55,54.9],[8.68,55.06],[8.86,53.87],[8.22,53.34],[7.51,53.61],[7.62,51.31],[12.53,49.85],[12.4,50.17],[16.69,50.19],[18.38,48.42],[24.85,47.44]],[[17.4,52.93],[21.92,51.96],[19.87,50.72],[16.76,51.01],[17.4,52.93]]]},"properties":{"NAME":"Proto-Slavs","SUBJECTO":"Proto-Slavs","BORDERPRECISION":1}},
{"type":"Feature","geometry":{"type":"Polygon","coordinates":[[[40.29,46.85],[41.94,45.11],[45.61,44.08],[47.31,44.19],[47.69,45.74],[46.76,47.7],[44.47,48.65],[40.62,47.41],[40.29,46.85]]]},"properties":{"NAME":"Khazars","SUBJECTO":"Khazars","BORDERPRECISION":1}},
{"type":"Feature","geometry":{"type":"Polygon","coordinates":[[[38.81,44.26],[41.12,43.02],[44.39,41.88],[46.25,42.06],[45.03,44.04],[39.06,44.66],[38.81,44.26]]]},"properties":{"NAME":"Alans","SUBJECTO":"Alans","BORDERPRECISION":1}},
{"type":"Feature","geometry":{"type":"Polygon","coordinates":[[[39.06,44.66],[45.03,44.04],[45.61,44.08],[41.94,45.11],[40.29,46.85],[39.06,44.66]]]},"properties":{"NAME":"Sabirs","SUBJECTO":"Sabirs","BORDERPRECISION":1}},
{"type":"Feature","geometry":{"type":"Polygon","coordinates":[[[43.98,41.25],[42.97,40],[47.88,40.03],[44.22,41.54],[43.98,41.25]]]},"properties":{"NAME":"Armenia","SUBJECTO":"Armenia","BORDERPRECISION":1}},
{"type":"Feature","geometry":{"type":"Polygon","coordinates":[[[44.22,41.54],[47.88,40.03],[49.55,40.04],[48.25,42.25],[46.25,42.06],[44.39,41.88],[44.22,41.54]]]},"properties":{"NAME":"Cuacasian Albania","SUBJECTO":"Cuacasian Albania","BORDERPRECISION":1}},
{"type":"Feature","geometry":{"type":"Polygon","coordinates":[[[-3.81,43.43],[-6.82,43.52],[0.17,42.17],[1.83,42.53],[-0.87,43.3],[-3.81,43.43]]]},"properties":{"NAME":"Visigothic Kingdom","SUBJECTO":"Visigothic Kingdom","BORDERPRECISION":1}},
{"type":"Feature","geometry":{"type":"MultiPolygon","coordinates":[[[[14.43,42.33],[12.35,44.3],[13.61,45.72],[12.88,47.06],[12.45,47.11],[10.74,42.85],[13.33,41.31],[14.43,42.33]]],[[[15.41,46.14],[14.54,45.26],[15.41,43.93],[19.61,41.76],[19.37,40.26],[28.83,40.91],[27.5,42.52],[28.22,45.48],[27.94,44.93],[25.26,43.82],[22.95,44.65],[18.63,44.86],[15.41,46.14]]],[[[41.22,37.54],[42.97,40],[43.98,41.25],[41.68,41.85],[40.36,40.96],[33.56,41.98],[26.13,39.88],[27.16,37.36],[33.17,35.97],[35.96,36.75],[41.22,37.54]]]]},"properties":{"NAME":"Eastern Roman Empire","SUBJECTO":"Eastern Roman Empire","BORDERPRECISION":1}},
{"type":"Feature","geometry":{"type":"Polygon","coordinates":[[[77.43,10.35],[76.54,9.12],[78.67,9.12],[77.43,10.35]]]},"properties":{"NAME":"Pandyas","SUBJECTO":"Pandyas","BORDERPRECISION":1}},
{"type":"Feature","geometry":{"type":"Polygon","coordinates":[[[78.27,11.1],[77.43,10.35],[78.67,9.12],[79.71,11.42],[78.27,11.1]]]},"properties":{"NAME":"Cholas","SUBJECTO":"Cholas","BORDERPRECISION":1}},
{"type":"Feature","geometry":{"type":"Polygon","coordinates":[[[75.36,11.87],[76.54,9.12],[77.43,10.35],[78.27,11.1],[76.35,12.61],[75.36,11.87]]]},"properties":{"NAME":"Cheras","SUBJECTO":"Cheras","BORDERPRECISION":1}},
{"type":"Feature","geometry":{"type":"Polygon","coordinates":[[[100.14,23.68],[97.64,24.08],[95.77,22.34],[97.61,18.18],[100.26,20],[100.14,23.68]]]},"properties":{"NAME":"Nan-Zhao","SUBJECTO":"Nan-Zhao","BORDERPRECISION":1}},
{"type":"Feature","geometry":{"type":"Polygon","coordinates":[[[88.33,28.01],[94.49,26.24],[96.45,25.67],[99.91,26.91],[100.68,32.85],[101.79,37.67],[99.35,37.59],[97.9,36.76],[91.49,37.79],[81.92,36.5],[76.09,40.63],[73.93,39.17],[72.67,36.41],[72.99,35.34],[75.03,35.32],[77.34,33.3],[78.34,32.59],[80.74,30.9],[85.65,28.58],[88.33,28.01]]]},"properties":{"NAME":"Tufan Empire","SUBJECTO":"Tufan Empire","BORDERPRECISION":1}},
{"type":"Feature","geometry":{"type":"Polygon","coordinates":[[[72.99,35.34],[71.1,32.99],[77.34,33.3],[75.03,35.32],[72.99,35.34]]]},"properties":{"NAME":"Kingdom of Kashmir","SUBJECTO":"Kingdom of Kashmir","BORDERPRECISION":1}},
{"type":"Feature","geometry":{"type":"Polygon","coordinates":[[[47.61,29.27],[50.13,30.07],[51.35,28.04],[54.65,26.39],[60.59,25.25],[60.67,26.64],[64.9,28.46],[67.02,30.25],[67.14,31.18],[65.5,30.55],[64.42,31.75],[67.17,34.11],[66.78,38.04],[60.94,41],[60.38,40.09],[58.72,39.98],[58.35,40.01],[54.03,38.99],[53.8,36.68],[48.84,37.51],[49.55,40.04],[47.88,40.03],[42.97,40],[41.22,37.54],[38.38,33.53],[47.61,29.27]]]},"properties":{"NAME":"Sasanian Empire","SUBJECTO":"Sasanian Empire","BORDERPRECISION":1}},
{"type":"Feature","geometry":{"type":"Polygon","coordinates":[[[69.51,24.25],[70.46,27.37],[72.51,28.98],[71.7,30.93],[67.02,30.25],[64.9,28.46],[60.67,26.64],[60.59,25.25],[66.62,25.32],[67.68,23.82],[69.51,24.25]]]},"properties":{"NAME":"Kingdom of Sind","SUBJECTO":"Kingdom of Sind","BORDERPRECISION":1}},
{"type":"Feature","geometry":{"type":"Polygon","coordinates":[[[60.94,41],[66.78,38.04],[67.17,34.11],[67.42,34.11],[67.61,35.08],[72.67,36.41],[73.93,39.17],[76.09,40.63],[69.98,43.89],[67.02,47.47],[59.62,49.55],[46.76,47.7],[47.69,45.74],[50.87,44.63],[54.03,38.99],[58.35,40.01],[57.14,40.09],[58.76,42.62],[61.11,41.27],[60.94,41]]]},"properties":{"NAME":"Western Gokturk Khaganate","SUBJECTO":"Western Gokturk Khaganate","BORDERPRECISION":1}},
{"type":"Feature","geometry":{"type":"Polygon","coordinates":[[[72.67,36.41],[67.61,35.08],[67.42,34.11],[68.7,32.18],[71.1,32.99],[72.99,35.34],[72.67,36.41]]]},"properties":{"NAME":"Kingdom of Kapisa","SUBJECTO":"Kingdom of Kapisa","BORDERPRECISION":1}},
{"type":"Feature","geometry":{"type":"Polygon","coordinates":[[[67.14,31.18],[68.7,32.18],[67.42,34.11],[67.17,34.11],[64.42,31.75],[65.5,30.55],[67.14,31.18]]]},"properties":{"NAME":"Kingdom of Zunbil","SUBJECTO":"Kingdom of Zunbil","BORDERPRECISION":1}},
{"type":"Feature","geometry":{"type":"Polygon","coordinates":[[[125.29,38.69],[126.67,37.51],[128.16,34.89],[129.34,37.26],[127.4,39.08],[125.29,38.69]]]},"properties":{"NAME":"Silla","SUBJECTO":"Silla","BORDERPRECISION":1}},
{"type":"Feature","geometry":{"type":"Polygon","coordinates":[[[78.54,27.63],[73.81,27.24],[71.67,25.11],[75.31,25.51],[77.45,24.61],[76.75,22.31],[80.09,22.09],[80.27,19.87],[82.35,17.09],[85.38,19.61],[83.98,24.78],[80.46,25.71],[78.54,27.63]]]},"properties":{"NAME":"Hindu kingdoms","SUBJECTO":"Hindu kingdoms","BORDERPRECISION":1}},
{"type":"Feature","geometry":{"type":"Polygon","coordinates":[[[72.69,21.68],[73.06,18.03],[74.52,14.16],[75.08,14.39],[78.05,17.45],[80.09,14.95],[82.35,17.09],[80.27,19.87],[80.09,22.09],[76.75,22.31],[72.69,21.68]]]},"properties":{"NAME":"Chalukyas","SUBJECTO":"Chalukyas","BORDERPRECISION":1}},
{"type":"Feature","geometry":{"type":"Polygon","coordinates":[[[76.92,29.39],[74.85,28.9],[73.81,27.24],[78.54,27.63],[76.92,29.39]]]},"properties":{"NAME":"Chauhans","SUBJECTO":"Chauhans","BORDERPRECISION":1}},
{"type":"Feature","geometry":{"type":"Polygon","coordinates":[[[78.34,32.59],[77.34,33.3],[71.1,32.99],[68.7,32.18],[67.14,31.18],[67.02,30.25],[71.7,30.93],[72.51,28.98],[74.85,28.9],[76.92,29.39],[78.34,32.59]]]},"properties":{"NAME":"Hindu kingdoms","SUBJECTO":"Hindu kingdoms","BORDERPRECISION":1}}
]}