{"type":"FeatureCollection", "features": [
{"type":"Feature","geometry":{"type":"Polygon","coordinates":[[[146.71,-43.72],[148.27,-41.09],[144.78,-40.84],[146.71,-43.72]]]},"properties":{"NAME":"Tasmanian hunter-gatherers","SUBJECTO":"Tasmanian hunter-gatherers","BORDERPRECISION":1}},
{"type":"Feature","geometry":{"type":"Polygon","coordinates":[[[140.87,-2.79],[137.85,-1.61],[135.25,-3.54],[137.82,-5.43],[140.95,-9.27],[144.38,-7.76],[148.59,-9.16],[147.38,-6.12],[143.45,-3.61],[140.87,-2.79]]]},"properties":{"NAME":"Papuan neolithic farmers","SUBJECTO":"Papuan neolithic farmers","BORDERPRECISION":1}},
{"type":"Feature","geometry":{"type":"MultiPolygon","coordinates":[[[[99.86,2.9],[98.6,1.71],[100.81,-2.34],[104.57,-6.07],[105.94,-3.21],[99.86,2.9]]],[[[110.97,1.23],[108.81,0.81],[110.1,-3.08],[115.57,-3.8],[117.53,0.61],[117.07,3.51],[119.04,5.17],[116.6,6.9],[110.97,1.23]]]]},"properties":{"NAME":"Austronesians","SUBJECTO":"Austronesians","BORDERPRECISION":1}},
{"type":"Feature","geometry":{"type":"Polygon","coordinates":[[[43.05,14.61],[45.43,17.77],[41.63,18.05],[43.05,14.61]]]},"properties":{"NAME":"Saba","SUBJECTO":"Saba","BORDERPRECISION":1}},
{"type":"Feature","geometry":{"type":"Polygon","coordinates":[[[32.65,29.85],[33.56,30.97],[29.36,30.81],[30.94,25.96],[31.06,22.68],[33.35,23.35],[32.32,29.54],[32.65,29.85]]]},"properties":{"NAME":"Egypt","SUBJECTO":"Egypt","BORDERPRECISION":1}},
{"type":"Feature","geometry":{"type":"Polygon","coordinates":[[[49.02,30.43],[51.35,28.04],[54.65,26.39],[58.37,25.55],[59.33,29.54],[54.3,30.66],[51.88,32.33],[49.45,32.52],[49.02,30.43]]]},"properties":{"NAME":"Elam","SUBJECTO":"Elam","BORDERPRECISION":1}},
{"type":"Feature","geometry":{"type":"Polygon","coordinates":[[[119.02,34.69],[120.14,36.19],[117.59,38.28],[119.39,39.84],[113.48,39.99],[109.2,36.07],[105.34,35.06],[106.64,32.57],[104.68,29.83],[104.8,28.05],[106.46,27.16],[109.67,29.18],[113.06,28.82],[114.01,30.66],[116.67,32.8],[119.02,34.69]]]},"properties":{"NAME":"Zhoa","SUBJECTO":"Zhoa","BORDERPRECISION":1}},
{"type":"Feature","geometry":{"type":"Polygon","coordinates":[[[35.13,33.23],[33.71,31],[34.76,29.25],[35.1,29.34],[38.51,36.12],[38.42,36.15],[38.32,36.18],[35.13,33.23]]]},"properties":{"NAME":"Kingdom of David and Solomon","SUBJECTO":"Kingdom of David and Solomon","BORDERPRECISION":1}},
{"type":"Feature","geometry":{"type":"Polygon","coordinates":[[[31.06,22.68],[29.85,20.12],[30.05,17.09],[32.83,15.93],[35.39,17.75],[33.35,23.35],[31.06,22.68]]]},"properties":{"NAME":"Kush","SUBJECTO":"Kush","BORDERPRECISION":1}},
{"type":"Feature","geometry":{"type":"Polygon","coordinates":[[[43.05,14.61],[43.84,12.66],[52.14,15.69],[57.84,19.03],[59.84,22.28],[57.15,23.98],[51.59,24],[47.61,29.27],[42.93,30.78],[35.03,28.98],[39.1,22.4],[41.63,18.05],[45.43,17.77],[43.05,14.61]]]},"properties":{"NAME":"Arabian pastoral nomads","SUBJECTO":"Arabian pastoral nomads","BORDERPRECISION":1}},
{"type":"Feature","geometry":{"type":"Polygon","coordinates":[[[45.32,37.15],[41.97,37.64],[40.79,35.22],[44,33.37],[46.11,34.69],[45.32,37.15]]]},"properties":{"NAME":"Assyria","SUBJECTO":"Assyria","BORDERPRECISION":1}},
{"type":"Feature","geometry":{"type":"Polygon","coordinates":[[[44,33.37],[44.39,31.74],[48.09,31],[49.45,32.52],[46.11,34.69],[44,33.37]]]},"properties":{"NAME":"Babylonia","SUBJECTO":"Babylonia","BORDERPRECISION":1}},
{"type":"Feature","geometry":{"type":"Polygon","coordinates":[[[32.65,29.85],[34.76,29.25],[33.71,31],[33.56,30.97],[32.65,29.85]]]},"properties":{"NAME":"state societies and Aramaean kingdoms","SUBJECTO":"state societies and Aramaean kingdoms","BORDERPRECISION":1}},
{"type":"Feature","geometry":{"type":"Polygon","coordinates":[[[-14.51,28.05],[-13.88,28.2],[-14.15,28.39],[-14.51,28.05]]]},"properties":{"NAME":"Guanches","SUBJECTO":"Guanches","BORDERPRECISION":1}},
{"type":"Feature","geometry":{"type":"Polygon","coordinates":[[[-93.02,18.57],[-95.86,18.81],[-95.32,17.16],[-93.02,18.57]]]},"properties":{"NAME":"Olmec","SUBJECTO":"Olmec","BORDERPRECISION":1}},
{"type":"Feature","geometry":{"type":"Polygon","coordinates":[[[-79.81,-7.18],[-76.34,-13.27],[-74.64,-10.99],[-74.79,-10.78],[-76.26,-8.87],[-77.33,-7.46],[-79.81,-7.18]]]},"properties":{"NAME":"El Paraiso","SUBJECTO":"El Paraiso","BORDERPRECISION":1}},
{"type":"Feature","geometry":{"type":"Polygon","coordinates":[[[-80.24,-3.48],[-76.45,-5.04],[-73.08,-4.72],[-74.23,-2.27],[-77.3,-0.89],[-80.87,-1.2],[-80.24,-3.48]]]},"properties":{"NAME":"Chorrera","SUBJECTO":"Chorrera","BORDERPRECISION":1}},
{"type":"Feature","geometry":{"type":"Polygon","coordinates":[[[-70.99,-17.91],[-70.15,-20.27],[-68.22,-19.25],[-70.99,-17.91]]]},"properties":{"NAME":"Chinchoros","SUBJECTO":"Chinchoros","BORDERPRECISION":1}},
{"type":"Feature","geometry":{"type":"Polygon","coordinates":[[[-48.8,-28.48],[-48.72,-25.43],[-43.24,-23.03],[-45.94,-21.75],[-49.49,-24.55],[-48.8,-28.48]]]},"properties":{"NAME":"Shellfish gatherers","SUBJECTO":"Shellfish gatherers","BORDERPRECISION":1}},
{"type":"Feature","geometry":{"type":"Polygon","coordinates":[[[-94.12,29.69],[-94.12,31.93],[-97.14,34.47],[-94.12,35.88],[-94.23,46.72],[-95.57,50],[-105.19,51.45],[-114.47,52],[-114.13,47.95],[-111.67,41.94],[-104.52,33.87],[-97.21,28.07],[-94.12,29.69]]]},"properties":{"NAME":"Plain bison hunters","SUBJECTO":"Plain bison hunters","BORDERPRECISION":1}},
{"type":"Feature","geometry":{"type":"Polygon","coordinates":[[[-114.47,52],[-125.7,55.19],[-128.59,55.06],[-120.48,48.96],[-120.47,43.57],[-111.67,41.94],[-114.13,47.95],[-114.47,52]]]},"properties":{"NAME":"Plateau fichers and hunter gatherers","SUBJECTO":"Plateau fichers and hunter gatherers","BORDERPRECISION":1}},
{"type":"Feature","geometry":{"type":"Polygon","coordinates":[[[-111.67,41.94],[-120.47,43.57],[-121.36,39.69],[-120.13,34.52],[-117.5,33.33],[-115.6,29.69],[-113.05,31.14],[-110.53,27.76],[-107.56,27.76],[-104.22,25.12],[-100.36,23.97],[-97.82,24.14],[-97.21,28.07],[-104.52,33.87],[-111.67,41.94]]]},"properties":{"NAME":"Desert hunter-gatherers","SUBJECTO":"Desert hunter-gatherers","BORDERPRECISION":1}},
{"type":"Feature","geometry":{"type":"Polygon","coordinates":[[[-64.19,-14.69],[-60.27,-13.81],[-51.54,-14.38],[-48.32,-13.92],[-39.94,-8.29],[-37.89,-4.39],[-40.23,-2.85],[-44.55,-3.1],[-49.07,-4.74],[-56.33,-4.33],[-58.44,-2.29],[-55.86,1.7],[-58.56,3.98],[-62.66,4.15],[-66.41,3.04],[-70.16,-5.74],[-69.05,-8.24],[-64.19,-14.69]]]},"properties":{"NAME":"Amazon hunter-gatherers","SUBJECTO":"Amazon hunter-gatherers","BORDERPRECISION":1}},
{"type":"Feature","geometry":{"type":"Polygon","coordinates":[[[-43.24,-23.03],[-41.96,-22.92],[-39.69,-19.41],[-39.13,-14.32],[-34.89,-7.61],[-35.46,-5.27],[-37.89,-4.39],[-39.94,-8.29],[-48.32,-13.92],[-51.54,-14.38],[-60.27,-13.81],[-64.19,-14.69],[-65.91,-18.31],[-67.12,-25.03],[-69.32,-29.3],[-67.48,-31.66],[-63.56,-30.04],[-57.35,-29.68],[-52.14,-31.74],[-48.8,-28.48],[-49.49,-24.55],[-45.94,-21.75],[-43.24,-23.03]]]},"properties":{"NAME":"Savanna hunter-gatherers","SUBJECTO":"Savanna hunter-gatherers","BORDERPRECISION":1}},
{"type":"Feature","geometry":{"type":"Polygon","coordinates":[[[-67.48,-31.66],[-69.44,-37.16],[-72.07,-40.55],[-70.58,-40.58],[-72.19,-45.99],[-71.17,-51.56],[-69.11,-51.35],[-65.78,-47.23],[-64.94,-40.83],[-61.36,-39.03],[-57.81,-38.39],[-56.34,-35],[-54.07,-34.65],[-52.14,-31.74],[-57.35,-29.68],[-63.56,-30.04],[-67.48,-31.66]]]},"properties":{"NAME":"Pampas cultures","SUBJECTO":"Pampas cultures","BORDERPRECISION":1}},
{"type":"Feature","geometry":{"type":"Polygon","coordinates":[[[-70.15,-20.27],[-70.4,-25.25],[-71.43,-29.1],[-71.62,-33.71],[-73.67,-37.5],[-72.73,-41.55],[-72.07,-40.55],[-69.44,-37.16],[-67.48,-31.66],[-69.32,-29.3],[-67.12,-25.03],[-65.91,-18.31],[-68.22,-19.25],[-70.15,-20.27]]]},"properties":{"NAME":"Andean hunter-gatherers","SUBJECTO":"Andean hunter-gatherers","BORDERPRECISION":1}},
{"type":"Feature","geometry":{"type":"Polygon","coordinates":[[[-72.07,-40.55],[-72.73,-41.55],[-74.31,-48.75],[-71.87,-53.7],[-69.11,-51.35],[-71.17,-51.56],[-72.19,-45.99],[-70.58,-40.58],[-72.07,-40.55]]]},"properties":{"NAME":"Patagonian shellfish and marine mammal hunters","SUBJECTO":"Patagonian shellfish and marine mammal hunters","BORDERPRECISION":1}},
{"type":"Feature","geometry":{"type":"Polygon","coordinates":[[[-95.86,18.81],[-97.5,21.19],[-97.82,24.14],[-100.36,23.97],[-104.22,25.12],[-107.56,27.76],[-110.53,27.76],[-105.54,22.28],[-104.95,19.44],[-97.88,16.05],[-94.08,16.11],[-91.52,14.06],[-87.95,13.17],[-85.78,10.14],[-81.66,8.16],[-78.55,8.75],[-78.21,9.35],[-82.23,9.05],[-83.91,11.25],[-83.31,14.77],[-84.65,15.93],[-88.66,15.73],[-87.2,21.53],[-90.28,21.14],[-93.02,18.57],[-95.32,17.16],[-95.86,18.81]]]},"properties":{"NAME":"Maize farmers","SUBJECTO":"Maize farmers","BORDERPRECISION":1}},
{"type":"Feature","geometry":{"type":"Polygon","coordinates":[[[-76.34,-13.27],[-74.05,-16.04],[-70.99,-17.91],[-68.22,-19.25],[-65.91,-18.31],[-64.19,-14.69],[-69.05,-8.24],[-70.16,-5.74],[-66.41,3.04],[-62.66,4.15],[-58.56,3.98],[-55.86,1.7],[-58.44,-2.29],[-56.33,-4.33],[-49.07,-4.74],[-44.55,-3.1],[-47.24,-0.68],[-49.22,-2.11],[-51.53,-0.43],[-49.88,1.21],[-51.21,4.07],[-54.29,5.88],[-56.75,6],[-59.83,8.44],[-61.7,8.61],[-65.97,8.18],[-71.18,9.28],[-72.38,11.81],[-78.21,9.35],[-78.55,8.75],[-77.11,3.79],[-80.87,-1.2],[-77.3,-0.89],[-74.23,-2.27],[-73.08,-4.72],[-76.45,-5.04],[-80.24,-3.48],[-81.42,-4.68],[-79.81,-7.18],[-77.33,-7.46],[-76.26,-8.87],[-74.79,-10.78],[-74.64,-10.99],[-76.34,-13.27]]]},"properties":{"NAME":"Manioc farmers","SUBJECTO":"Manioc farmers","BORDERPRECISION":1}},
{"type":"Feature","geometry":{"type":"Polygon","coordinates":[[[-61.7,8.61],[-61.53,9.85],[-67.98,10.54],[-69.75,11.53],[-71.18,9.28],[-65.97,8.18],[-61.7,8.61]]]},"properties":{"NAME":"Caribbean hunter-gatherers","SUBJECTO":"Caribbean hunter-gatherers","BORDERPRECISION":1}},
{"type":"Feature","geometry":{"type":"Polygon","coordinates":[[[-128.59,55.06],[-129.85,55],[-130,53.94],[-124.68,48.39],[-123.99,45.76],[-124.36,40.33],[-120.13,34.52],[-121.36,39.69],[-120.47,43.57],[-120.48,48.96],[-128.59,55.06]]]},"properties":{"NAME":"North American Pacifi foraging, hunting and fishing peoples","SUBJECTO":"North American Pacifi foraging, hunting and fishing peoples","BORDERPRECISION":1}},
{"type":"Feature","geometry":{"type":"Polygon","coordinates":[[[-130.48,54.97],[-129.85,55],[-128.59,55.06],[-125.7,55.19],[-114.47,52],[-105.19,51.45],[-95.57,50],[-87.79,49.93],[-72.32,46.3],[-71.03,46.75],[-66.37,50.31],[-60.14,50.41],[-56.13,53.47],[-60.17,53.3],[-60.22,53.32],[-65.64,55.26],[-71.03,55.2],[-74.2,52.93],[-78.74,52.74],[-82.2,54.97],[-92.4,56.98],[-102.14,57.21],[-111.28,58.55],[-118.2,62.71],[-124.94,64.83],[-132.43,62.5],[-139.52,62.42],[-150.13,63.32],[-160.94,63.98],[-165.9,61.27],[-162,58.83],[-158.29,58.73],[-149.33,60.03],[-139.57,59.9],[-134.12,58.24],[-130.66,54.96],[-130.48,54.97]]]},"properties":{"NAME":"Subarctic forest hunter-gatherers","SUBJECTO":"Subarctic forest hunter-gatherers","BORDERPRECISION":1}},
{"type":"Feature","geometry":{"type":"Polygon","coordinates":[[[142.34,-10.92],[140.8,-17.56],[135.39,-14.9],[136.66,-12.62],[133.56,-11.95],[130.46,-12.76],[129.2,-14.99],[126.85,-13.78],[122.74,-16.58],[120.87,-19.68],[116.42,-20.84],[113.63,-22.57],[113.43,-26.57],[115.75,-32.21],[115.05,-34.42],[118.21,-35.09],[123.62,-33.92],[126.06,-32.43],[131.28,-31.63],[133.84,-32.34],[135.53,-35.05],[137.46,-33.31],[140.01,-37.64],[143.36,-38.97],[149.5,-37.93],[152.97,-31.42],[153.07,-26.23],[150.75,-22.81],[146.32,-19.08],[145.18,-15.05],[143.74,-14.47],[142.34,-10.92]]]},"properties":{"NAME":"Australian aboriginal hunter-gatherers","SUBJECTO":"Australian aboriginal hunter-gatherers","BORDERPRECISION":1}},
{"type":"Feature","geometry":{"type":"Polygon","coordinates":[[[92.62,20.44],[95.33,15.68],[97.57,16.45],[98.74,11.44],[98.18,8.6],[100.14,6.18],[101.34,2.78],[103.34,4.81],[100.61,6.98],[99.07,9.9],[99.9,12.08],[106.48,9.55],[109.07,11.64],[108.24,16.08],[105.53,18.84],[107.9,21.48],[110.08,20.87],[116.34,22.91],[118.81,24.85],[120.67,27.85],[118.88,28.72],[118.82,28.67],[117.73,27.77],[109.05,23.96],[105.67,23.04],[102.19,22.1],[96.74,21.54],[92.62,20.44]]]},"properties":{"NAME":"Austro-Asiatic rice farmers","SUBJECTO":"Austro-Asiatic rice farmers","BORDERPRECISION":1}},
{"type":"Feature","geometry":{"type":"Polygon","coordinates":[[[-1.65,43.44],[-7.64,43.72],[-9.55,38.77],[-8.67,37.12],[-2.24,36.73],[1.35,41.16],[-1.65,43.44]]]},"properties":{"NAME":"Celtiberians","SUBJECTO":"Celtiberians","BORDERPRECISION":1}},
{"type":"Feature","geometry":{"type":"Polygon","coordinates":[[[18.81,30.27],[10.02,34.08],[10.13,37.1],[1.06,36.46],[-2.04,35.05],[-5.93,35.73],[-9.22,32.58],[-9.61,30.17],[-4.99,31.79],[5.88,32.19],[17.58,28.38],[18.81,30.27]]]},"properties":{"NAME":"Berbers","SUBJECTO":"Berbers","BORDERPRECISION":1}},
{"type":"Feature","geometry":{"type":"Polygon","coordinates":[[[-17.03,14.56],[-16.77,12.6],[-13.68,9.92],[-12.26,7.35],[-7.53,4.34],[-5,5.24],[-2.03,4.7],[3.95,6.58],[5.36,5.37],[12.6,7.73],[22.22,6.2],[33.93,2.84],[36.02,1.3],[38.77,-2.27],[40.86,0.32],[44.14,1.15],[48.47,5.2],[50.78,9.37],[51.18,11.78],[44.28,10.4],[42.08,13.86],[39.24,16.25],[30.6,11.12],[24.07,11.18],[17.75,12.83],[8.27,12.37],[2.35,13.29],[-6.26,13.35],[-13.4,14.92],[-17.03,14.56]],[[34.23,11.71],[37.13,11.64],[39.14,9.06],[38.61,6.6],[35.58,5.53],[33.02,6.86],[32.35,9.53],[34.23,11.71]]]},"properties":{"NAME":"West African cereal farmers","SUBJECTO":"West African cereal farmers","BORDERPRECISION":1}},
{"type":"Feature","geometry":{"type":"MultiPolygon","coordinates":[[[[5.36,5.37],[8.87,4.62],[9.92,2.82],[9.2,-0.63],[11.77,-4.54],[13.39,-8.16],[13.65,-12.2],[12.59,-13.46],[11.77,-17.6],[14.42,-22.27],[15.45,-27.62],[18.18,-31.81],[18.49,-34.4],[26.66,-33.85],[32.23,-28.74],[33.35,-25.3],[34.88,-24.72],[34.73,-19.86],[39.47,-16.72],[40.6,-14.4],[38.92,-6.34],[40.23,-3.19],[44.14,1.15],[40.86,0.32],[38.77,-2.27],[36.02,1.3],[33.93,2.84],[22.22,6.2],[12.6,7.73],[5.36,5.37]]],[[[44.92,-16.2],[43.67,-24.23],[47.26,-24.77],[50.5,-15.31],[49.82,-12.83],[44.92,-16.2]]]]},"properties":{"NAME":"Khoiasan","SUBJECTO":"Khoiasan","BORDERPRECISION":1}},
{"type":"Feature","geometry":{"type":"Polygon","coordinates":[[[33.35,23.35],[35.39,17.75],[32.83,15.93],[30.05,17.09],[29.85,20.12],[31.06,22.68],[30.94,25.96],[29.36,30.81],[20.37,32.3],[18.81,30.27],[17.58,28.38],[5.88,32.19],[-4.99,31.79],[-9.61,30.17],[-14.37,26.12],[-17.05,21],[-15.98,18.18],[-17.03,14.56],[-13.4,14.92],[-6.26,13.35],[2.35,13.29],[8.27,12.37],[17.75,12.83],[24.07,11.18],[30.6,11.12],[39.24,16.25],[37.4,18.92],[37.13,21.23],[32.32,29.54],[33.35,23.35]]]},"properties":{"NAME":"Saharan pastoral nomads","SUBJECTO":"Saharan pastoral nomads","BORDERPRECISION":1}},
{"type":"Feature","geometry":{"type":"Polygon","coordinates":[[[34.23,11.71],[32.35,9.53],[33.02,6.86],[35.58,5.53],[38.61,6.6],[39.14,9.06],[37.13,11.64],[34.23,11.71]]]},"properties":{"NAME":"Ethiopian highland farmers","SUBJECTO":"Ethiopian highland farmers","BORDERPRECISION":1}},
{"type":"Feature","geometry":{"type":"Polygon","coordinates":[[[131.51,43.14],[134.14,42.99],[140.08,48.5],[141.05,52.69],[127.34,49.98],[119.94,51.26],[116.71,54.66],[114.02,59.55],[107.96,59.82],[99.49,55.66],[99.54,55.28],[100.02,51.76],[97.06,50.49],[83.21,45.36],[81.84,43.58],[81.42,43.02],[93.2,40.41],[96.96,38.96],[105.31,39.56],[108.53,39.79],[120.37,44.19],[130.43,44.19],[131.51,43.14]]]},"properties":{"NAME":"Prot-Altaic pastoralists","SUBJECTO":"Prot-Altaic pastoralists","BORDERPRECISION":1}},
{"type":"Feature","geometry":{"type":"Polygon","coordinates":[[[51.92,55.78],[42.88,54.87],[23.77,50.3],[20.58,50.24],[20.21,47.17],[19.91,47.14],[19.94,46.02],[20.25,45.88],[21.62,45.29],[23.23,43.95],[28.76,44.58],[30.83,46.58],[37.47,44.69],[41.68,41.79],[49.67,40.24],[46.85,44.45],[50.51,46.83],[51.92,55.78]]]},"properties":{"NAME":"Cimerians","SUBJECTO":"Cimerians","BORDERPRECISION":1}},
{"type":"Feature","geometry":{"type":"Polygon","coordinates":[[[141.05,52.69],[134.99,54.85],[142.85,59.27],[148.42,59.1],[160.64,60.72],[155.47,54.92],[156.7,50.96],[161.5,55.29],[163.39,59.81],[170.34,60.28],[172.44,63.08],[171.77,65.86],[168.14,67.46],[155.89,68.17],[130.87,69.9],[124.54,71.59],[123.5,73.5],[105.4,72.75],[98.46,69.79],[75.86,61.43],[62.81,56.96],[59.09,56.43],[59.19,56.41],[65.31,55.05],[78.36,56.41],[93.7,56.48],[99.54,55.28],[99.49,55.66],[107.96,59.82],[114.02,59.55],[116.71,54.66],[119.94,51.26],[127.34,49.98],[141.05,52.69]]]},"properties":{"NAME":"Paleo-Siberian hunter-gatherers","SUBJECTO":"Paleo-Siberian hunter-gatherers","BORDERPRECISION":1}},
{"type":"Feature","geometry":{"type":"Polygon","coordinates":[[[105.4,72.75],[113.63,75.27],[103.39,77.56],[99.47,75.97],[87.69,73.9],[72.71,72.77],[62.28,69.71],[39.95,65.58],[34.73,65.78],[25.2,65.27],[21.23,62.42],[32.52,60.93],[46.11,57.71],[53.98,57.71],[53.92,57.6],[59.09,56.43],[62.81,56.96],[75.86,61.43],[98.46,69.79],[105.4,72.75]]]},"properties":{"NAME":"Finno-Ugric taiga hunter-gatherers","SUBJECTO":"Finno-Ugric taiga hunter-gatherers","BORDERPRECISION":1}},
{"type":"Feature","geometry":{"type":"Polygon","coordinates":[[[81.42,43.02],[76.52,36.6],[77.5,33.11],[81.07,29.25],[87.6,27.12],[89.68,27.14],[93.18,27.18],[96.47,27.24],[101.52,28.84],[102.41,29.41],[104.08,30.48],[102.73,34.95],[105.31,39.56],[96.96,38.96],[93.2,40.41],[81.42,43.02]]]},"properties":{"NAME":"Tibetans","SUBJECTO":"Tibetans","BORDERPRECISION":1}},
{"type":"Feature","geometry":{"type":"Polygon","coordinates":[[[116.67,32.8],[118.82,28.67],[118.88,28.72],[120.67,27.85],[121.61,31.83],[119.02,34.69],[116.67,32.8]]]},"properties":{"NAME":"Wu","SUBJECTO":"Wu","BORDERPRECISION":1}},
{"type":"Feature","geometry":{"type":"Polygon","coordinates":[[[76.52,36.6],[76.48,36.54],[71.18,34.97],[72.17,35.12],[74.17,32.34],[69.34,32.9],[69.11,33.25],[64.77,29.68],[64.06,25.39],[66.7,24.75],[69.13,21.97],[72.76,20.06],[73.84,15.39],[76.7,8.71],[79.83,10.36],[80.09,15.18],[86.12,19.81],[89.89,22.12],[89.68,27.14],[87.6,27.12],[81.07,29.25],[77.5,33.11],[76.52,36.6]],[[68.02,30.59],[71.18,31.8],[75.76,31.51],[79.59,28.19],[85.98,23.65],[82.08,21.1],[79.19,22.23],[76.9,24.39],[71.72,25.43],[69.36,27.53],[68.02,30.59]]]},"properties":{"NAME":"Dravidians","SUBJECTO":"Dravidians","BORDERPRECISION":1}},
{"type":"Feature","geometry":{"type":"Polygon","coordinates":[[[68.02,30.59],[69.36,27.53],[71.72,25.43],[76.9,24.39],[79.19,22.23],[82.08,21.1],[85.98,23.65],[79.59,28.19],[75.76,31.51],[71.18,31.8],[68.02,30.59]]]},"properties":{"NAME":"Vedic Aryans","SUBJECTO":"Vedic Aryans","BORDERPRECISION":1}},
{"type":"Feature","geometry":{"type":"Polygon","coordinates":[[[105.67,23.04],[103.13,26.18],[102.41,29.41],[101.52,28.84],[96.47,27.24],[93.18,27.18],[89.68,27.14],[89.89,22.12],[92.62,20.44],[96.74,21.54],[102.19,22.1],[105.67,23.04]]]},"properties":{"NAME":"Burmese","SUBJECTO":"Burmese","BORDERPRECISION":1}},
{"type":"Feature","geometry":{"type":"MultiPolygon","coordinates":[[[[-43.72,60],[-39.69,65.19],[-42.79,65.4],[-43.72,60]]],[[[-50.54,67.49],[-53.1,65.87],[-48.92,61.42],[-46.16,60.94],[-50.54,67.49]]],[[[-116.93,72.9],[-117.57,69.99],[-113.15,68.6],[-104.62,71.09],[-116.93,72.9]]],[[[-92.4,56.98],[-94.75,59.95],[-87.44,64.57],[-86.49,67.38],[-92.96,69.08],[-101.91,67.71],[-112.5,67.69],[-127.35,70.38],[-137.73,69.02],[-156.9,71.35],[-164.07,69.06],[-166.59,64.73],[-160.94,63.98],[-150.13,63.32],[-139.52,62.42],[-132.43,62.5],[-124.94,64.83],[-118.2,62.71],[-111.28,58.55],[-102.14,57.21],[-92.4,56.98]]],[[[-60.22,53.32],[-62.89,58.66],[-69.21,58.75],[-70.03,60.88],[-77.36,62.52],[-78.34,58.55],[-76.44,56.81],[-79.55,54.69],[-78.74,52.74],[-74.2,52.93],[-71.03,55.2],[-65.64,55.26],[-60.22,53.32]]],[[[170.34,60.28],[179.29,62.82],[180,64.95],[180,65.05],[180,65.31],[180,65.38],[180,65.96],[180,66.96],[180,67.96],[180,68.92],[175.61,69.78],[159.44,69.76],[152.13,70.66],[141.29,72.79],[137.63,71.08],[130.78,70.68],[123.5,73.5],[124.54,71.59],[130.87,69.9],[155.89,68.17],[168.14,67.46],[171.77,65.86],[172.44,63.08],[170.34,60.28]]],[[[-76.18,69.06],[-72.3,67.26],[-75.79,65.2],[-71.32,63.06],[-64.47,63.74],[-61.21,66.64],[-68.67,68.72],[-71.25,71.35],[-81.53,73.69],[-88.1,73.64],[-87.95,70.38],[-76.18,69.06]]],[[[-171.23,66.6],[-180,68.92],[-180,67.96],[-180,66.96],[-180,65.96],[-180,65.38],[-180,65.31],[-180,65.26],[-178.12,65.48],[-171.23,66.6]]]]},"properties":{"NAME":"Arctic marine mammal hunters","SUBJECTO":"Arctic marine mammal hunters","BORDERPRECISION":1}},
{"type":"Feature","geometry":{"type":"Polygon","coordinates":[[[34.73,65.78],[40.83,67.66],[29.73,69.7],[20.16,69.75],[10.16,64.1],[11.53,61.9],[17.83,62.46],[25.2,65.27],[34.73,65.78]]]},"properties":{"NAME":"Saami","SUBJECTO":"Saami","BORDERPRECISION":1}},
{"type":"Feature","geometry":{"type":"Polygon","coordinates":[[[20.25,45.88],[19.01,44.95],[21.77,41.09],[22.04,41.26],[24.62,40.88],[28.76,44.58],[23.23,43.95],[21.62,45.29],[20.25,45.88]]]},"properties":{"NAME":"Thrace","SUBJECTO":"Thrace","BORDERPRECISION":1}},
{"type":"Feature","geometry":{"type":"Polygon","coordinates":[[[19.91,47.14],[16.17,46.76],[13.57,45.73],[19.61,41.76],[19.9,39.93],[21.77,41.09],[19.01,44.95],[20.25,45.88],[19.94,46.02],[19.91,47.14]]]},"properties":{"NAME":"Illyrians","SUBJECTO":"Illyrians","BORDERPRECISION":1}},
{"type":"Feature","geometry":{"type":"Polygon","coordinates":[[[27.73,36.91],[30.59,36.76],[32,40.05],[35.68,41.62],[33.56,41.98],[27.58,40.29],[27.73,36.91]]]},"properties":{"NAME":"Phrygians","SUBJECTO":"Phrygians","BORDERPRECISION":1}},
{"type":"Feature","geometry":{"type":"Polygon","coordinates":[[[45.32,37.15],[49,38.88],[49.67,40.24],[41.68,41.79],[40.46,40.99],[41.18,39.9],[38.35,36.73],[38.81,36.77],[40.77,36.92],[41.97,37.64],[45.32,37.15]]]},"properties":{"NAME":"Urartu","SUBJECTO":"Urartu","BORDERPRECISION":1}},
{"type":"Feature","geometry":{"type":"Polygon","coordinates":[[[38.42,36.15],[38.81,36.77],[38.35,36.73],[41.18,39.9],[40.46,40.99],[35.68,41.62],[32,40.05],[30.59,36.76],[35.71,36.21],[35.13,33.23],[38.32,36.18],[38.42,36.15]]]},"properties":{"NAME":"Hittites","SUBJECTO":"Hittites","BORDERPRECISION":1}},
{"type":"Feature","geometry":{"type":"MultiPolygon","coordinates":[[[[1.35,41.16],[4.08,43.49],[12.35,44.3],[13.57,45.73],[16.17,46.76],[19.91,47.14],[20.21,47.17],[20.58,50.24],[20.61,50.45],[18.79,52.05],[5.84,53.29],[0.03,49.33],[-3.95,47.9],[-1.08,46.01],[-1.65,43.44],[1.35,41.16]]],[[[0.08,53.39],[-4.32,53.09],[-3.52,50.62],[0.19,50.73],[0.08,53.39]]]]},"properties":{"NAME":"Urnfield cultures","SUBJECTO":"Urnfield cultures","BORDERPRECISION":1}},
{"type":"Feature","geometry":{"type":"Polygon","coordinates":[[[124.41,39.6],[124.74,38.28],[126.21,37.75],[126.39,37.61],[126.44,37.47],[126.66,37.22],[126.73,37.14],[126.77,37.1],[126.79,37.07],[126.79,37.01],[126.8,36.95],[126.8,36.94],[126.69,36.84],[126.39,36.96],[126.36,36.95],[126.31,36.93],[126.25,36.91],[126.19,36.86],[125.96,36.72],[126.36,36.63],[126.44,36.13],[126.63,35.93],[126.23,35.16],[126.41,34.27],[126.5,34.33],[126.62,34.41],[126.67,34.41],[126.82,34.43],[126.83,34.44],[126.99,34.55],[127.23,34.71],[127.36,34.8],[129.06,35.17],[129.25,37.01],[128.45,38.26],[128.27,38.42],[128.14,38.53],[127.96,38.69],[127.4,39.08],[127.28,39.22],[128.34,40.02],[124.41,39.6]]]},"properties":{"NAME":"Paleo-Koreans","SUBJECTO":"Paleo-Koreans","BORDERPRECISION":1}},
{"type":"Feature","geometry":{"type":"Polygon","coordinates":[[[136.59,34.68],[140.32,35.03],[139.2,37.92],[136.59,34.68]]]},"properties":{"NAME":"Late Jomon culture","SUBJECTO":"Late Jomon culture","BORDERPRECISION":1}},
{"type":"Feature","geometry":{"type":"Polygon","coordinates":[[[140.01,41.38],[143.21,41.93],[145.06,43.79],[141.88,45.44],[140.01,41.38]]]},"properties":{"NAME":"Ainu","SUBJECTO":"Ainu","BORDERPRECISION":1}},
{"type":"Feature","geometry":{"type":"MultiPolygon","coordinates":[[[[51.92,55.78],[53.1,55.9],[53.92,57.6],[53.98,57.71],[46.11,57.71],[32.52,60.93],[21.23,62.42],[23.66,59.84],[21.14,54.85],[14.47,53.88],[5.84,53.29],[18.79,52.05],[20.61,50.45],[20.58,50.24],[23.77,50.3],[42.88,54.87],[51.92,55.78]]],[[[10.16,64.1],[5.15,61.74],[5.62,58.46],[10.55,59.38],[13.3,55.3],[15.77,56.03],[19.04,59.86],[17.83,62.46],[11.53,61.9],[10.16,64.1]]]]},"properties":{"NAME":"N. European Bronze Age cultures","SUBJECTO":"N. European Bronze Age cultures","BORDERPRECISION":1}},
{"type":"Feature","geometry":{"type":"Polygon","coordinates":[[[99.54,55.28],[93.7,56.48],[78.36,56.41],[65.31,55.05],[59.19,56.41],[59.09,56.43],[53.92,57.6],[53.1,55.9],[51.92,55.78],[50.51,46.83],[52.86,45.67],[53.28,45.33],[55.93,46.36],[58.48,42.22],[63.6,41.31],[75.57,42.12],[81.84,43.58],[83.21,45.36],[97.06,50.49],[100.02,51.76],[99.54,55.28]]]},"properties":{"NAME":"Karasuk culture","SUBJECTO":"Karasuk culture","BORDERPRECISION":1}},
{"type":"Feature","geometry":{"type":"Polygon","coordinates":[[[58.37,25.55],[64.06,25.39],[64.77,29.68],[69.11,33.25],[68.96,33.47],[70.51,34.87],[71.18,34.97],[76.48,36.54],[76.52,36.6],[81.42,43.02],[81.84,43.58],[75.57,42.12],[63.6,41.31],[58.48,42.22],[55.93,46.36],[53.28,45.33],[51.17,43.72],[54.07,36.94],[54.5,35.34],[51.88,32.33],[54.3,30.66],[59.33,29.54],[58.37,25.55]]]},"properties":{"NAME":"Iranian pastoralists","SUBJECTO":"Iranian pastoralists","BORDERPRECISION":1}},
{"type":"Feature","geometry":{"type":"Polygon","coordinates":[[[51.88,32.33],[54.5,35.34],[54.07,36.94],[51.8,36.43],[49,38.88],[45.32,37.15],[46.11,34.69],[49.45,32.52],[51.88,32.33]]]},"properties":{"NAME":"state societies and Aramaean kingdoms","SUBJECTO":"state societies and Aramaean kingdoms","BORDERPRECISION":1}},
{"type":"Feature","geometry":{"type":"Polygon","coordinates":[[[49.45,32.52],[48.09,31],[44.39,31.74],[44,33.37],[40.79,35.22],[41.97,37.64],[40.77,36.92],[38.81,36.77],[38.42,36.15],[38.51,36.12],[35.1,29.34],[35.03,28.98],[42.93,30.78],[47.61,29.27],[49.02,30.43],[49.45,32.52]]]},"properties":{"NAME":"Arameans","SUBJECTO":"Arameans","BORDERPRECISION":1}},
{"type":"Feature","geometry":{"type":"Polygon","coordinates":[[[119.39,39.84],[124.41,39.6],[128.34,40.02],[131.51,43.14],[130.43,44.19],[120.37,44.19],[108.53,39.79],[105.31,39.56],[102.73,34.95],[104.08,30.48],[102.41,29.41],[103.13,26.18],[105.67,23.04],[109.05,23.96],[117.73,27.77],[118.82,28.67],[116.67,32.8],[114.01,30.66],[113.06,28.82],[109.67,29.18],[106.46,27.16],[104.8,28.05],[104.68,29.83],[106.64,32.57],[105.34,35.06],[109.2,36.07],[113.48,39.99],[119.39,39.84]]]},"properties":{"NAME":"Sinic","SUBJECTO":"Sinic","BORDERPRECISION":1}},
{"type":"Feature","geometry":{"type":"Polygon","coordinates":[[[21.77,41.09],[19.9,39.93],[22.72,39.29],[24.62,40.88],[22.04,41.26],[21.77,41.09]]]},"properties":{"NAME":"Greek city-states","SUBJECTO":"Greek city-states","BORDERPRECISION":1}},
{"type":"Feature","geometry":{"type":"Polygon","coordinates":[[[-94.12,29.69],[-90.78,29.11],[-89.23,30.41],[-83.89,30.05],[-81.1,25.13],[-80.05,26.55],[-81.51,30.73],[-80.58,32.5],[-76.62,34.76],[-73.74,40.98],[-70.3,41.76],[-70.22,43.8],[-64.53,46.27],[-66.03,49.17],[-71.03,46.75],[-72.32,46.3],[-87.79,49.93],[-95.57,50],[-94.23,46.72],[-94.12,35.88],[-97.14,34.47],[-94.12,31.93],[-94.12,29.69]]]},"properties":{"NAME":"Eastern North Amercian hunter-gatherers","SUBJECTO":"Eastern North Amercian hunter-gatherers","BORDERPRECISION":1}},
{"type":"Feature","geometry":{"type":"Polygon","coordinates":[[[71.18,34.97],[70.51,34.87],[68.96,33.47],[69.11,33.25],[69.34,32.9],[74.17,32.34],[72.17,35.12],[71.18,34.97]]]},"properties":{"NAME":"Gandhara grave culture","SUBJECTO":"Gandhara grave culture","BORDERPRECISION":1}}
]}