{"type":"FeatureCollection", "features": [
{"type":"Feature","geometry":{"type":"Polygon","coordinates":[[[5.82,49.51],[6.43,49.45],[6.11,50.12],[5.82,49.51]]]},"properties":{"NAME":"Luxembourg","SUBJECTO":"Luxembourg","BORDERPRECISION":3}},
{"type":"Feature","geometry":{"type":"Polygon","coordinates":[[[32.66,35.14],[32.6,34.61],[33.68,34.94],[32.66,35.14]]]},"properties":{"NAME":"Cyprus","SUBJECTO":"Cyprus","BORDERPRECISION":3}},
{"type":"Feature","geometry":{"type":"MultiPolygon","coordinates":[[[[136.72,37.27],[134.43,34.63],[140.32,35.03],[140.87,37.92],[142,39.67],[141.15,40.87],[139.2,37.92],[136.72,37.27]]],[[[130.74,30.89],[131.83,32.69],[129.34,33.15],[130.74,30.89]]],[[[140.11,41.27],[141.93,42.5],[143.21,41.93],[145.06,43.79],[141.88,45.44],[140.11,41.27]]]]},"properties":{"NAME":"Japan","SUBJECTO":"Japan","BORDERPRECISION":3}},
{"type":"Feature","geometry":{"type":"Polygon","coordinates":[[[91.61,27.64],[88.8,27.18],[90,26.78],[91.61,27.64]]]},"properties":{"NAME":"Bhutan","SUBJECTO":"Bhutan","BORDERPRECISION":3}},
{"type":"Feature","geometry":{"type":"Polygon","coordinates":[[[-17.02,21.31],[-13.02,21.28],[-11.99,23.48],[-11.89,25.9],[-8.69,25.91],[-8.63,27.17],[-8.64,27.57],[-13.12,27.55],[-14.37,26.12],[-17.02,21.31]]]},"properties":{"NAME":"Western Sahara","SUBJECTO":"Western Sahara","BORDERPRECISION":3}},
{"type":"Feature","geometry":{"type":"Polygon","coordinates":[[[51.29,24.41],[50.97,24.44],[51.12,24.4],[51.29,24.41]]]},"properties":{"NAME":"Qatar","SUBJECTO":"Qatar","BORDERPRECISION":3}},
{"type":"Feature","geometry":{"type":"Polygon","coordinates":[[[51.12,24.4],[51.95,22.48],[55.7,22.3],[56.41,24.92],[56.16,25.47],[56.16,25.97],[54.35,24.15],[51.29,24.41],[51.12,24.4]]]},"properties":{"NAME":"United Arab Emirates","SUBJECTO":"United Arab Emirates","BORDERPRECISION":3}},
{"type":"Feature","geometry":{"type":"Polygon","coordinates":[[[-4.87,24.99],[-6.56,24.9],[-6.12,20.96],[-5.48,15.47],[-10.65,15.43],[-11.9,14.81],[-11.42,12.4],[-9.12,12.46],[-7.91,10.12],[-5.56,10.36],[-4.22,13.24],[-0.69,15.09],[0.27,14.96],[3.4,15.34],[4.25,17.26],[4.2,19.14],[1.84,20.16],[1.09,21.13],[-4.87,24.99]]]},"properties":{"NAME":"Mali","SUBJECTO":"Mali","BORDERPRECISION":3}},
{"type":"Feature","geometry":{"type":"Polygon","coordinates":[[[55.7,22.3],[56.03,21.24],[51.81,18.98],[53.02,16.65],[55.19,17.15],[57.84,19.03],[59.84,22.28],[56.41,24.92],[55.7,22.3]]]},"properties":{"NAME":"Oman","SUBJECTO":"Oman","BORDERPRECISION":3}},
{"type":"Feature","geometry":{"type":"Polygon","coordinates":[[[0.27,14.96],[0.98,13.02],[2.32,12.17],[3.61,11.72],[4.19,13.48],[9.06,12.82],[12.25,13.08],[13.54,13.66],[13.48,14.4],[15.49,16.89],[15.96,20.32],[14.97,22.97],[11.96,23.47],[7.54,20.92],[5.78,19.44],[4.2,19.14],[4.25,17.26],[3.4,15.34],[0.27,14.96]]]},"properties":{"NAME":"Niger","SUBJECTO":"Niger","BORDERPRECISION":3}},
{"type":"Feature","geometry":{"type":"Polygon","coordinates":[[[13.54,13.66],[14.03,13.06],[15.16,10.37],[13.91,9.55],[15.56,7.5],[18.54,8.01],[22.82,10.91],[21.78,12.8],[23.01,15.68],[23.95,15.7],[23.95,19.47],[15.97,23.38],[14.97,22.97],[15.96,20.32],[15.49,16.89],[13.48,14.4],[13.54,13.66]]]},"properties":{"NAME":"Chad","SUBJECTO":"Chad","BORDERPRECISION":3}},
{"type":"Feature","geometry":{"type":"Polygon","coordinates":[[[101.97,22.53],[102.99,20.94],[104.72,20.2],[104.81,18.72],[107.11,16.17],[107.39,14.58],[107.38,12.35],[104.39,10.31],[104.74,8.49],[109.07,11.64],[109.31,12.91],[108.24,16.08],[105.53,18.84],[107.88,21.46],[105.31,23.3],[101.97,22.53]]]},"properties":{"NAME":"Vietnam","SUBJECTO":"Vietnam","BORDERPRECISION":3}},
{"type":"Feature","geometry":{"type":"Polygon","coordinates":[[[-82.18,22.37],[-77.29,20.7],[-77.34,21.51],[-81.43,23.14],[-82.18,22.37]]]},"properties":{"NAME":"Cuba","SUBJECTO":"Cuba","BORDERPRECISION":3}},
{"type":"Feature","geometry":{"type":"Polygon","coordinates":[[[101.97,22.53],[101.01,21.44],[100,20.46],[101.86,18.11],[103.93,18.28],[105.47,15.15],[105.06,14.24],[107.39,14.58],[107.11,16.17],[104.81,18.72],[104.72,20.2],[102.99,20.94],[101.97,22.53]]]},"properties":{"NAME":"Laos","SUBJECTO":"Laos","BORDERPRECISION":3}},
{"type":"Feature","geometry":{"type":"MultiPolygon","coordinates":[[[[-122.9,49.07],[-124.68,48.39],[-123.99,45.76],[-124.63,43.01],[-123.8,39.03],[-120.53,34.51],[-118.6,34.1],[-117.17,32.52],[-114.62,32.43],[-111.09,31.31],[-106.54,31.7],[-103.59,29.06],[-101.03,29.33],[-99.1,26.41],[-97.26,25.81],[-97.63,27.23],[-94.14,29.69],[-90,29.11],[-89.23,30.41],[-83.89,30.05],[-81.1,25.13],[-80.05,26.55],[-81.51,30.73],[-80.58,32.5],[-76.62,34.76],[-75.73,35.88],[-75.67,37.9],[-73.74,40.98],[-70.3,41.76],[-70.22,43.8],[-67.19,45.25],[-69.05,47.46],[-70.59,45.29],[-74.78,45.01],[-76.13,44.33],[-76.94,43.24],[-79.14,43.22],[-79.05,42.85],[-83.06,42.03],[-82.3,43.03],[-83.82,46.15],[-84.74,46.47],[-87.76,46.86],[-89.62,47.97],[-94.82,49.05],[-104.26,49.06],[-115.16,49.06],[-122.9,49.07]]],[[[-141.06,69.6],[-156.9,71.35],[-164.07,69.06],[-163.74,67.22],[-168.18,65.69],[-166.59,64.73],[-161.13,63.56],[-165.43,62.43],[-165.9,61.27],[-162,58.83],[-158.29,58.73],[-156.68,57.4],[-154.28,59.25],[-149.33,60.03],[-148.49,61.06],[-144.41,60.09],[-139.57,59.9],[-137.58,58.6],[-134.12,58.24],[-131.77,56.01],[-130,55.29],[-135.85,59.65],[-140.89,60.39],[-140.97,66.03],[-141.06,69.6]]]]},"properties":{"NAME":"United States","SUBJECTO":"United States","BORDERPRECISION":3}},
{"type":"Feature","geometry":{"type":"Polygon","coordinates":[[[91.61,27.64],[94.57,29.2],[97.34,28.18],[98.73,26.34],[97.52,24.8],[98.77,24.09],[99.16,22.31],[101.01,21.44],[101.97,22.53],[105.31,23.3],[107.88,21.46],[110.08,20.87],[113.72,22.48],[116.34,22.91],[118.81,24.85],[119.43,26.59],[121.36,28.39],[121.61,31.83],[119.02,34.69],[120.14,36.19],[117.59,38.28],[121.01,40.85],[124.13,39.84],[126.47,41.65],[128.1,41.45],[130.23,42.65],[130.99,44.82],[132.78,44.99],[134.11,48.25],[130.92,47.73],[130.48,48.9],[127.71,49.7],[125.51,53.16],[121.19,53.32],[119.18,50.7],[116.76,49.93],[115.6,48.1],[116.48,46.31],[109.38,42.44],[105.02,41.59],[101.74,42.54],[96.41,42.75],[95.24,44.28],[90,45.33],[90,47.84],[87.87,49.23],[87.4,49.19],[83.25,47.29],[82.44,45.74],[80.24,45.12],[80.26,42.24],[78.4,41.23],[75.43,40.61],[73.76,39.45],[74.73,37.21],[74.52,37],[77.62,35.41],[79.57,32.7],[79.11,31.46],[81.02,30.25],[81.66,30.45],[85.14,28.34],[88.2,27.88],[88.8,27.18],[91.61,27.64]]]},"properties":{"NAME":"China","SUBJECTO":"China","BORDERPRECISION":3}},
{"type":"Feature","geometry":{"type":"Polygon","coordinates":[[[-71.78,19.77],[-72.75,18.51],[-71.68,18],[-71.78,19.77]]]},"properties":{"NAME":"Haiti","SUBJECTO":"Haiti","BORDERPRECISION":3}},
{"type":"Feature","geometry":{"type":"Polygon","coordinates":[[[-71.68,18],[-68.66,18.87],[-71.78,19.77],[-71.68,18]]]},"properties":{"NAME":"Dominican Republic","SUBJECTO":"Dominican Republic","BORDERPRECISION":3}},
{"type":"Feature","geometry":{"type":"MultiPolygon","coordinates":[[[[120.36,14.53],[122.4,17.11],[120.39,18.04],[119.77,15.47],[120.36,14.53]]],[[[126.05,6.61],[125.93,9.17],[123.46,7.79],[124.22,6.09],[126.05,6.61]]]]},"properties":{"NAME":"Philippines","SUBJECTO":"Philippines","BORDERPRECISION":3}},
{"type":"Feature","geometry":{"type":"Polygon","coordinates":[[[-66.91,17.94],[-65.97,18.03],[-65.95,18.47],[-67.06,18.55],[-66.91,17.94]]]},"properties":{"NAME":"Puerto Rico","SUBJECTO":"Puerto Rico","BORDERPRECISION":3}},
{"type":"Feature","geometry":{"type":"Polygon","coordinates":[[[-77.29,17.81],[-76.43,18.12],[-77.77,18.51],[-77.29,17.81]]]},"properties":{"NAME":"Jamaica","SUBJECTO":"Jamaica","BORDERPRECISION":3}},
{"type":"Feature","geometry":{"type":"Polygon","coordinates":[[[-5.56,10.36],[-2.84,9.57],[-2.7,10.93],[0.06,11.06],[0.93,10.9],[2.32,12.17],[0.98,13.02],[0.27,14.96],[-0.69,15.09],[-4.22,13.24],[-5.56,10.36]]]},"properties":{"NAME":"Burkina Faso","SUBJECTO":"Burkina Faso","BORDERPRECISION":3}},
{"type":"Feature","geometry":{"type":"Polygon","coordinates":[[[-85.84,11.08],[-83.75,10.88],[-83.42,15],[-84.83,14.77],[-87.4,13.03],[-85.84,11.08]]]},"properties":{"NAME":"Nicaragua","SUBJECTO":"Nicaragua","BORDERPRECISION":3}},
{"type":"Feature","geometry":{"type":"Polygon","coordinates":[[[107.39,14.58],[105.06,14.24],[103.08,14.29],[102.67,12.04],[104.39,10.31],[107.38,12.35],[107.39,14.58]]]},"properties":{"NAME":"Cambodia","SUBJECTO":"Cambodia","BORDERPRECISION":3}},
{"type":"Feature","geometry":{"type":"Polygon","coordinates":[[[-85.84,11.08],[-85.78,10.14],[-83.61,9.15],[-82.96,8.05],[-82.56,9.58],[-83.75,10.88],[-85.84,11.08]]]},"properties":{"NAME":"Costa Rica","SUBJECTO":"Costa Rica","BORDERPRECISION":3}},
{"type":"Feature","geometry":{"type":"Polygon","coordinates":[[[15.56,7.5],[14.4,5.83],[16.08,2.13],[16.55,3.31],[18.5,3.53],[19.58,5.08],[22.42,4.07],[25.49,5.31],[27.24,5.16],[26.95,5.87],[23.52,8.61],[22.82,10.91],[18.54,8.01],[15.56,7.5]]]},"properties":{"NAME":"Central African Republic","SUBJECTO":"Central African Republic","BORDERPRECISION":3}},
{"type":"Feature","geometry":{"type":"Polygon","coordinates":[[[-13.16,8.85],[-11.47,6.84],[-10.38,8.08],[-11.29,9.9],[-13.16,8.85]]]},"properties":{"NAME":"Sierra Leone","SUBJECTO":"Sierra Leone","BORDERPRECISION":3}},
{"type":"Feature","geometry":{"type":"Polygon","coordinates":[[[80.56,5.93],[81.87,7.08],[80.66,9.3],[79.67,8.8],[80.56,5.93]]]},"properties":{"NAME":"Sri Lanka","SUBJECTO":"Sri Lanka","BORDERPRECISION":3}},
{"type":"Feature","geometry":{"type":"Polygon","coordinates":[[[-82.96,8.05],[-80.81,7.27],[-79.72,8.88],[-78.18,8.41],[-77.9,7.17],[-77.49,8.66],[-79.5,9.64],[-80.96,8.86],[-82.56,9.58],[-82.96,8.05]]]},"properties":{"NAME":"Panama","SUBJECTO":"Panama","BORDERPRECISION":3}},
{"type":"Feature","geometry":{"type":"Polygon","coordinates":[[[-60.55,5.01],[-59.51,3.97],[-59.94,2.73],[-58.85,1.15],[-56.71,1.89],[-58,3.96],[-57.07,5.84],[-59.83,8.44],[-61.25,5.87],[-60.55,5.01]]]},"properties":{"NAME":"Guyana","SUBJECTO":"Guyana","BORDERPRECISION":3}},
{"type":"Feature","geometry":{"type":"Polygon","coordinates":[[[-11.47,6.84],[-7.56,4.35],[-7.42,5.73],[-8.3,7.44],[-10.38,8.08],[-11.47,6.84]]]},"properties":{"NAME":"Liberia","SUBJECTO":"Liberia","BORDERPRECISION":3}},
{"type":"Feature","geometry":{"type":"Polygon","coordinates":[[[18.5,3.53],[17.45,-0.85],[16.1,-2.33],[15.99,-3.67],[13.02,-4.77],[12.2,-5.75],[12.34,-6.19],[16.41,-5.97],[17.6,-8.12],[19.55,-7.03],[21.61,-7.34],[21.69,-9.42],[22.55,-11.16],[23.94,-11.04],[27.45,-12.19],[28.31,-11.51],[28.47,-9.3],[30.66,-8.29],[29.52,-6.44],[29.35,-4.75],[28.89,-2.77],[29.53,-1.43],[29.77,0.44],[31.16,1.8],[30.74,3.51],[29.69,4.52],[28.06,4.27],[27.24,5.16],[25.49,5.31],[22.42,4.07],[19.58,5.08],[18.5,3.53]]]},"properties":{"NAME":"Zaire","SUBJECTO":"Zaire","BORDERPRECISION":3}},
{"type":"Feature","geometry":{"type":"Polygon","coordinates":[[[30.66,-8.29],[33.2,-9.66],[34.49,-11.6],[38.61,-11.44],[40.47,-10.48],[39.66,-9.8],[38.92,-6.34],[39.23,-4.84],[37.62,-3.17],[33.27,-1.13],[30.6,-1.15],[30.46,-2.48],[29.35,-4.75],[29.52,-6.44],[30.66,-8.29]]]},"properties":{"NAME":"Tanzania, United Republic of","SUBJECTO":"Tanzania, United Republic of","BORDERPRECISION":3}},
{"type":"Feature","geometry":{"type":"Polygon","coordinates":[[[28.89,-2.77],[30.46,-2.48],[30.6,-1.15],[29.53,-1.43],[28.89,-2.77]]]},"properties":{"NAME":"Rwanda","SUBJECTO":"Rwanda","BORDERPRECISION":3}},
{"type":"Feature","geometry":{"type":"Polygon","coordinates":[[[29.35,-4.75],[30.46,-2.48],[28.89,-2.77],[29.35,-4.75]]]},"properties":{"NAME":"Burundi","SUBJECTO":"Burundi","BORDERPRECISION":3}},
{"type":"Feature","geometry":{"type":"MultiPolygon","coordinates":[[[[12.34,-6.19],[13.39,-8.16],[13.65,-12.2],[12.59,-13.46],[11.78,-17.34],[18.45,-17.51],[21.46,-18.02],[23.23,-17.66],[21.99,-16.38],[21.96,-13.07],[23.78,-13.01],[23.94,-11.04],[22.55,-11.16],[21.69,-9.42],[21.61,-7.34],[19.55,-7.03],[17.6,-8.12],[16.41,-5.97],[12.34,-6.19]]],[[[13.02,-4.77],[12,-5],[12.2,-5.75],[13.02,-4.77]]]]},"properties":{"NAME":"Angola","SUBJECTO":"Angola","BORDERPRECISION":3}},
{"type":"Feature","geometry":{"type":"Polygon","coordinates":[[[23.94,-11.04],[23.78,-13.01],[21.96,-13.07],[21.99,-16.38],[23.23,-17.66],[25,-17.81],[25.35,-18.01],[26.89,-18.11],[29.08,-16.01],[30.4,-15.67],[33.11,-14.05],[33.2,-9.66],[30.66,-8.29],[28.47,-9.3],[28.31,-11.51],[27.45,-12.19],[23.94,-11.04]]]},"properties":{"NAME":"Zambia","SUBJECTO":"Zambia","BORDERPRECISION":3}},
{"type":"Feature","geometry":{"type":"Polygon","coordinates":[[[33.2,-9.66],[33.11,-14.05],[34.48,-14.74],[34.49,-11.6],[33.2,-9.66]]]},"properties":{"NAME":"Malawi","SUBJECTO":"Malawi","BORDERPRECISION":3}},
{"type":"Feature","geometry":{"type":"Polygon","coordinates":[[[-69.59,-10.9],[-68.64,-12.58],[-69.24,-14.74],[-69.43,-17.6],[-68.64,-20.44],[-67.19,-22.98],[-66.15,-21.92],[-62.61,-22.16],[-61.55,-19.64],[-58.14,-19.81],[-57.6,-18.04],[-58.33,-16.37],[-60.03,-16.33],[-60.36,-13.9],[-64.26,-12.47],[-66.31,-9.84],[-68.5,-11.09],[-69.59,-10.9]]]},"properties":{"NAME":"Bolivia","SUBJECTO":"Bolivia","BORDERPRECISION":3}},
{"type":"Feature","geometry":{"type":"Polygon","coordinates":[[[34.49,-11.6],[34.48,-14.74],[33.11,-14.05],[30.4,-15.67],[32.65,-16.61],[33.06,-19.93],[31.28,-22.56],[32.01,-26.08],[32.16,-27.01],[32.85,-26.98],[32.5,-26.07],[34.88,-24.72],[35.26,-22.27],[34.73,-19.86],[37.28,-17.71],[39.47,-16.72],[40.6,-14.4],[40.47,-10.48],[38.61,-11.44],[34.49,-11.6]]]},"properties":{"NAME":"Mozambique","SUBJECTO":"Mozambique","BORDERPRECISION":3}},
{"type":"Feature","geometry":{"type":"Polygon","coordinates":[[[44.67,-16.24],[43.97,-17.55],[44.47,-20.17],[43.5,-21.49],[43.67,-24.23],[45.58,-25.62],[47.26,-24.77],[49.34,-18.23],[50.5,-15.31],[49.82,-12.83],[46.92,-15.36],[44.67,-16.24]]]},"properties":{"NAME":"Madagascar","SUBJECTO":"Madagascar","BORDERPRECISION":3}},
{"type":"Feature","geometry":{"type":"Polygon","coordinates":[[[25.35,-18.01],[27.97,-21.58],[29.23,-22.19],[31.28,-22.56],[33.06,-19.93],[32.65,-16.61],[30.4,-15.67],[29.08,-16.01],[26.89,-18.11],[25.35,-18.01]]]},"properties":{"NAME":"Zimbabwe","SUBJECTO":"Zimbabwe","BORDERPRECISION":3}},
{"type":"Feature","geometry":{"type":"Polygon","coordinates":[[[11.78,-17.34],[14.57,-22.76],[14.44,-23.41],[15.45,-27.62],[16.33,-28.56],[19.13,-28.95],[19.87,-28.35],[19.84,-24.94],[19.89,-22.11],[20.92,-22.06],[20.95,-18.4],[25,-17.81],[23.23,-17.66],[21.46,-18.02],[18.45,-17.51],[11.78,-17.34]]]},"properties":{"NAME":"Namibia","SUBJECTO":"Namibia","BORDERPRECISION":3}},
{"type":"Feature","geometry":{"type":"MultiPolygon","coordinates":[[[[-69.43,-17.6],[-70.36,-18.45],[-70.11,-21.75],[-70.4,-25.25],[-71.43,-29.1],[-71.62,-33.71],[-73.67,-37.5],[-73.19,-39.57],[-73.91,-40.84],[-72.44,-42.3],[-73,-43.33],[-74.31,-48.75],[-73.41,-52.02],[-70.73,-52.8],[-68.46,-52.42],[-71.79,-52.09],[-73.51,-49.76],[-72.46,-48.85],[-71.32,-44.81],[-71.86,-40.75],[-70.84,-38.73],[-71.1,-36.81],[-69.84,-33.76],[-70.5,-31.69],[-69.95,-29.36],[-68.25,-26.98],[-68.39,-24.6],[-67.19,-22.98],[-68.64,-20.44],[-69.43,-17.6]]],[[[-68.75,-54.89],[-68.71,-53.23],[-68.7,-52.72],[-68.75,-54.89]]]]},"properties":{"NAME":"Chile","SUBJECTO":"Chile","BORDERPRECISION":3}},
{"type":"Feature","geometry":{"type":"Polygon","coordinates":[[[25,-17.81],[20.95,-18.4],[20.92,-22.06],[19.89,-22.11],[19.84,-24.94],[20.77,-26.95],[22.94,-25.45],[25.38,-25.84],[25.86,-24.87],[29.23,-22.19],[27.97,-21.58],[25.35,-18.01],[25,-17.81]]]},"properties":{"NAME":"Botswana","SUBJECTO":"Botswana","BORDERPRECISION":3}},
{"type":"Feature","geometry":{"type":"Polygon","coordinates":[[[-62.61,-22.16],[-61.24,-23.62],[-57.71,-25.34],[-58.07,-27.19],[-55.73,-27.45],[-54.58,-25.74],[-54.22,-24.12],[-55.62,-22.45],[-57.81,-22.15],[-58.14,-19.81],[-61.55,-19.64],[-62.61,-22.16]]]},"properties":{"NAME":"Paraguay","SUBJECTO":"Paraguay","BORDERPRECISION":3}},
{"type":"Feature","geometry":{"type":"Polygon","coordinates":[[[32.16,-27.01],[31.33,-27.41],[30.81,-26.75],[32.01,-26.08],[31.28,-22.56],[29.23,-22.19],[25.86,-24.87],[25.38,-25.84],[22.94,-25.45],[20.77,-26.95],[19.84,-24.94],[19.87,-28.35],[19.13,-28.95],[16.33,-28.56],[18.18,-31.81],[18.49,-34.4],[26.66,-33.85],[28.92,-32.3],[32.23,-28.74],[32.85,-26.98],[32.16,-27.01]],[[27.85,-30.79],[27.07,-29.8],[28.62,-28.72],[29.44,-29.43],[27.85,-30.79]]]},"properties":{"NAME":"South Africa","SUBJECTO":"South Africa","BORDERPRECISION":3}},
{"type":"Feature","geometry":{"type":"Polygon","coordinates":[[[32.01,-26.08],[30.81,-26.75],[31.33,-27.41],[32.16,-27.01],[32.01,-26.08]]]},"properties":{"NAME":"Swaziland","SUBJECTO":"Swaziland","BORDERPRECISION":3}},
{"type":"Feature","geometry":{"type":"Polygon","coordinates":[[[27.85,-30.79],[29.44,-29.43],[28.62,-28.72],[27.07,-29.8],[27.85,-30.79]]]},"properties":{"NAME":"Lesotho","SUBJECTO":"Lesotho","BORDERPRECISION":3}},
{"type":"Feature","geometry":{"type":"MultiPolygon","coordinates":[[[[175.31,-37.32],[174.65,-38.98],[176.01,-41.26],[178.41,-38.77],[175.31,-37.32]]],[[[172.06,-43.92],[171.46,-41.99],[168.42,-44.22],[166.52,-46.23],[169.4,-46.71],[172.06,-43.92]]]]},"properties":{"NAME":"New Zealand","SUBJECTO":"New Zealand","BORDERPRECISION":3}},
{"type":"Feature","geometry":{"type":"Polygon","coordinates":[[[-67.19,-22.98],[-68.39,-24.6],[-68.25,-26.98],[-69.95,-29.36],[-70.5,-31.69],[-69.84,-33.76],[-71.1,-36.81],[-70.84,-38.73],[-71.86,-40.75],[-71.32,-44.81],[-72.46,-48.85],[-73.51,-49.76],[-71.79,-52.09],[-68.46,-52.42],[-69.04,-50.56],[-65.78,-47.23],[-67.33,-46.53],[-65.44,-44.89],[-64.94,-40.83],[-62.96,-41.14],[-61.36,-39.03],[-57.81,-38.39],[-56.7,-36.94],[-58.34,-34.22],[-57.58,-30.4],[-53.62,-26.27],[-54.58,-25.74],[-55.73,-27.45],[-58.07,-27.19],[-57.71,-25.34],[-61.24,-23.62],[-62.61,-22.16],[-66.15,-21.92],[-67.19,-22.98]]]},"properties":{"NAME":"Argentina","SUBJECTO":"Argentina","BORDERPRECISION":3}},
{"type":"Feature","geometry":{"type":"Polygon","coordinates":[[[-24.22,65.53],[-22.37,63.77],[-18.64,63.32],[-14.82,64.2],[-16.92,65.98],[-24.22,65.53]]]},"properties":{"NAME":"Iceland","SUBJECTO":"Iceland","BORDERPRECISION":3}},
{"type":"Feature","geometry":{"type":"Polygon","coordinates":[[[28.01,59.46],[23.42,59.12],[24.35,57.86],[27.35,57.53],[28.01,59.46]]]},"properties":{"NAME":"Estonia","SUBJECTO":"Estonia","BORDERPRECISION":3}},
{"type":"Feature","geometry":{"type":"Polygon","coordinates":[[[24.35,57.86],[21.68,57.46],[20.95,56.07],[24.81,56.41],[26.59,55.67],[28.14,56.14],[27.35,57.53],[24.35,57.86]]]},"properties":{"NAME":"Latvia","SUBJECTO":"Latvia","BORDERPRECISION":3}},
{"type":"Feature","geometry":{"type":"Polygon","coordinates":[[[20.95,56.07],[21.16,55.22],[22.7,54.41],[23.53,53.92],[26.59,55.67],[24.81,56.41],[20.95,56.07]]]},"properties":{"NAME":"Lithuania","SUBJECTO":"Lithuania","BORDERPRECISION":3}},
{"type":"Feature","geometry":{"type":"Polygon","coordinates":[[[26.59,55.67],[23.53,53.92],[23.59,51.55],[28.63,51.43],[31.76,52.11],[30.44,55.79],[28.14,56.14],[26.59,55.67]]]},"properties":{"NAME":"Byelarus","SUBJECTO":"Byelarus","BORDERPRECISION":3}},
{"type":"Feature","geometry":{"type":"Polygon","coordinates":[[[-0.2,53.52],[-2.74,55.96],[-2.15,57.57],[-5.76,57.62],[-5.63,55.94],[-3.58,54.92],[-4.32,53.09],[-3.52,50.62],[0.19,50.73],[1.69,52.31],[-0.2,53.52]]]},"properties":{"NAME":"United Kingdom","SUBJECTO":"United Kingdom","BORDERPRECISION":3}},
{"type":"Feature","geometry":{"type":"Polygon","coordinates":[[[87.4,49.19],[83.66,50.96],[80.17,50.8],[78.06,53.26],[74.55,53.51],[70.94,55.26],[62.59,53.97],[59.8,50.56],[55.79,50.57],[50.98,51.67],[47,49.94],[46.57,48.41],[49.31,46.35],[51.37,47.09],[52.61,45.4],[50.87,44.63],[52.56,41.76],[54.23,42.37],[56.1,41.32],[56.12,45],[58.67,45.58],[62.15,43.49],[65.05,43.74],[66.86,41.17],[71.04,42.24],[79.3,42.8],[80.26,42.24],[80.24,45.12],[82.44,45.74],[83.25,47.29],[87.4,49.19]]]},"properties":{"NAME":"Kazakhstan","SUBJECTO":"Kazakhstan","BORDERPRECISION":3}},
{"type":"Feature","geometry":{"type":"Polygon","coordinates":[[[-7.43,55.06],[-9.89,52.19],[-6.41,52.21],[-6.21,53.96],[-7.43,55.06]]]},"properties":{"NAME":"Ireland","SUBJECTO":"Ireland","BORDERPRECISION":3}},
{"type":"Feature","geometry":{"type":"Polygon","coordinates":[[[23.59,51.55],[22.57,49.07],[22.1,48.4],[23.03,48.01],[26.61,48.26],[29.23,47.87],[29.91,46.78],[28.2,45.47],[29.62,45.41],[30.83,46.58],[33.64,45.93],[38.21,47.15],[39.77,47.87],[40.02,49.61],[35.43,50.49],[33.74,52.39],[31.76,52.11],[28.63,51.43],[23.59,51.55]]]},"properties":{"NAME":"Ukraine","SUBJECTO":"Ukraine","BORDERPRECISION":3}},
{"type":"Feature","geometry":{"type":"Polygon","coordinates":[[[116.76,49.93],[114.1,50.27],[112.52,49.46],[109.42,49.3],[106.32,50.42],[103.68,50.17],[102.12,51.36],[98.92,52.04],[97.42,49.79],[92.16,50.76],[87.87,49.23],[90,47.84],[90,45.33],[95.24,44.28],[96.41,42.75],[101.74,42.54],[105.02,41.59],[109.38,42.44],[116.48,46.31],[115.6,48.1],[116.76,49.93]]]},"properties":{"NAME":"Mongolia","SUBJECTO":"Mongolia","BORDERPRECISION":3}},
{"type":"Feature","geometry":{"type":"Polygon","coordinates":[[[6.11,50.12],[6,50.74],[3.78,51.39],[2.52,51.09],[5.82,49.51],[6.11,50.12]]]},"properties":{"NAME":"Belgium","SUBJECTO":"Belgium","BORDERPRECISION":3}},
{"type":"Feature","geometry":{"type":"Polygon","coordinates":[[[22.57,49.07],[18.84,49.56],[16.94,48.66],[17.33,47.99],[22.1,48.4],[22.57,49.07]]]},"properties":{"NAME":"Slovakia","SUBJECTO":"Slovakia","BORDERPRECISION":3}},
{"type":"Feature","geometry":{"type":"Polygon","coordinates":[[[22.1,48.4],[17.33,47.99],[16.26,46.89],[16.56,46.47],[18.82,45.89],[20.31,46.13],[23.03,48.01],[22.1,48.4]]]},"properties":{"NAME":"Hungary","SUBJECTO":"Hungary","BORDERPRECISION":3}},
{"type":"Feature","geometry":{"type":"Polygon","coordinates":[[[26.61,48.26],[28.2,45.47],[29.91,46.78],[29.23,47.87],[26.61,48.26]]]},"properties":{"NAME":"Moldova","SUBJECTO":"Moldova","BORDERPRECISION":3}},
{"type":"Feature","geometry":{"type":"Polygon","coordinates":[[[28.2,45.47],[26.61,48.26],[23.03,48.01],[20.31,46.13],[22.69,44.26],[28.51,43.74],[29.62,45.41],[28.2,45.47]]]},"properties":{"NAME":"Romania","SUBJECTO":"Romania","BORDERPRECISION":3}},
{"type":"Feature","geometry":{"type":"Polygon","coordinates":[[[16.26,46.89],[13.57,46.51],[13.8,45.57],[13.56,45.46],[16.56,46.47],[16.26,46.89]]]},"properties":{"NAME":"Slovenia","SUBJECTO":"Slovenia","BORDERPRECISION":3}},
{"type":"Feature","geometry":{"type":"MultiPolygon","coordinates":[[[[16.56,46.47],[13.56,45.46],[15.41,43.93],[17.55,42.92],[15.76,44.79],[19.05,44.86],[18.82,45.89],[16.56,46.47]]],[[[17.65,42.86],[18.51,42.36],[18.46,42.56],[17.65,42.86]]]]},"properties":{"NAME":"Croatia","SUBJECTO":"Croatia","BORDERPRECISION":3}},
{"type":"Feature","geometry":{"type":"Polygon","coordinates":[[[18.82,45.89],[19.05,44.86],[19.22,43.51],[20.05,42.49],[20.58,41.88],[22.33,42.34],[22.69,44.26],[20.31,46.13],[18.82,45.89]]]},"properties":{"NAME":"Serbia","SUBJECTO":"Serbia","BORDERPRECISION":3}},
{"type":"Feature","geometry":{"type":"Polygon","coordinates":[[[56.1,41.32],[58.89,42.7],[61.98,41.2],[63.86,39.19],[66.75,38.01],[66.63,37.25],[67.78,36.94],[68.2,39],[69.62,40.81],[71.07,40.25],[71.04,42.24],[66.86,41.17],[65.05,43.74],[62.15,43.49],[58.67,45.58],[56.12,45],[56.1,41.32]]]},"properties":{"NAME":"Uzbekistan","SUBJECTO":"Uzbekistan","BORDERPRECISION":3}},
{"type":"Feature","geometry":{"type":"Polygon","coordinates":[[[17.55,42.92],[17.65,42.86],[18.46,42.56],[19.22,43.51],[19.05,44.86],[15.76,44.79],[17.55,42.92]]]},"properties":{"NAME":"Bosnia and Herzegovina","SUBJECTO":"Bosnia and Herzegovina","BORDERPRECISION":3}},
{"type":"Feature","geometry":{"type":"Polygon","coordinates":[[[22.69,44.26],[22.33,42.34],[22.92,41.23],[26.35,41.64],[27.92,41.98],[28.51,43.74],[22.69,44.26]]]},"properties":{"NAME":"Bulgaria","SUBJECTO":"Bulgaria","BORDERPRECISION":3}},
{"type":"Feature","geometry":{"type":"Polygon","coordinates":[[[-1.91,43.31],[-7.64,43.72],[-8.81,41.89],[-6.71,41.96],[-7.49,37.21],[-5.66,36.01],[-2.24,36.73],[0.17,38.74],[0.88,41.02],[3.09,42.37],[1.91,42.45],[1.72,42.51],[1.72,42.5],[1.45,42.6],[1.45,42.61],[-1.91,43.31]]]},"properties":{"NAME":"Spain","SUBJECTO":"Spain","BORDERPRECISION":3}},
{"type":"Feature","geometry":{"type":"Polygon","coordinates":[[[40.1,43.38],[41.48,41.44],[43.49,41.07],[45.14,41.3],[46.56,41.88],[44.98,42.77],[40.1,43.38]]]},"properties":{"NAME":"Georgia","SUBJECTO":"Georgia","BORDERPRECISION":3}},
{"type":"Feature","geometry":{"type":"Polygon","coordinates":[[[18.51,42.36],[19.37,41.85],[20.05,42.49],[19.22,43.51],[18.46,42.56],[18.51,42.36]]]},"properties":{"NAME":"Montenegro","SUBJECTO":"Montenegro","BORDERPRECISION":3}},
{"type":"Feature","geometry":{"type":"Polygon","coordinates":[[[80.26,42.24],[79.3,42.8],[71.04,42.24],[71.07,40.25],[73.76,39.45],[75.43,40.61],[78.4,41.23],[80.26,42.24]]]},"properties":{"NAME":"Kyrgyzstan","SUBJECTO":"Kyrgyzstan","BORDERPRECISION":3}},
{"type":"Feature","geometry":{"type":"Polygon","coordinates":[[[52.56,41.76],[54.07,38.9],[54.02,37.35],[57.23,38.19],[59.24,37.45],[61.22,35.58],[62.68,35.27],[66.63,37.25],[66.75,38.01],[63.86,39.19],[61.98,41.2],[58.89,42.7],[56.1,41.32],[54.23,42.37],[52.56,41.76]]]},"properties":{"NAME":"Turkmenistan","SUBJECTO":"Turkmenistan","BORDERPRECISION":3}},
{"type":"Feature","geometry":{"type":"Polygon","coordinates":[[[20.05,42.49],[19.37,41.85],[20.12,39.55],[21.03,40.73],[20.58,41.88],[20.05,42.49]]]},"properties":{"NAME":"Albania","SUBJECTO":"Albania","BORDERPRECISION":3}},
{"type":"Feature","geometry":{"type":"Polygon","coordinates":[[[20.58,41.88],[21.03,40.73],[22.92,41.23],[22.33,42.34],[20.58,41.88]]]},"properties":{"NAME":"Macedonia","SUBJECTO":"Macedonia","BORDERPRECISION":3}},
{"type":"Feature","geometry":{"type":"Polygon","coordinates":[[[-8.81,41.89],[-9.55,38.77],[-7.49,37.21],[-6.71,41.96],[-8.81,41.89]]]},"properties":{"NAME":"Portugal","SUBJECTO":"Portugal","BORDERPRECISION":3}},
{"type":"Feature","geometry":{"type":"MultiPolygon","coordinates":[[[[26.35,41.64],[26.02,40.67],[27.92,41.98],[26.35,41.64]]],[[[41.48,41.44],[40.36,40.96],[36.38,41.24],[33.56,41.98],[26.13,39.88],[27.16,37.36],[30.47,36.19],[35.83,35.88],[42.53,37.2],[44.79,37.13],[44.67,39.76],[43.49,41.07],[41.48,41.44]]]]},"properties":{"NAME":"Turkey","SUBJECTO":"Turkey","BORDERPRECISION":3}},
{"type":"Feature","geometry":{"type":"Polygon","coordinates":[[[45.14,41.3],[46.6,38.98],[48.82,38.31],[49.81,40.58],[48.68,41.84],[46.56,41.88],[45.14,41.3]]]},"properties":{"NAME":"Azerbaijan","SUBJECTO":"Azerbaijan","BORDERPRECISION":3}},
{"type":"Feature","geometry":{"type":"Polygon","coordinates":[[[22.92,41.23],[21.03,40.73],[20.12,39.55],[21.23,37.9],[23.56,38.35],[22.6,40.4],[26.02,40.67],[26.35,41.64],[22.92,41.23]]]},"properties":{"NAME":"Greece","SUBJECTO":"Greece","BORDERPRECISION":3}},
{"type":"Feature","geometry":{"type":"Polygon","coordinates":[[[43.49,41.07],[44.67,39.76],[46.28,38.82],[46.6,38.98],[45.14,41.3],[43.49,41.07]]]},"properties":{"NAME":"Armenia","SUBJECTO":"Armenia","BORDERPRECISION":3}},
{"type":"Feature","geometry":{"type":"Polygon","coordinates":[[[73.76,39.45],[71.07,40.25],[69.62,40.81],[68.2,39],[67.78,36.94],[70.72,38.36],[71.85,36.72],[74.73,37.21],[73.76,39.45]]]},"properties":{"NAME":"Tajikistan","SUBJECTO":"Tajikistan","BORDERPRECISION":3}},
{"type":"Feature","geometry":{"type":"Polygon","coordinates":[[[54.02,37.35],[51.8,36.43],[48.84,37.51],[48.82,38.31],[46.6,38.98],[46.28,38.82],[44.67,39.76],[44.79,37.13],[46.18,35.06],[45.51,33.8],[47.79,31.8],[48.55,29.99],[50.13,30.07],[51.35,28.04],[54.65,26.39],[56.79,26.97],[57.25,25.79],[61.57,25.04],[63.24,26.67],[62.67,28.21],[60.82,29.83],[60.54,32.99],[61.22,35.58],[59.24,37.45],[57.23,38.19],[54.02,37.35]]]},"properties":{"NAME":"Iran","SUBJECTO":"Iran","BORDERPRECISION":3}},
{"type":"Feature","geometry":{"type":"Polygon","coordinates":[[[74.73,37.21],[71.85,36.72],[70.72,38.36],[67.78,36.94],[66.63,37.25],[62.68,35.27],[61.22,35.58],[60.54,32.99],[60.82,29.83],[62.37,29.38],[66.09,29.74],[66.47,30.84],[69.21,31.8],[71.66,35.13],[72.37,36.72],[74.52,37],[74.73,37.21]]]},"properties":{"NAME":"Afghanistan","SUBJECTO":"Afghanistan","BORDERPRECISION":3}},
{"type":"Feature","geometry":{"type":"Polygon","coordinates":[[[42.53,37.2],[41.29,36.2],[41.12,34.43],[38.75,33.21],[39.33,32.14],[43.54,30.29],[44.69,29.03],[46.51,28.97],[47.91,29.89],[48.55,29.99],[47.79,31.8],[45.51,33.8],[46.18,35.06],[44.79,37.13],[42.53,37.2]]]},"properties":{"NAME":"Iraq","SUBJECTO":"Iraq","BORDERPRECISION":3}},
{"type":"Feature","geometry":{"type":"Polygon","coordinates":[[[35.83,35.88],[35.85,34.49],[35.5,33.11],[35.7,32.72],[36.84,32.19],[38.75,33.21],[41.12,34.43],[41.29,36.2],[42.53,37.2],[35.83,35.88]]]},"properties":{"NAME":"Syria","SUBJECTO":"Syria","BORDERPRECISION":3}},
{"type":"Feature","geometry":{"type":"Polygon","coordinates":[[[11.47,33.14],[10.13,37.1],[8.64,36.89],[7.82,33.06],[9.57,30.21],[11.47,33.14]]]},"properties":{"NAME":"Tunisia","SUBJECTO":"Tunisia","BORDERPRECISION":3}},
{"type":"Feature","geometry":{"type":"Polygon","coordinates":[[[-8.63,27.17],[-4.87,24.99],[1.09,21.13],[1.84,20.16],[4.2,19.14],[5.78,19.44],[7.54,20.92],[11.96,23.47],[10.31,24.47],[9.57,30.21],[7.82,33.06],[8.64,36.89],[1.06,36.46],[-2.19,35.05],[-1.23,31.99],[-8.59,28.64],[-8.64,27.57],[-8.63,27.17]]]},"properties":{"NAME":"Algeria","SUBJECTO":"Algeria","BORDERPRECISION":3}},
{"type":"Feature","geometry":{"type":"Polygon","coordinates":[[[-8.64,27.57],[-8.59,28.64],[-1.23,31.99],[-2.19,35.05],[-5.93,35.73],[-7,33.87],[-9.22,32.58],[-9.66,29.95],[-13.12,27.55],[-8.64,27.57]]]},"properties":{"NAME":"Morocco","SUBJECTO":"Morocco","BORDERPRECISION":3}},
{"type":"Feature","geometry":{"type":"Polygon","coordinates":[[[35.85,34.49],[34.97,32.94],[35.5,33.11],[35.85,34.49]]]},"properties":{"NAME":"Lebanon","SUBJECTO":"Lebanon","BORDERPRECISION":3}},
{"type":"Feature","geometry":{"type":"Polygon","coordinates":[[[-117.17,32.52],[-115.6,29.69],[-113.05,31.14],[-111.69,28.5],[-109.13,26.29],[-105.54,22.28],[-104.95,19.44],[-103.49,18.35],[-97.88,16.05],[-94.08,16.11],[-92.16,14.54],[-91.01,17.84],[-89.15,17.83],[-88.32,18.49],[-87.2,21.53],[-90,21.16],[-90,19.38],[-94.24,18.24],[-96.01,18.93],[-97.5,21.19],[-97.82,24.21],[-97.26,25.81],[-99.1,26.41],[-101.03,29.33],[-103.59,29.06],[-106.54,31.7],[-111.09,31.31],[-114.62,32.43],[-117.17,32.52]]]},"properties":{"NAME":"Mexico","SUBJECTO":"Mexico","BORDERPRECISION":3}},
{"type":"Feature","geometry":{"type":"Polygon","coordinates":[[[46.51,28.97],[48.44,28.44],[47.91,29.89],[46.51,28.97]]]},"properties":{"NAME":"Kuwait","SUBJECTO":"Kuwait","BORDERPRECISION":3}},
{"type":"Feature","geometry":{"type":"Polygon","coordinates":[[[101.01,21.44],[99.16,22.31],[98.77,24.09],[97.52,24.8],[98.73,26.34],[97.34,28.18],[95.18,26.56],[94.18,23.94],[92.51,22.11],[92.12,21],[94.05,19.06],[95.33,15.68],[97.57,16.45],[98.49,13.11],[98.59,10.12],[99.58,11.89],[98.14,15.19],[98.82,16.32],[97.79,17.58],[97.79,19.4],[100,20.46],[101.01,21.44]]]},"properties":{"NAME":"Burma","SUBJECTO":"Burma","BORDERPRECISION":3}},
{"type":"Feature","geometry":{"type":"Polygon","coordinates":[[[92.51,22.11],[92.14,25.1],[88.88,25.25],[89.07,21.77],[91.41,22.72],[92.12,21],[92.51,22.11]]]},"properties":{"NAME":"Bangladesh","SUBJECTO":"Bangladesh","BORDERPRECISION":3}},
{"type":"Feature","geometry":{"type":"Polygon","coordinates":[[[100,20.46],[97.79,19.4],[97.79,17.58],[98.82,16.32],[98.14,15.19],[99.58,11.89],[98.59,10.12],[98.18,8.6],[100.16,6.34],[102.07,6.15],[100.61,6.98],[99.07,9.9],[99.9,12.08],[100.87,12.68],[102.67,12.04],[103.08,14.29],[105.06,14.24],[105.47,15.15],[103.93,18.28],[101.86,18.11],[100,20.46]]]},"properties":{"NAME":"Thailand","SUBJECTO":"Thailand","BORDERPRECISION":3}},
{"type":"Feature","geometry":{"type":"Polygon","coordinates":[[[-89.15,17.83],[-88.94,15.9],[-88.32,18.49],[-89.15,17.83]]]},"properties":{"NAME":"Belize","SUBJECTO":"Belize","BORDERPRECISION":3}},
{"type":"Feature","geometry":{"type":"Polygon","coordinates":[[[-92.16,14.54],[-90,13.87],[-89.38,14.47],[-88.27,15.75],[-88.94,15.9],[-89.15,17.83],[-91.01,17.84],[-92.16,14.54]]]},"properties":{"NAME":"Guatemala","SUBJECTO":"Guatemala","BORDERPRECISION":3}},
{"type":"Feature","geometry":{"type":"Polygon","coordinates":[[[-83.42,15],[-84.65,15.93],[-88.27,15.75],[-89.38,14.47],[-87.77,13.5],[-87.4,13.03],[-84.83,14.77],[-83.42,15]]]},"properties":{"NAME":"Honduras","SUBJECTO":"Honduras","BORDERPRECISION":3}},
{"type":"Feature","geometry":{"type":"Polygon","coordinates":[[[-90,13.87],[-87.77,13.5],[-89.38,14.47],[-90,13.87]]]},"properties":{"NAME":"El Salvador","SUBJECTO":"El Salvador","BORDERPRECISION":3}},
{"type":"Feature","geometry":{"type":"Polygon","coordinates":[[[-77.9,7.17],[-77.11,3.79],[-78.94,1.38],[-75.53,-0.14],[-72.96,-2.45],[-70.92,-2.32],[-69.88,-4.19],[-69.32,-1.3],[-69.98,-0.27],[-69.74,1.66],[-67.18,2.07],[-67.77,6.24],[-69.3,6.01],[-71.81,6.97],[-73.02,9.74],[-71.19,11.91],[-75.45,10.63],[-75.7,9.43],[-77.49,8.66],[-77.9,7.17]]]},"properties":{"NAME":"Colombia","SUBJECTO":"Colombia","BORDERPRECISION":3}},
{"type":"Feature","geometry":{"type":"Polygon","coordinates":[[[2.32,12.17],[0.93,10.9],[1.59,9.08],[1.76,6.25],[2.77,6.35],[2.76,8.86],[3.61,11.72],[2.32,12.17]]]},"properties":{"NAME":"Benin","SUBJECTO":"Benin","BORDERPRECISION":3}},
{"type":"Feature","geometry":{"type":"Polygon","coordinates":[[[-2.84,9.57],[-3.19,6.6],[-2.75,5.1],[-2.03,4.7],[1.17,6.07],[0.06,11.06],[-2.7,10.93],[-2.84,9.57]]]},"properties":{"NAME":"Ghana","SUBJECTO":"Ghana","BORDERPRECISION":3}},
{"type":"Feature","geometry":{"type":"Polygon","coordinates":[[[0.06,11.06],[1.17,6.07],[1.76,6.25],[1.59,9.08],[0.93,10.9],[0.06,11.06]]]},"properties":{"NAME":"Togo","SUBJECTO":"Togo","BORDERPRECISION":3}},
{"type":"Feature","geometry":{"type":"Polygon","coordinates":[[[-7.91,10.12],[-7.47,8.45],[-8.3,7.44],[-7.42,5.73],[-7.56,4.35],[-5,5.24],[-2.75,5.1],[-3.19,6.6],[-2.84,9.57],[-5.56,10.36],[-7.91,10.12]]]},"properties":{"NAME":"Ivory Coast","SUBJECTO":"Ivory Coast","BORDERPRECISION":3}},
{"type":"Feature","geometry":{"type":"MultiPolygon","coordinates":[[[[100.16,6.34],[101.34,2.78],[103.43,1.38],[103.34,4.81],[102.07,6.15],[100.16,6.34]]],[[[109.52,1.82],[110.55,0.73],[114.66,1.6],[115.71,4.16],[117.56,3.98],[119.04,5.17],[116.6,6.9],[114.96,4.88],[115.16,4.31],[114.43,4],[114.07,4.46],[112.76,3.01],[109.52,1.82]]]]},"properties":{"NAME":"Malaysia","SUBJECTO":"Malaysia","BORDERPRECISION":3}},
{"type":"Feature","geometry":{"type":"Polygon","coordinates":[[[-56.71,1.89],[-54.39,2.26],[-53.84,5.69],[-57.07,5.84],[-58,3.96],[-56.71,1.89]]]},"properties":{"NAME":"Suriname","SUBJECTO":"Suriname","BORDERPRECISION":3}},
{"type":"Feature","geometry":{"type":"Polygon","coordinates":[[[-54.39,2.26],[-52.85,2.09],[-51.62,4.22],[-53.84,5.69],[-54.39,2.26]]]},"properties":{"NAME":"French Guiana","SUBJECTO":"French Guiana","BORDERPRECISION":3}},
{"type":"Feature","geometry":{"type":"Polygon","coordinates":[[[16.08,2.13],[13.27,2.11],[14.35,0.62],[14.14,-2.56],[11.64,-2.62],[11.15,-3.93],[12,-5],[13.02,-4.77],[15.99,-3.67],[16.1,-2.33],[17.45,-0.85],[18.5,3.53],[16.55,3.31],[16.08,2.13]]]},"properties":{"NAME":"Congo","SUBJECTO":"Congo","BORDERPRECISION":3}},
{"type":"Feature","geometry":{"type":"Polygon","coordinates":[[[13.27,2.11],[11.22,2.05],[9.63,0.89],[8.82,-0.9],[11.15,-3.93],[11.64,-2.62],[14.14,-2.56],[14.35,0.62],[13.27,2.11]]]},"properties":{"NAME":"Gabon","SUBJECTO":"Gabon","BORDERPRECISION":3}},
{"type":"Feature","geometry":{"type":"Polygon","coordinates":[[[11.22,2.05],[9.88,2.06],[9.63,0.89],[11.22,2.05]]]},"properties":{"NAME":"Equatorial Guinea","SUBJECTO":"Equatorial Guinea","BORDERPRECISION":3}},
{"type":"Feature","geometry":{"type":"Polygon","coordinates":[[[-78.94,1.38],[-80.09,0.82],[-80.97,-1.03],[-80.23,-3.47],[-78.43,-3.74],[-76.66,-2.66],[-75.53,-0.14],[-78.94,1.38]]]},"properties":{"NAME":"Ecuador","SUBJECTO":"Ecuador","BORDERPRECISION":3}},
{"type":"Feature","geometry":{"type":"Polygon","coordinates":[[[-69.59,-10.9],[-72.15,-10],[-73.84,-7.58],[-72.77,-5.14],[-69.88,-4.19],[-70.92,-2.32],[-72.96,-2.45],[-75.53,-0.14],[-76.66,-2.66],[-78.43,-3.74],[-80.23,-3.47],[-81.42,-4.68],[-79.06,-8.22],[-76.24,-13.5],[-74.05,-16.04],[-71.61,-17.22],[-70.36,-18.45],[-69.43,-17.6],[-69.24,-14.74],[-68.64,-12.58],[-69.59,-10.9]]]},"properties":{"NAME":"Peru","SUBJECTO":"Peru","BORDERPRECISION":3}},
{"type":"Feature","geometry":{"type":"Polygon","coordinates":[[[-60.55,5.01],[-64.15,3.42],[-63.88,1.88],[-65.36,0.56],[-67.18,2.07],[-69.74,1.66],[-69.98,-0.27],[-69.32,-1.3],[-69.88,-4.19],[-72.77,-5.14],[-73.84,-7.58],[-72.15,-10],[-69.59,-10.9],[-68.5,-11.09],[-66.31,-9.84],[-64.26,-12.47],[-60.36,-13.9],[-60.03,-16.33],[-58.33,-16.37],[-57.6,-18.04],[-58.14,-19.81],[-57.81,-22.15],[-55.62,-22.45],[-54.22,-24.12],[-54.58,-25.74],[-53.62,-26.27],[-57.58,-30.4],[-53.89,-32.05],[-53.41,-33.88],[-52.04,-31.56],[-48.94,-28.7],[-48.72,-25.43],[-44.56,-22.99],[-41.96,-22.92],[-39.69,-19.41],[-38.95,-16],[-39.13,-14.32],[-37.19,-10.84],[-35.6,-9.63],[-34.89,-7.61],[-35.46,-5.27],[-37.18,-4.95],[-40.23,-2.85],[-44.22,-2.78],[-44.8,-1.74],[-47.24,-0.68],[-49.22,-2.11],[-50.64,-1.88],[-51.53,-0.43],[-49.88,1.21],[-51.62,4.22],[-52.85,2.09],[-54.39,2.26],[-56.71,1.89],[-58.85,1.15],[-59.94,2.73],[-59.51,3.97],[-60.55,5.01]]]},"properties":{"NAME":"Brazil","SUBJECTO":"Brazil","BORDERPRECISION":3}},
{"type":"Feature","geometry":{"type":"Polygon","coordinates":[[[140.95,-9.27],[142.61,-9.38],[144.38,-7.76],[145.82,-8.1],[147.87,-10.18],[148.59,-9.16],[146.91,-6.89],[147.38,-6.12],[143.45,-3.61],[140.87,-2.79],[140.95,-9.27]]]},"properties":{"NAME":"Papua New Guinea","SUBJECTO":"Papua New Guinea","BORDERPRECISION":3}},
{"type":"Feature","geometry":{"type":"MultiPolygon","coordinates":[[[[146.71,-43.72],[148.27,-41.09],[144.78,-40.84],[146.71,-43.72]]],[[[142.34,-10.92],[141.68,-12.47],[141.71,-15.23],[140.8,-17.56],[139.25,-17.43],[135.39,-14.9],[136.66,-12.62],[133.56,-11.95],[130.46,-12.76],[129.2,-14.99],[126.85,-13.78],[122.74,-16.58],[120.87,-19.68],[116.42,-20.84],[113.63,-22.57],[113.43,-26.57],[114.63,-28.9],[115.75,-32.21],[115.05,-34.42],[118.21,-35.09],[119.77,-34.12],[123.62,-33.92],[126.06,-32.43],[131.28,-31.63],[133.84,-32.34],[135.53,-35.05],[137.46,-33.31],[139.37,-35.61],[140.01,-37.64],[143.36,-38.97],[145.93,-38.88],[149.5,-37.93],[151.36,-33.52],[152.97,-31.42],[153.49,-28.84],[153.07,-26.23],[150.75,-22.81],[149.1,-21.06],[146.32,-19.08],[145.18,-15.05],[143.74,-14.47],[142.34,-10.92]]]]},"properties":{"NAME":"Australia","SUBJECTO":"Australia","BORDERPRECISION":3}},
{"type":"Feature","geometry":{"type":"Polygon","coordinates":[[[-58.34,-34.22],[-54.62,-34.92],[-53.41,-33.88],[-53.89,-32.05],[-57.58,-30.4],[-58.34,-34.22]]]},"properties":{"NAME":"Uruguay","SUBJECTO":"Uruguay","BORDERPRECISION":3}},
{"type":"Feature","geometry":{"type":"Polygon","coordinates":[[[9.5,54.94],[10.15,55.76],[8.18,56.43],[8.62,54.89],[9.5,54.94]]]},"properties":{"NAME":"Denmark","SUBJECTO":"Denmark","BORDERPRECISION":3}},
{"type":"Feature","geometry":{"type":"Polygon","coordinates":[[[22.7,54.41],[19.98,54.42],[14.47,53.88],[14.28,53.61],[14.83,50.92],[18.84,49.56],[22.57,49.07],[23.59,51.55],[23.53,53.92],[22.7,54.41]]]},"properties":{"NAME":"Poland","SUBJECTO":"Poland","BORDERPRECISION":3}},
{"type":"Feature","geometry":{"type":"Polygon","coordinates":[[[6,50.74],[7.16,53.16],[4.64,52.76],[3.78,51.39],[6,50.74]]]},"properties":{"NAME":"Netherlands","SUBJECTO":"Netherlands","BORDERPRECISION":3}},
{"type":"Feature","geometry":{"type":"Polygon","coordinates":[[[18.84,49.56],[14.83,50.92],[12.24,50.24],[13.95,48.66],[16.94,48.66],[18.84,49.56]]]},"properties":{"NAME":"Czech Republic","SUBJECTO":"Czech Republic","BORDERPRECISION":3}},
{"type":"Feature","geometry":{"type":"Polygon","coordinates":[[[3.61,11.72],[2.76,8.86],[2.77,6.35],[3.95,6.58],[6.09,4.33],[8.59,4.71],[10.07,6.89],[11.58,6.79],[13.79,11.09],[14.03,13.06],[13.54,13.66],[12.25,13.08],[9.06,12.82],[4.19,13.48],[3.61,11.72]]]},"properties":{"NAME":"Nigeria","SUBJECTO":"Nigeria","BORDERPRECISION":3}},
{"type":"Feature","geometry":{"type":"Polygon","coordinates":[[[14.03,13.06],[13.79,11.09],[11.58,6.79],[10.07,6.89],[8.59,4.71],[9.88,2.06],[11.22,2.05],[13.27,2.11],[16.08,2.13],[14.4,5.83],[15.56,7.5],[13.91,9.55],[15.16,10.37],[14.03,13.06]]]},"properties":{"NAME":"Cameroon","SUBJECTO":"Cameroon","BORDERPRECISION":3}},
{"type":"Feature","geometry":{"type":"Polygon","coordinates":[[[74.52,37],[72.37,36.72],[71.66,35.13],[69.21,31.8],[66.47,30.84],[66.09,29.74],[62.37,29.38],[60.82,29.83],[62.67,28.21],[63.24,26.67],[61.57,25.04],[66.62,25.32],[68.05,23.76],[71.08,24.41],[69.58,27.19],[71.89,27.95],[74.52,31.04],[75.8,34.5],[77.62,35.41],[74.52,37]]]},"properties":{"NAME":"Pakistan","SUBJECTO":"Pakistan","BORDERPRECISION":3}},
{"type":"Feature","geometry":{"type":"Polygon","coordinates":[[[88.8,27.18],[88.2,27.88],[86.78,26.47],[82.81,27.54],[80.1,28.95],[81.02,30.25],[79.11,31.46],[79.57,32.7],[77.62,35.41],[75.8,34.5],[74.52,31.04],[71.89,27.95],[69.58,27.19],[71.08,24.41],[68.05,23.76],[69.13,21.97],[72.76,20.06],[73.84,15.39],[76.7,8.71],[77.9,8.26],[79.83,10.36],[80.09,15.18],[86.12,19.81],[87.64,21.56],[89.07,21.77],[88.88,25.25],[92.14,25.1],[92.51,22.11],[94.18,23.94],[95.18,26.56],[97.34,28.18],[94.57,29.2],[91.61,27.64],[90,26.78],[88.8,27.18]]]},"properties":{"NAME":"India","SUBJECTO":"India","BORDERPRECISION":3}},
{"type":"Feature","geometry":{"type":"Polygon","coordinates":[[[38.75,33.21],[36.84,32.19],[35.7,32.72],[34.98,29.47],[35.07,29.21],[37.94,30.37],[39.33,32.14],[38.75,33.21]]]},"properties":{"NAME":"Jordan","SUBJECTO":"Jordan","BORDERPRECISION":3}},
{"type":"Feature","geometry":{"type":"Polygon","coordinates":[[[14.97,22.97],[15.97,23.38],[23.95,19.47],[24.96,20.05],[24.95,21.88],[24.94,24.93],[25.11,31.51],[21.67,32.82],[20.37,32.3],[18.92,30.2],[15.84,31.29],[15.01,32.36],[11.47,33.14],[9.57,30.21],[10.31,24.47],[11.96,23.47],[14.97,22.97]]]},"properties":{"NAME":"Libya","SUBJECTO":"Libya","BORDERPRECISION":3}},
{"type":"Feature","geometry":{"type":"Polygon","coordinates":[[[35.5,33.11],[34.97,32.94],[34.15,31.21],[34.94,29.42],[34.98,29.47],[35.7,32.72],[35.5,33.11]]]},"properties":{"NAME":"Israel","SUBJECTO":"Israel","BORDERPRECISION":3}},
{"type":"Feature","geometry":{"type":"Polygon","coordinates":[[[50.97,24.44],[50.12,26.74],[48.44,28.44],[46.51,28.97],[44.69,29.03],[43.54,30.29],[39.33,32.14],[37.94,30.37],[35.07,29.21],[34.89,28.36],[39.1,22.4],[39.17,21.22],[40.69,19.87],[42.83,16.32],[44.43,17.38],[45.56,15.06],[47.52,17.52],[51.81,18.98],[56.03,21.24],[55.7,22.3],[51.95,22.48],[51.12,24.4],[50.97,24.44]]]},"properties":{"NAME":"Saudi Arabia","SUBJECTO":"Saudi Arabia","BORDERPRECISION":3}},
{"type":"Feature","geometry":{"type":"Polygon","coordinates":[[[24.95,21.88],[32.13,21.92],[36.8,21.91],[35.75,22.91],[33.93,26.56],[34.94,29.42],[34.15,31.21],[31,31.47],[29.25,30.75],[25.11,31.51],[24.94,24.93],[24.95,21.88]]]},"properties":{"NAME":"Egypt","SUBJECTO":"Egypt","BORDERPRECISION":3}},
{"type":"Feature","geometry":{"type":"Polygon","coordinates":[[[81.02,30.25],[80.1,28.95],[82.81,27.54],[86.78,26.47],[88.2,27.88],[85.14,28.34],[81.66,30.45],[81.02,30.25]]]},"properties":{"NAME":"Nepal","SUBJECTO":"Nepal","BORDERPRECISION":3}},
{"type":"Feature","geometry":{"type":"Polygon","coordinates":[[[-17.02,21.31],[-15.98,18.18],[-16.41,16.49],[-14.81,16.82],[-11.9,14.81],[-10.65,15.43],[-5.48,15.47],[-6.12,20.96],[-6.56,24.9],[-4.87,24.99],[-8.63,27.17],[-8.69,25.91],[-11.89,25.9],[-11.99,23.48],[-13.02,21.28],[-17.02,21.31]]]},"properties":{"NAME":"Mauritania","SUBJECTO":"Mauritania","BORDERPRECISION":3}},
{"type":"Feature","geometry":{"type":"Polygon","coordinates":[[[22.82,10.91],[23.52,8.61],[26.95,5.87],[27.24,5.16],[28.06,4.27],[29.69,4.52],[30.74,3.51],[33.99,4.03],[35.8,4.56],[34.04,8.43],[34.35,10.68],[36.48,14.27],[37.02,16.95],[38.64,18.06],[37.4,18.92],[36.8,21.91],[32.13,21.92],[24.95,21.88],[24.96,20.05],[23.95,19.47],[23.95,15.7],[23.01,15.68],[21.78,12.8],[22.82,10.91]]]},"properties":{"NAME":"Sudan","SUBJECTO":"Sudan","BORDERPRECISION":3}},
{"type":"Feature","geometry":{"type":"Polygon","coordinates":[[[51.81,18.98],[47.52,17.52],[45.56,15.06],[44.43,17.38],[42.83,16.32],[43.84,12.66],[46.6,13.4],[52.14,15.69],[53.02,16.65],[51.81,18.98]]]},"properties":{"NAME":"Yemen","SUBJECTO":"Yemen","BORDERPRECISION":3}},
{"type":"Feature","geometry":{"type":"Polygon","coordinates":[[[36.48,14.27],[37.72,14.8],[40.59,14.12],[42.33,12.36],[43.05,12.7],[40.74,14.92],[39.52,15.46],[38.64,18.06],[37.02,16.95],[36.48,14.27]]]},"properties":{"NAME":"Eritrea","SUBJECTO":"Eritrea","BORDERPRECISION":3}},
{"type":"Feature","geometry":{"type":"Polygon","coordinates":[[[-11.9,14.81],[-14.81,16.82],[-16.41,16.49],[-17.05,14.59],[-16.46,13.57],[-15.3,13.57],[-16.01,13.14],[-16.78,13.15],[-16.57,12.31],[-13.69,12.62],[-11.42,12.4],[-11.9,14.81]]]},"properties":{"NAME":"Senegal","SUBJECTO":"Senegal","BORDERPRECISION":3}},
{"type":"Feature","geometry":{"type":"Polygon","coordinates":[[[35.8,4.56],[39.54,3.35],[41.77,3.83],[44.99,4.82],[47.9,7.88],[43.86,9.03],[42.93,10.89],[42.33,12.36],[40.59,14.12],[37.72,14.8],[36.48,14.27],[34.35,10.68],[34.04,8.43],[35.8,4.56]]]},"properties":{"NAME":"Ethiopia","SUBJECTO":"Ethiopia","BORDERPRECISION":3}},
{"type":"Feature","geometry":{"type":"Polygon","coordinates":[[[-16.46,13.57],[-16.78,13.15],[-16.01,13.14],[-15.3,13.57],[-16.46,13.57]]]},"properties":{"NAME":"Gambia, The","SUBJECTO":"Gambia, The","BORDERPRECISION":3}},
{"type":"Feature","geometry":{"type":"Polygon","coordinates":[[[42.33,12.36],[42.93,10.89],[43.3,11.48],[43.05,12.7],[42.33,12.36]]]},"properties":{"NAME":"Djibouti","SUBJECTO":"Djibouti","BORDERPRECISION":3}},
{"type":"Feature","geometry":{"type":"Polygon","coordinates":[[[-16.57,12.31],[-15.01,11.1],[-13.69,12.62],[-16.57,12.31]]]},"properties":{"NAME":"Guinea-Bissau","SUBJECTO":"Guinea-Bissau","BORDERPRECISION":3}},
{"type":"Feature","geometry":{"type":"Polygon","coordinates":[[[-11.42,12.4],[-13.69,12.62],[-15.01,11.1],[-13.16,8.85],[-11.29,9.9],[-10.38,8.08],[-8.3,7.44],[-7.47,8.45],[-7.91,10.12],[-9.12,12.46],[-11.42,12.4]]]},"properties":{"NAME":"Guinea","SUBJECTO":"Guinea","BORDERPRECISION":3}},
{"type":"Feature","geometry":{"type":"Polygon","coordinates":[[[-59.83,8.44],[-61.53,9.85],[-64.07,10.63],[-64.88,10.14],[-67.98,10.54],[-68.69,11.38],[-71.19,11.91],[-73.02,9.74],[-71.81,6.97],[-69.3,6.01],[-67.77,6.24],[-67.18,2.07],[-65.36,0.56],[-63.88,1.88],[-64.15,3.42],[-60.55,5.01],[-61.25,5.87],[-59.83,8.44]]]},"properties":{"NAME":"Venezuela","SUBJECTO":"Venezuela","BORDERPRECISION":3}},
{"type":"Feature","geometry":{"type":"Polygon","coordinates":[[[41.77,3.83],[41.02,2.71],[41.06,-1.08],[41.61,-1.88],[43.72,0.8],[46.36,2.67],[48.47,5.2],[50.78,9.37],[51.18,11.78],[44.28,10.4],[43.3,11.48],[42.93,10.89],[43.86,9.03],[47.9,7.88],[44.99,4.82],[41.77,3.83]]]},"properties":{"NAME":"Somalia","SUBJECTO":"Somalia","BORDERPRECISION":3}},
{"type":"Feature","geometry":{"type":"Polygon","coordinates":[[[-61.11,10.82],[-61.81,10.72],[-61.21,10.12],[-61.11,10.82]]]},"properties":{"NAME":"Trinidad","SUBJECTO":"Trinidad","BORDERPRECISION":3}},
{"type":"Feature","geometry":{"type":"Polygon","coordinates":[[[114.96,4.88],[114.07,4.46],[114.43,4],[115.16,4.31],[114.96,4.88]]]},"properties":{"NAME":"Brunei","SUBJECTO":"Brunei","BORDERPRECISION":3}},
{"type":"Feature","geometry":{"type":"Polygon","coordinates":[[[39.23,-4.84],[41.61,-1.88],[41.06,-1.08],[41.02,2.71],[41.77,3.83],[39.54,3.35],[35.8,4.56],[33.99,4.03],[35.04,1.69],[33.27,-1.13],[37.62,-3.17],[39.23,-4.84]]]},"properties":{"NAME":"Kenya","SUBJECTO":"Kenya","BORDERPRECISION":3}},
{"type":"Feature","geometry":{"type":"Polygon","coordinates":[[[29.53,-1.43],[30.6,-1.15],[33.27,-1.13],[35.04,1.69],[33.99,4.03],[30.74,3.51],[31.16,1.8],[29.77,0.44],[29.53,-1.43]]]},"properties":{"NAME":"Uganda","SUBJECTO":"Uganda","BORDERPRECISION":3}},
{"type":"Feature","geometry":{"type":"MultiPolygon","coordinates":[[[[109.52,1.82],[108.81,0.81],[110.1,-3.08],[112.8,-2.97],[114.71,-4.21],[115.57,-3.8],[117.53,0.61],[118.52,1.17],[117.56,3.98],[115.71,4.16],[114.66,1.6],[110.55,0.73],[109.52,1.82]]],[[[140.87,-2.79],[137.85,-1.61],[135.25,-3.54],[134.28,-2.85],[133.91,-1.01],[131.21,-1.02],[134.04,-3.95],[137.82,-5.43],[139.16,-7.73],[140.95,-9.27],[140.87,-2.79]]],[[[103.71,-0.02],[98.15,4.07],[96.72,3.7],[98.6,1.71],[100.81,-2.34],[104.57,-6.07],[105.73,-5.83],[105.94,-3.21],[103.24,-0.66],[103.71,-0.02]]],[[[105.18,-6.87],[106.48,-7.5],[110.78,-8.32],[112.27,-7.03],[108.56,-6.92],[106.95,-6.03],[105.18,-6.87]]],[[[119.69,-0.02],[118.68,-2.9],[122.26,-3.21],[119.69,-0.02]]]]},"properties":{"NAME":"Indonesia","SUBJECTO":"Indonesia","BORDERPRECISION":3}},
{"type":"Feature","geometry":{"type":"Polygon","coordinates":[[[-26.79,71.56],[-20.33,73.42],[-18.25,77.3],[-20.88,78.82],[-14.2,81.21],[-32.51,83.58],[-67.14,80.56],[-65.48,79.16],[-72.38,78.53],[-67.04,75.94],[-58.64,75.79],[-51.72,71.59],[-50.48,67.48],[-52.3,66.91],[-51.37,63.73],[-48.92,61.42],[-43.14,59.82],[-39.99,65.53],[-35.97,65.85],[-32.96,67.64],[-26.96,68.5],[-22.73,69.77],[-26.79,71.56]]]},"properties":{"NAME":"Greenland","SUBJECTO":"Greenland","BORDERPRECISION":3}},
{"type":"Feature","geometry":{"type":"MultiPolygon","coordinates":[[[[-89.62,47.97],[-88.09,49],[-85.03,47.94],[-84.74,46.47],[-83.82,46.15],[-80.81,45.95],[-82.3,43.03],[-83.06,42.03],[-79.05,42.85],[-79.14,43.22],[-76.13,44.33],[-74.78,45.01],[-70.59,45.29],[-69.05,47.46],[-67.19,45.25],[-65.71,43.56],[-61.03,45.38],[-64.53,46.27],[-64.95,49.21],[-66.37,50.31],[-60.14,50.41],[-55.66,52.19],[-55.88,53.35],[-61.93,56.27],[-62.89,58.66],[-69.21,58.75],[-70.03,60.88],[-73.39,62.35],[-77.36,62.52],[-78.34,58.55],[-76.44,56.81],[-79.55,54.69],[-78.49,52.26],[-79.59,51.27],[-82.34,52.98],[-82.2,54.97],[-87.47,55.91],[-90,57.18],[-92.48,56.98],[-94.75,59.95],[-93.42,61.86],[-87.44,64.57],[-85.99,66.16],[-81.29,67.5],[-84.31,69.83],[-86.49,67.38],[-93.27,71.56],[-96.7,70.84],[-92.96,69.08],[-96.21,68.07],[-101.91,67.71],[-105.64,68.35],[-112.5,67.69],[-115.29,68.89],[-127.35,70.38],[-131.67,69.28],[-136.2,68.88],[-141.06,69.6],[-140.97,66.03],[-140.89,60.39],[-135.85,59.65],[-130,55.29],[-130,53.94],[-122.9,49.07],[-115.16,49.06],[-104.26,49.06],[-94.82,49.05],[-89.62,47.97]]],[[[-111.73,72.33],[-114.65,73.35],[-118.99,72.03],[-117.57,69.99],[-113.15,68.6],[-106.85,69.45],[-103.86,70.7],[-105.31,72.65],[-111.73,72.33]]],[[[-125.19,71.93],[-123.47,71.2],[-115.65,73.63],[-121.24,74.58],[-125.19,71.93]]],[[[-57.81,49.2],[-56.08,47.87],[-54.13,48.84],[-56.66,50.06],[-57.81,49.2]]],[[[-87.05,63.75],[-84.65,63.31],[-82.11,64.64],[-85.56,65.86],[-87.05,63.75]]],[[[-71.26,63.57],[-69.16,62.42],[-64.47,63.74],[-61.21,66.64],[-68.67,68.72],[-71.25,71.35],[-81.53,73.69],[-88.1,73.64],[-90,71.54],[-87.95,70.38],[-78.71,70.01],[-72.3,67.26],[-75.79,65.2],[-71.26,63.57]]],[[[-89.8,75.92],[-89.7,74.61],[-80.35,74.62],[-81.7,75.87],[-89.8,75.92]]],[[[-88.64,82.07],[-85.81,78.91],[-87.27,76.5],[-78.21,76.55],[-78.37,78.03],[-71.45,79.85],[-62.43,82.63],[-76.38,83.15],[-88.64,82.07]]]]},"properties":{"NAME":"Canada","SUBJECTO":"Canada","BORDERPRECISION":3}},
{"type":"Feature","geometry":{"type":"MultiPolygon","coordinates":[[[[87.87,49.23],[92.16,50.76],[97.42,49.79],[98.92,52.04],[102.12,51.36],[103.68,50.17],[106.32,50.42],[109.42,49.3],[112.52,49.46],[114.1,50.27],[116.76,49.93],[119.18,50.7],[121.19,53.32],[125.51,53.16],[127.71,49.7],[130.48,48.9],[130.92,47.73],[134.11,48.25],[132.78,44.99],[130.99,44.82],[130.23,42.65],[130.44,42.28],[132.18,43.19],[134.14,42.99],[137.72,46],[140.08,48.5],[141.12,53.05],[140.1,53.8],[134.99,54.85],[142.85,59.27],[148.42,59.1],[154.32,59.98],[157.1,61.63],[160.64,60.72],[158.33,58.03],[156.78,57.58],[155.47,54.92],[156.7,50.96],[161.5,55.29],[161.8,58.1],[163.39,59.81],[170.34,60.28],[173.48,61.6],[179.29,62.82],[180,64.95],[180,65.05],[180,65.31],[180,65.38],[180,65.96],[180,66.96],[180,67.96],[180,68.92],[175.61,69.78],[167.32,69.66],[159.44,69.76],[158.41,70.81],[152.13,70.66],[141.29,72.79],[137.63,71.08],[126.22,72.38],[118.46,73.52],[108.34,73.69],[113.53,76.09],[103.39,77.56],[99.47,75.97],[90,75.6],[87.69,73.9],[80.46,73.31],[79.22,72.27],[73.22,71.46],[74.74,67.69],[72.84,67.65],[72.71,72.77],[66.82,71.11],[66.58,68.89],[62.28,69.71],[57.02,68.45],[53.89,68.79],[39.95,65.58],[37.41,63.75],[35.08,64.29],[35.77,66.26],[39.19,66.04],[40.83,67.66],[31.05,69.64],[28.7,68.7],[29.62,64.97],[30.9,62.13],[28.43,60.6],[28.01,59.46],[27.35,57.53],[28.14,56.14],[30.44,55.79],[31.76,52.11],[33.74,52.39],[35.43,50.49],[40.02,49.61],[39.77,47.87],[38.21,47.15],[37.47,44.69],[40.1,43.38],[44.98,42.77],[46.56,41.88],[48.68,41.84],[46.85,44.45],[49.31,46.35],[46.57,48.41],[47,49.94],[50.98,51.67],[55.79,50.57],[59.8,50.56],[62.59,53.97],[70.94,55.26],[74.55,53.51],[78.06,53.26],[80.17,50.8],[83.66,50.96],[87.4,49.19],[87.87,49.23]]],[[[21.16,55.22],[19.98,54.42],[22.7,54.41],[21.16,55.22]]],[[[-180,68.92],[-180,67.96],[-180,66.96],[-180,65.96],[-180,65.38],[-180,65.31],[-180,65.26],[-178.12,65.48],[-173.08,64.38],[-170.61,66.04],[-180,68.92]]]]},"properties":{"NAME":"Russia","SUBJECTO":"Russia","BORDERPRECISION":3}},
{"type":"Feature","geometry":{"type":"Polygon","coordinates":[[[31.05,69.64],[28.31,70.95],[20.16,69.75],[13.17,66.46],[9.83,63.68],[5.15,61.74],[5.62,58.46],[8.15,58.09],[11.18,59.07],[12.42,60.04],[11.93,62.55],[16.21,67.31],[20.79,68.93],[28.7,68.7],[31.05,69.64]]]},"properties":{"NAME":"Norway","SUBJECTO":"Norway","BORDERPRECISION":3}},
{"type":"Feature","geometry":{"type":"Polygon","coordinates":[[[28.7,68.7],[20.79,68.93],[23.49,67.83],[23.95,65.8],[24.47,64.64],[21.03,62.48],[21.56,60.51],[23.66,59.84],[28.43,60.6],[30.9,62.13],[29.62,64.97],[28.7,68.7]]]},"properties":{"NAME":"Finland","SUBJECTO":"Finland","BORDERPRECISION":3}},
{"type":"Feature","geometry":{"type":"Polygon","coordinates":[[[11.18,59.07],[13.3,55.3],[15.77,56.03],[16.74,58.31],[19.04,59.86],[17.15,60.95],[18.49,62.98],[23.95,65.8],[23.49,67.83],[20.79,68.93],[16.21,67.31],[11.93,62.55],[12.42,60.04],[11.18,59.07]]]},"properties":{"NAME":"Sweden","SUBJECTO":"Sweden","BORDERPRECISION":3}},
{"type":"Feature","geometry":{"type":"Polygon","coordinates":[[[33.68,34.94],[33.91,35.44],[32.66,35.14],[33.68,34.94]]]},"properties":{"NAME":"Turkish Cypriot-administered area","SUBJECTO":"Turkish Cypriot-administered area","BORDERPRECISION":3}},
{"type":"Feature","geometry":{"type":"Polygon","coordinates":[[[148.56,45.31],[147.89,45.23],[147.11,44.79],[147.29,44.67],[147.62,44.9],[148.56,45.31]]]},"properties":{"NAME":"Russia","SUBJECTO":"Russia","BORDERPRECISION":3}},
{"type":"Feature","geometry":{"type":"Polygon","coordinates":[[[-61.69,17.02],[-61.79,17.16],[-61.89,17.03],[-61.69,17.02]]]},"properties":{"NAME":"Antigua and Barbuda","SUBJECTO":"Antigua and Barbuda","BORDERPRECISION":3}},
{"type":"Feature","geometry":{"type":"Polygon","coordinates":[[[-59.53,13.05],[-59.43,13.16],[-59.66,13.29],[-59.64,13.15],[-59.53,13.05]]]},"properties":{"NAME":"Barbados","SUBJECTO":"Barbados","BORDERPRECISION":3}},
{"type":"Feature","geometry":{"type":"Polygon","coordinates":[[[-61.36,15.2],[-61.26,15.29],[-61.3,15.57],[-61.47,15.49],[-61.36,15.2]]]},"properties":{"NAME":"Dominica","SUBJECTO":"Dominica","BORDERPRECISION":3}},
{"type":"Feature","geometry":{"type":"Polygon","coordinates":[[[-61.75,12],[-61.6,12.13],[-61.72,12.17],[-61.75,12]]]},"properties":{"NAME":"Grenada","SUBJECTO":"Grenada","BORDERPRECISION":3}},
{"type":"Feature","geometry":{"type":"Polygon","coordinates":[[[-60.86,14.4],[-60.83,14.57],[-61.03,14.83],[-61.23,14.81],[-61.03,14.47],[-60.86,14.4]]]},"properties":{"NAME":"Martinique","SUBJECTO":"Martinique","BORDERPRECISION":3}},
{"type":"Feature","geometry":{"type":"Polygon","coordinates":[[[-62.17,16.67],[-62.14,16.69],[-62.18,16.81],[-62.24,16.71],[-62.17,16.67]]]},"properties":{"NAME":"Montserrat","SUBJECTO":"Montserrat","BORDERPRECISION":3}},
{"type":"Feature","geometry":{"type":"Polygon","coordinates":[[[-63.17,18.16],[-62.99,18.23],[-63.06,18.26],[-63.17,18.16]]]},"properties":{"NAME":"Anguilla","SUBJECTO":"Anguilla","BORDERPRECISION":3}},
{"type":"Feature","geometry":{"type":"Polygon","coordinates":[[[-62.7,17.34],[-62.81,17.41],[-62.86,17.37],[-62.78,17.29],[-62.7,17.34]]]},"properties":{"NAME":"Saint Kitts and Nevis","SUBJECTO":"Saint Kitts and Nevis","BORDERPRECISION":3}},
{"type":"Feature","geometry":{"type":"Polygon","coordinates":[[[-60.95,13.71],[-60.88,13.96],[-61.08,13.9],[-60.95,13.71]]]},"properties":{"NAME":"Saint Lucia","SUBJECTO":"Saint Lucia","BORDERPRECISION":3}},
{"type":"Feature","geometry":{"type":"Polygon","coordinates":[[[-61.17,13.13],[-61.12,13.25],[-61.21,13.37],[-61.28,13.25],[-61.17,13.13]]]},"properties":{"NAME":"Saint Vincent and the Grenadines","SUBJECTO":"Saint Vincent and the Grenadines","BORDERPRECISION":3}},
{"type":"Feature","geometry":{"type":"Polygon","coordinates":[[[-64.76,17.77],[-64.87,17.77],[-64.89,17.69],[-64.74,17.71],[-64.76,17.77]]]},"properties":{"NAME":"United States Virgin Islands","SUBJECTO":"United States Virgin Islands","BORDERPRECISION":3}},
{"type":"Feature","geometry":{"type":"Polygon","coordinates":[[[-61.35,16.33],[-61.5,16.35],[-61.79,16.24],[-61.7,15.95],[-61.55,16.05],[-61.58,16.2],[-61.35,16.33]]]},"properties":{"NAME":"Guadeloupe","SUBJECTO":"Guadeloupe","BORDERPRECISION":3}},
{"type":"Feature","geometry":{"type":"Polygon","coordinates":[[[-68.97,12.2],[-69.08,12.35],[-69.16,12.31],[-69.06,12.19],[-68.83,12.05],[-68.82,12.16],[-68.97,12.2]]]},"properties":{"NAME":"Netherlands Antilles","SUBJECTO":"Netherlands Antilles","BORDERPRECISION":3}},
{"type":"Feature","geometry":{"type":"Polygon","coordinates":[[[-63.01,18.07],[-63.05,18.12],[-63.14,18.06],[-63.01,18.07]]]},"properties":{"NAME":"Saint Martin","SUBJECTO":"Saint Martin","BORDERPRECISION":3}},
{"type":"Feature","geometry":{"type":"Polygon","coordinates":[[[-63.14,18.06],[-63.03,18.02],[-63.01,18.07],[-63.14,18.06]]]},"properties":{"NAME":"Saint Barthelemy","SUBJECTO":"Saint Barthelemy","BORDERPRECISION":3}},
{"type":"Feature","geometry":{"type":"Polygon","coordinates":[[[-71.66,21.82],[-71.85,21.85],[-71.83,21.78],[-71.66,21.82]]]},"properties":{"NAME":"Turks and Caicos Islands","SUBJECTO":"Turks and Caicos Islands","BORDERPRECISION":3}},
{"type":"Feature","geometry":{"type":"Polygon","coordinates":[[[-77.74,26.91],[-77.53,26.86],[-77.15,26.26],[-77.04,26.5],[-77.5,26.86],[-77.74,26.91]]]},"properties":{"NAME":"Bahamas","SUBJECTO":"Bahamas","BORDERPRECISION":3}},
{"type":"Feature","geometry":{"type":"Polygon","coordinates":[[[-72.26,41.13],[-73.59,40.92],[-73.56,40.65],[-72.54,40.83],[-72.26,41.13]]]},"properties":{"NAME":"United States","SUBJECTO":"United States","BORDERPRECISION":3}},
{"type":"Feature","geometry":null,"properties":{"NAME":"Switzerland","SUBJECTO":"Switzerland","BORDERPRECISION":3}},
{"type":"Feature","geometry":{"type":"Polygon","coordinates":[[[16.94,48.66],[13.95,48.66],[12.7,47.69],[9.67,47.56],[9.56,47.5],[9.58,47.49],[9.6,47.47],[9.61,47.47],[9.62,47.46],[9.66,47.45],[9.65,47.44],[9.65,47.43],[9.65,47.41],[9.67,47.38],[9.65,47.37],[9.62,47.37],[9.58,47.31],[9.57,47.3],[9.54,47.28],[9.53,47.27],[9.54,47.26],[9.6,47.06],[9.62,47.06],[9.63,47.05],[9.68,47.06],[9.71,47.06],[9.71,47.05],[9.7,47.05],[9.74,47.04],[9.75,47.04],[9.78,47.04],[9.86,47.03],[9.88,47.02],[9.87,47.01],[9.89,46.99],[9.87,46.97],[9.88,46.95],[9.87,46.94],[9.88,46.94],[9.91,46.93],[9.98,46.92],[9.98,46.91],[10.01,46.9],[10.02,46.91],[10.05,46.87],[10.06,46.87],[10.09,46.86],[10.1,46.85],[10.11,46.85],[10.15,46.85],[10.16,46.85],[10.19,46.87],[10.23,46.87],[10.23,46.89],[10.24,46.93],[10.3,46.92],[10.32,46.93],[10.32,46.95],[10.34,46.98],[10.35,46.99],[10.39,47],[10.43,46.97],[10.43,46.96],[10.46,46.95],[10.49,46.94],[10.47,46.89],[10.47,46.87],[13.57,46.51],[16.26,46.89],[17.33,47.99],[16.94,48.66]]]},"properties":{"NAME":"Austria","SUBJECTO":"Austria","BORDERPRECISION":3}},
{"type":"Feature","geometry":{"type":"Polygon","coordinates":[[[9.48,47.05],[9.49,47.06],[9.6,47.06],[9.54,47.26],[9.53,47.27],[9.48,47.05]]]},"properties":{"NAME":"Liechtenstein","SUBJECTO":"Liechtenstein","BORDERPRECISION":3}},
{"type":"Feature","geometry":{"type":"MultiPolygon","coordinates":[[[[6.43,49.45],[7.59,47.58],[7.6,47.59],[7.61,47.58],[7.65,47.6],[7.68,47.59],[7.7,47.6],[7.69,47.57],[7.68,47.57],[7.68,47.56],[7.68,47.57],[7.64,47.56],[7.69,47.53],[7.71,47.54],[7.81,47.57],[7.83,47.59],[7.9,47.59],[7.92,47.55],[7.95,47.55],[7.97,47.56],[8.04,47.55],[8.08,47.56],[8.1,47.56],[8.12,47.58],[8.14,47.58],[8.22,47.62],[8.23,47.6],[8.26,47.62],[8.3,47.6],[8.31,47.58],[8.33,47.57],[8.39,47.56],[8.4,47.58],[8.43,47.57],[8.49,47.58],[8.48,47.61],[8.51,47.62],[8.52,47.62],[8.52,47.63],[8.54,47.63],[8.56,47.62],[8.57,47.62],[8.58,47.61],[8.57,47.61],[8.57,47.6],[8.58,47.6],[8.59,47.61],[8.6,47.6],[8.6,47.64],[8.61,47.65],[8.62,47.65],[8.61,47.64],[8.6,47.64],[8.61,47.64],[8.63,47.65],[8.61,47.67],[8.6,47.67],[8.57,47.66],[8.56,47.67],[8.54,47.66],[8.53,47.66],[8.53,47.64],[8.5,47.65],[8.5,47.64],[8.49,47.64],[8.47,47.64],[8.48,47.64],[8.47,47.64],[8.41,47.67],[8.42,47.68],[8.41,47.7],[8.44,47.72],[8.45,47.72],[8.46,47.73],[8.49,47.77],[8.51,47.78],[8.52,47.77],[8.56,47.79],[8.57,47.78],[8.58,47.78],[8.56,47.79],[8.57,47.81],[8.58,47.8],[8.59,47.8],[8.6,47.8],[8.62,47.8],[8.63,47.8],[8.62,47.79],[8.62,47.78],[8.62,47.77],[8.63,47.76],[8.65,47.77],[8.65,47.79],[8.66,47.8],[8.68,47.79],[8.69,47.77],[8.69,47.76],[8.71,47.76],[8.72,47.77],[8.73,47.76],[8.75,47.75],[8.72,47.74],[8.72,47.72],[8.74,47.72],[8.73,47.69],[8.8,47.67],[8.81,47.74],[8.81,47.73],[8.82,47.71],[8.84,47.72],[8.85,47.7],[8.87,47.7],[8.88,47.7],[8.87,47.69],[8.86,47.69],[8.87,47.7],[8.85,47.7],[8.86,47.69],[8.85,47.68],[8.87,47.67],[8.86,47.66],[9.1,47.7],[9.12,47.67],[9.5,47.65],[9.67,47.56],[12.7,47.69],[13.95,48.66],[12.24,50.24],[14.83,50.92],[14.28,53.61],[11.41,53.86],[9.5,54.94],[8.62,54.89],[7.16,53.16],[6,50.74],[6.11,50.12],[6.43,49.45]]],[[[8.88,47.65],[8.89,47.64],[8.91,47.64],[8.88,47.65]]],[[[9.14,47.66],[9.14,47.67],[9.1,47.67],[9.14,47.66]]],[[[9.17,47.65],[9.18,47.66],[9.18,47.65],[9.19,47.65],[9.18,47.66],[9.16,47.66],[9.17,47.65]]],[[[9.33,47.59],[9.36,47.58],[9.38,47.57],[9.31,47.6],[9.33,47.59]]],[[[8.7,47.71],[8.69,47.71],[8.68,47.71],[8.67,47.69],[8.66,47.69],[8.67,47.69],[8.69,47.7],[8.72,47.69],[8.7,47.71]]]]},"properties":{"NAME":"Germany","SUBJECTO":"Germany","BORDERPRECISION":3}},
{"type":"Feature","geometry":{"type":"Polygon","coordinates":[[[14.56,35.82],[14.51,35.93],[14.37,35.99],[14.33,35.89],[14.42,35.82],[14.56,35.82]]]},"properties":{"NAME":"Malta","SUBJECTO":"Malta","BORDERPRECISION":3}},
{"type":"Feature","geometry":{"type":"Polygon","coordinates":[[[121.73,25.14],[120.12,23.63],[120.88,22.34],[121.73,25.14]]]},"properties":{"NAME":"Taiwan","SUBJECTO":"Taiwan","BORDERPRECISION":3}},
{"type":"Feature","geometry":{"type":"Polygon","coordinates":[[[8.97,45.97],[8.98,45.98],[8.96,45.99],[8.96,45.97],[8.97,45.97]]]},"properties":{"NAME":"Italy","SUBJECTO":"Italy","BORDERPRECISION":3}},
{"type":"Feature","geometry":{"type":"MultiPolygon","coordinates":[[[[5.82,49.51],[2.52,51.09],[0.03,49.33],[-1.89,49.53],[-3.95,47.9],[-1.08,46.01],[-1.91,43.31],[1.45,42.61],[1.48,42.65],[1.72,42.51],[1.91,42.45],[3.09,42.37],[7.55,43.87],[7.04,45.93],[7.05,45.93],[7.04,45.95],[6.92,46.05],[6.9,46.04],[6.88,46.05],[6.89,46.1],[6.9,46.13],[6.86,46.26],[6.86,46.29],[6.78,46.36],[6.81,46.38],[6.81,46.39],[6.28,46.35],[6.16,46.21],[6.15,46.21],[6.16,46.21],[6.25,46.3],[6.25,46.31],[6.26,46.29],[6.27,46.25],[6.3,46.26],[6.31,46.26],[6.3,46.22],[6.25,46.21],[6.24,46.21],[6.23,46.2],[6.19,46.18],[6.18,46.16],[6.16,46.15],[6.15,46.15],[6.14,46.14],[6.11,46.14],[6.1,46.15],[6.08,46.15],[6.06,46.15],[6.04,46.14],[6.03,46.14],[5.99,46.14],[5.98,46.13],[5.97,46.13],[5.96,46.13],[5.98,46.16],[5.99,46.18],[5.99,46.17],[5.98,46.2],[5.99,46.22],[6,46.22],[6.01,46.22],[6.04,46.24],[6.05,46.23],[6.07,46.25],[6.08,46.24],[6.1,46.25],[6.11,46.24],[6.16,46.38],[6.12,46.4],[6.07,46.42],[6.15,46.56],[6.13,46.56],[6.11,46.58],[6.21,46.64],[6.44,46.93],[6.48,46.96],[6.49,46.97],[6.5,46.98],[6.51,46.97],[6.59,46.99],[6.64,47],[6.68,47.03],[6.7,47.04],[6.69,47.07],[6.71,47.07],[6.71,47.08],[6.73,47.09],[6.75,47.09],[6.74,47.11],[6.84,47.15],[6.86,47.17],[6.85,47.17],[6.87,47.19],[6.88,47.19],[6.95,47.29],[6.98,47.29],[6.98,47.3],[7,47.3],[7.01,47.3],[7.02,47.32],[7.01,47.32],[7.04,47.33],[7.06,47.33],[7.06,47.34],[7.05,47.35],[7.05,47.36],[7.04,47.36],[7.04,47.37],[7.02,47.37],[6.98,47.36],[6.94,47.36],[6.91,47.36],[6.88,47.35],[6.89,47.37],[6.89,47.38],[6.9,47.38],[6.91,47.38],[6.94,47.43],[6.96,47.44],[6.96,47.43],[6.97,47.44],[6.98,47.45],[7,47.45],[7,47.47],[6.99,47.47],[6.99,47.49],[7.03,47.5],[7.04,47.5],[7.08,47.49],[7.12,47.5],[7.13,47.5],[7.16,47.49],[7.21,47.49],[7.2,47.49],[7.18,47.46],[7.2,47.44],[7.23,47.44],[7.25,47.42],[7.28,47.43],[7.33,47.44],[7.39,47.43],[7.46,47.47],[7.42,47.48],[7.44,47.5],[7.46,47.49],[7.47,47.48],[7.5,47.52],[7.53,47.51],[7.52,47.53],[7.51,47.53],[7.5,47.53],[7.5,47.54],[7.56,47.56],[7.57,47.58],[7.59,47.58],[6.43,49.45],[5.82,49.51]]],[[[6.86,46.39],[6.86,46.4],[6.87,46.4],[6.87,46.39],[6.89,46.4],[6.86,46.4],[6.86,46.39]]],[[[6.39,46.47],[6.36,46.46],[6.35,46.46],[6.4,46.46],[6.39,46.47]]]]},"properties":{"NAME":"France","SUBJECTO":"France","BORDERPRECISION":3}},
{"type":"Feature","geometry":{"type":"Polygon","coordinates":[[[13.57,46.51],[10.47,46.87],[10.47,46.89],[10.47,46.88],[10.42,46.79],[10.43,46.79],[10.44,46.78],[10.44,46.77],[10.4,46.74],[10.41,46.73],[10.42,46.72],[10.38,46.69],[10.38,46.68],[10.39,46.67],[10.39,46.66],[10.39,46.65],[10.4,46.65],[10.4,46.64],[10.45,46.64],[10.46,46.64],[10.48,46.62],[10.49,46.62],[10.49,46.61],[10.29,46.55],[10.29,46.56],[10.28,46.57],[10.27,46.58],[10.25,46.57],[10.24,46.58],[10.25,46.61],[10.24,46.63],[10.24,46.64],[10.08,46.58],[10.08,46.57],[10.08,46.56],[10.05,46.54],[10.05,46.53],[10.04,46.51],[10.05,46.5],[10.04,46.48],[10.05,46.48],[10.05,46.47],[10.05,46.46],[10.04,46.46],[10.04,46.45],[10.06,46.44],[10.06,46.43],[10.08,46.43],[10.09,46.43],[10.13,46.43],[10.14,46.43],[10.15,46.42],[10.16,46.42],[10.17,46.41],[10.12,46.32],[10.14,46.31],[10.14,46.3],[10.15,46.3],[10.15,46.29],[10.16,46.28],[10.17,46.27],[10.05,46.23],[10.04,46.23],[10.05,46.26],[10.05,46.27],[10,46.29],[9.99,46.29],[9.99,46.31],[10,46.32],[9.98,46.32],[9.98,46.33],[9.99,46.35],[9.98,46.36],[9.96,46.36],[9.95,46.38],[9.92,46.37],[9.91,46.37],[9.9,46.38],[9.72,46.34],[9.73,46.34],[9.72,46.33],[9.72,46.32],[9.72,46.33],[9.73,46.32],[9.53,46.31],[9.51,46.33],[9.51,46.34],[9.5,46.36],[9.46,46.38],[9.47,46.39],[9.47,46.4],[9.45,46.42],[9.45,46.43],[9.46,46.44],[9.46,46.46],[9.46,46.48],[9.46,46.49],[9.46,46.5],[9.46,46.51],[9.4,46.47],[9.39,46.47],[9.38,46.49],[9.37,46.49],[9.37,46.5],[9.37,46.51],[9.27,46.48],[9.28,46.48],[9.27,46.47],[9.28,46.47],[9.28,46.46],[9.25,46.45],[9.25,46.44],[9.25,46.43],[9.26,46.43],[9.26,46.42],[9.27,46.42],[9.28,46.41],[9.28,46.4],[9.28,46.39],[9.28,46.38],[9.28,46.37],[9.3,46.35],[9.3,46.34],[9.3,46.33],[9.29,46.33],[9.2,46.19],[9.07,46.12],[9.09,46.1],[9.09,46.09],[9.02,46.05],[9.01,46.04],[9.01,46.03],[9.02,46.02],[9.02,46.01],[9.03,46],[8.99,45.97],[9,45.97],[9.01,45.96],[9.01,45.95],[9.02,45.94],[9.02,45.93],[9.06,45.93],[9.06,45.92],[9.07,45.92],[9.08,45.91],[9.08,45.9],[9.08,45.91],[9.09,45.9],[9.08,45.9],[9.05,45.86],[9.04,45.84],[9.03,45.83],[9,45.83],[8.99,45.83],[8.99,45.84],[8.91,45.84],[8.94,45.87],[8.92,45.9],[8.92,45.91],[8.91,45.92],[8.89,45.96],[8.88,45.96],[8.86,45.97],[8.79,45.99],[8.83,46.04],[8.83,46.05],[8.85,46.07],[8.85,46.08],[8.8,46.1],[8.78,46.1],[8.76,46.11],[8.71,46.1],[8.7,46.11],[8.6,46.14],[8.6,46.15],[8.6,46.16],[8.54,46.2],[8.54,46.21],[8.53,46.21],[8.53,46.22],[8.47,46.23],[8.47,46.24],[8.46,46.24],[8.46,46.25],[8.44,46.25],[8.44,46.26],[8.45,46.27],[8.46,46.27],[8.43,46.3],[8.44,46.32],[8.45,46.32],[8.45,46.33],[8.46,46.33],[8.46,46.34],[8.46,46.35],[8.46,46.36],[8.47,46.36],[8.47,46.37],[8.47,46.38],[8.46,46.39],[8.47,46.4],[8.46,46.4],[8.46,46.41],[8.47,46.41],[8.46,46.42],[8.46,46.43],[8.46,46.44],[8.46,46.45],[8.41,46.46],[8.4,46.46],[8.39,46.45],[8.32,46.43],[8.32,46.42],[8.31,46.42],[8.31,46.43],[8.3,46.41],[8.29,46.41],[8.3,46.41],[8.32,46.4],[8.32,46.39],[8.32,46.38],[8.26,46.36],[8.27,46.36],[8.25,46.35],[8.25,46.34],[8.24,46.34],[8.22,46.33],[8.23,46.33],[8.22,46.33],[8.08,46.26],[8.09,46.26],[8.1,46.26],[8.1,46.25],[8.11,46.25],[8.14,46.23],[8.15,46.21],[8.17,46.18],[8.12,46.13],[8.12,46.12],[8.11,46.12],[8.04,46.1],[8.03,46.08],[8.03,46.04],[8.02,46.03],[8.01,46.02],[8.02,46.02],[8.01,46.02],[8.01,46.01],[8,46.01],[8,46],[7.99,46],[7.91,46],[7.91,45.99],[7.9,45.99],[7.9,45.98],[7.89,45.98],[7.88,45.98],[7.88,45.97],[7.88,45.96],[7.87,45.94],[7.88,45.93],[7.55,45.99],[7.55,45.98],[7.55,45.97],[7.55,45.96],[7.54,45.96],[7.5,45.96],[7.48,45.95],[7.48,45.94],[7.29,45.92],[7.29,45.91],[7.28,45.91],[7.28,45.9],[7.21,45.88],[7.2,45.87],[7.21,45.87],[7.2,45.86],[7.05,45.92],[7.05,45.93],[7.04,45.93],[7.55,43.87],[9.91,44.11],[12.64,41.53],[15.67,40.09],[17.08,40.53],[14.09,42.61],[12.35,44.3],[12.18,45.21],[13.8,45.57],[13.57,46.51]]]},"properties":{"NAME":"Italy","SUBJECTO":"Italy","BORDERPRECISION":3}},
{"type":"Feature","geometry":{"type":"Polygon","coordinates":[[[-170.75,-14.37],[-170.64,-14.29],[-170.68,-14.26],[-170.8,-14.3],[-170.75,-14.37]]]},"properties":{"NAME":"American Samoa","SUBJECTO":"American Samoa","BORDERPRECISION":3}},
{"type":"Feature","geometry":{"type":"Polygon","coordinates":[[[178.69,-18.03],[178.17,-17.34],[177.51,-17.51],[177.86,-18.26],[178.69,-18.03]]]},"properties":{"NAME":"Fiji","SUBJECTO":"Fiji","BORDERPRECISION":3}},
{"type":"Feature","geometry":{"type":"Polygon","coordinates":[[[-169.89,-19.15],[-169.78,-19.06],[-169.88,-18.96],[-169.95,-19.07],[-169.89,-19.15]]]},"properties":{"NAME":"Niue","SUBJECTO":"Niue","BORDERPRECISION":3}},
{"type":"Feature","geometry":{"type":"Polygon","coordinates":[[[-175.12,-21.13],[-175.19,-21.25],[-175.12,-21.26],[-175.05,-21.16],[-175.12,-21.13]]]},"properties":{"NAME":"Tonga","SUBJECTO":"Tonga","BORDERPRECISION":3}},
{"type":"Feature","geometry":{"type":"Polygon","coordinates":[[[-178.04,-14.32],[-178.13,-14.25],[-178.13,-14.32],[-178.04,-14.32]]]},"properties":{"NAME":"Wallis and Futuna Islands","SUBJECTO":"Wallis and Futuna Islands","BORDERPRECISION":3}},
{"type":"Feature","geometry":{"type":"Polygon","coordinates":[[[-172.29,-13.49],[-172.78,-13.54],[-172.53,-13.8],[-172.21,-13.81],[-172.29,-13.49]]]},"properties":{"NAME":"Samoa","SUBJECTO":"Samoa","BORDERPRECISION":3}},
{"type":"Feature","geometry":{"type":"Polygon","coordinates":[[[-109.24,-27.13],[-109.37,-27.06],[-109.43,-27.2],[-109.24,-27.13]]]},"properties":{"NAME":"Rapa Nui","SUBJECTO":"Chile","BORDERPRECISION":3}},
{"type":"Feature","geometry":{"type":"Polygon","coordinates":[[[114.03,22.51],[114.33,22.27],[114.31,22.55],[114.03,22.51]]]},"properties":{"NAME":"Hong Kong","SUBJECTO":"United Kingdom","BORDERPRECISION":3}},
{"type":"Feature","geometry":{"type":"Polygon","coordinates":[[[124.13,39.84],[124.74,38.28],[126.37,37.69],[127.06,38.26],[127.07,38.26],[128.27,38.42],[128.28,38.43],[128.31,38.51],[128.31,38.53],[128.36,38.63],[127.44,39.62],[129.76,40.89],[130.44,42.28],[130.23,42.65],[128.1,41.45],[126.47,41.65],[124.13,39.84]]]},"properties":{"NAME":"Korea, Democratic People's Republic of","SUBJECTO":"Korea, Democratic People's Republic of","BORDERPRECISION":3}},
{"type":"Feature","geometry":{"type":"Polygon","coordinates":[[[126.37,37.69],[126.37,34.79],[129.44,35.48],[128.36,38.63],[128.31,38.53],[128.31,38.51],[128.28,38.43],[128.27,38.42],[127.07,38.26],[127.06,38.26],[126.37,37.69]]]},"properties":{"NAME":"Korea, Republic of","SUBJECTO":"Korea, Republic of","BORDERPRECISION":3}},
{"type":"Feature","geometry":{"type":"Polygon","coordinates":[[[1.72,42.51],[1.48,42.65],[1.45,42.61],[1.45,42.6],[1.72,42.5],[1.72,42.51]]]},"properties":{"NAME":"Andorra","SUBJECTO":"Andorra","BORDERPRECISION":3}}
]}