{"type":"FeatureCollection", "features": [
{"type":"Feature","geometry":{"type":"Polygon","coordinates":[[[5.82,49.51],[6.43,49.45],[6.41,49.55],[6.14,49.98],[6.11,50.12],[5.82,49.51]]]},"properties":{"NAME":"Luxembourg","SUBJECTO":"Luxembourg","BORDERPRECISION":3}},
{"type":"Feature","geometry":{"type":"Polygon","coordinates":[[[10.4,46.89],[9.54,47.49],[8.98,47.68],[7.51,47.6],[6.11,46.58],[6.17,46.21],[6.27,46.39],[6.38,46.46],[6.4,46.46],[6.56,46.51],[6.59,46.52],[6.69,46.5],[6.72,46.49],[6.83,46.47],[6.86,46.45],[6.9,46.44],[6.93,46.41],[6.86,46.4],[6.96,45.94],[10.4,46.89]]]},"properties":{"NAME":"Switzerland","SUBJECTO":"Switzerland","BORDERPRECISION":3}},
{"type":"Feature","geometry":{"type":"Polygon","coordinates":[[[-1.91,43.31],[-7.64,43.72],[-8.81,41.89],[-6.71,41.96],[-7.49,37.21],[-5.66,36.01],[-2.24,36.73],[0.17,38.74],[0.88,41.02],[3.09,42.37],[1.91,42.45],[1.72,42.51],[1.72,42.5],[1.45,42.6],[1.45,42.61],[-1.91,43.31]]]},"properties":{"NAME":"Spain","SUBJECTO":"Spain","BORDERPRECISION":3}},
{"type":"Feature","geometry":{"type":"Polygon","coordinates":[[[124.13,39.84],[126.41,37.9],[128.8,37.92],[127.56,39.33],[130.44,42.28],[130.23,42.65],[126.47,41.65],[124.13,39.84]]]},"properties":{"NAME":"Korea (USSR)","SUBJECTO":"USSR","BORDERPRECISION":3}},
{"type":"Feature","geometry":{"type":"Polygon","coordinates":[[[-0.2,53.52],[-2.74,55.96],[-2.15,57.57],[-5.76,57.62],[-5.63,55.94],[-3.58,54.92],[-4.32,53.09],[-3.52,50.62],[0.19,50.73],[1.69,52.31],[-0.2,53.52]]]},"properties":{"NAME":"United Kingdom","SUBJECTO":"United Kingdom","BORDERPRECISION":3}},
{"type":"Feature","geometry":{"type":"MultiPolygon","coordinates":[[[[136.72,37.27],[134.43,34.63],[140.32,35.03],[140.87,37.92],[136.72,37.27]]],[[[140.11,41.27],[143.21,41.93],[145.06,43.79],[141.88,45.44],[140.11,41.27]]]]},"properties":{"NAME":"Japan (USA)","SUBJECTO":"USA","BORDERPRECISION":3}},
{"type":"Feature","geometry":{"type":"Polygon","coordinates":[[[88.8,27.18],[90,26.78],[91.61,27.64],[88.8,27.18]]]},"properties":{"NAME":"Bhutan","SUBJECTO":"Bhutan","BORDERPRECISION":3}},
{"type":"Feature","geometry":{"type":"Polygon","coordinates":[[[-17.02,21.31],[-13.02,21.28],[-11.99,23.48],[-11.89,25.9],[-8.69,25.91],[-8.63,27.17],[-8.64,27.57],[-13.12,27.55],[-14.37,26.12],[-17.02,21.31]]]},"properties":{"NAME":"Western Sahara","SUBJECTO":"Western Sahara","BORDERPRECISION":3}},
{"type":"Feature","geometry":{"type":"Polygon","coordinates":[[[51.29,24.41],[50.97,24.44],[51.12,24.4],[51.29,24.41]]]},"properties":{"NAME":"Qatar","SUBJECTO":"Qatar","BORDERPRECISION":3}},
{"type":"Feature","geometry":{"type":"Polygon","coordinates":[[[51.12,24.4],[51.95,22.48],[55.7,22.3],[56.41,24.92],[56.16,25.47],[56.16,25.97],[54.35,24.15],[51.29,24.41],[51.12,24.4]]]},"properties":{"NAME":"United Arab Emirates","SUBJECTO":"United Arab Emirates","BORDERPRECISION":3}},
{"type":"Feature","geometry":{"type":"Polygon","coordinates":[[[-4.87,24.99],[-6.56,24.9],[-6.12,20.96],[-5.48,15.47],[-10.65,15.43],[-11.9,14.81],[-11.42,12.4],[-9.12,12.46],[-7.91,10.12],[-5.56,10.36],[-4.22,13.24],[-0.69,15.09],[0.27,14.96],[3.4,15.34],[4.2,19.14],[1.09,21.13],[-4.87,24.99]]]},"properties":{"NAME":"Mali","SUBJECTO":"France","BORDERPRECISION":3}},
{"type":"Feature","geometry":{"type":"Polygon","coordinates":[[[55.7,22.3],[56.03,21.24],[51.81,18.98],[53.02,16.65],[55.19,17.15],[57.84,19.03],[59.84,22.28],[56.41,24.92],[55.7,22.3]]]},"properties":{"NAME":"Oman","SUBJECTO":"Oman","BORDERPRECISION":3}},
{"type":"Feature","geometry":{"type":"Polygon","coordinates":[[[0.27,14.96],[0.98,13.02],[2.32,12.17],[3.61,11.72],[4.19,13.48],[9.06,12.82],[13.54,13.66],[15.49,16.89],[15.96,20.32],[14.97,22.97],[11.96,23.47],[7.54,20.92],[4.2,19.14],[3.4,15.34],[0.27,14.96]]]},"properties":{"NAME":"Niger","SUBJECTO":"France","BORDERPRECISION":3}},
{"type":"Feature","geometry":{"type":"Polygon","coordinates":[[[13.54,13.66],[14.03,13.06],[15.16,10.37],[13.91,9.55],[15.56,7.5],[18.54,8.01],[22.82,10.91],[21.78,12.8],[23.01,15.68],[23.95,15.7],[23.95,19.47],[17.7,22.54],[14.97,22.97],[15.96,20.32],[15.49,16.89],[13.54,13.66]]]},"properties":{"NAME":"Chad","SUBJECTO":"France","BORDERPRECISION":3}},
{"type":"Feature","geometry":{"type":"Polygon","coordinates":[[[105.85,19.71],[107.88,21.46],[105.31,23.3],[101.97,22.53],[102.99,20.94],[104.68,20.24],[105.85,19.71]]]},"properties":{"NAME":"Tonkin","SUBJECTO":"France","BORDERPRECISION":3}},
{"type":"Feature","geometry":{"type":"Polygon","coordinates":[[[-82.18,22.37],[-77.29,20.7],[-77.34,21.51],[-81.43,23.14],[-82.18,22.37]]]},"properties":{"NAME":"Cuba","SUBJECTO":"Cuba","BORDERPRECISION":3}},
{"type":"Feature","geometry":{"type":"Polygon","coordinates":[[[101.97,22.53],[101.01,21.44],[100,20.46],[101.86,18.11],[103.93,18.28],[105.47,15.15],[105.06,14.24],[107.39,14.58],[107.11,16.17],[104.81,18.72],[104.68,20.24],[102.99,20.94],[101.97,22.53]]]},"properties":{"NAME":"Laos","SUBJECTO":"France","BORDERPRECISION":3}},
{"type":"Feature","geometry":{"type":"Polygon","coordinates":[[[-71.78,19.77],[-72.75,18.51],[-71.68,18],[-71.78,19.77]]]},"properties":{"NAME":"Haiti","SUBJECTO":"Haiti","BORDERPRECISION":3}},
{"type":"Feature","geometry":{"type":"Polygon","coordinates":[[[-71.68,18],[-68.66,18.87],[-71.78,19.77],[-71.68,18]]]},"properties":{"NAME":"Dominican Republic","SUBJECTO":"Dominican Republic","BORDERPRECISION":3}},
{"type":"Feature","geometry":{"type":"MultiPolygon","coordinates":[[[[120.36,14.53],[122.4,17.11],[120.39,18.04],[119.77,15.47],[120.36,14.53]]],[[[126.05,6.61],[125.93,9.17],[123.46,7.79],[124.22,6.09],[126.05,6.61]]]]},"properties":{"NAME":"Philippines","SUBJECTO":"Philippines","BORDERPRECISION":3}},
{"type":"Feature","geometry":{"type":"Polygon","coordinates":[[[-66.91,17.94],[-65.97,18.03],[-65.95,18.47],[-67.06,18.55],[-66.91,17.94]]]},"properties":{"NAME":"Puerto Rico","SUBJECTO":"Puerto Rico","BORDERPRECISION":3}},
{"type":"Feature","geometry":{"type":"Polygon","coordinates":[[[-77.29,17.81],[-76.43,18.12],[-77.77,18.51],[-77.29,17.81]]]},"properties":{"NAME":"Jamaica (UK)","SUBJECTO":"United Kingdom","BORDERPRECISION":3}},
{"type":"Feature","geometry":{"type":"Polygon","coordinates":[[[-5.56,10.36],[-2.84,9.57],[-2.7,10.93],[0.06,11.06],[0.93,10.9],[2.32,12.17],[0.98,13.02],[0.27,14.96],[-0.69,15.09],[-4.22,13.24],[-5.56,10.36]]]},"properties":{"NAME":"Burkina Faso","SUBJECTO":"Burkina Faso","BORDERPRECISION":3}},
{"type":"Feature","geometry":{"type":"Polygon","coordinates":[[[-85.84,11.08],[-83.75,10.88],[-83.42,15],[-84.83,14.77],[-87.4,13.03],[-85.84,11.08]]]},"properties":{"NAME":"Nicaragua","SUBJECTO":"Nicaragua","BORDERPRECISION":3}},
{"type":"Feature","geometry":{"type":"Polygon","coordinates":[[[105.06,14.24],[103.08,14.29],[102.67,12.04],[104.39,10.31],[107.13,12.2],[107.39,14.58],[105.06,14.24]]]},"properties":{"NAME":"Cambodia","SUBJECTO":"France","BORDERPRECISION":3}},
{"type":"Feature","geometry":{"type":"Polygon","coordinates":[[[-85.84,11.08],[-82.96,8.05],[-82.56,9.58],[-83.75,10.88],[-85.84,11.08]]]},"properties":{"NAME":"Costa Rica","SUBJECTO":"Costa Rica","BORDERPRECISION":3}},
{"type":"Feature","geometry":{"type":"Polygon","coordinates":[[[15.56,7.5],[14.4,5.83],[16.08,2.13],[16.55,3.31],[18.5,3.53],[19.58,5.08],[22.42,4.07],[25.49,5.31],[27.24,5.16],[23.52,8.61],[22.82,10.91],[18.54,8.01],[15.56,7.5]]]},"properties":{"NAME":"Central African Republic","SUBJECTO":"Central African Republic","BORDERPRECISION":3}},
{"type":"Feature","geometry":{"type":"Polygon","coordinates":[[[-13.16,8.85],[-11.47,6.84],[-10.38,8.08],[-11.29,9.9],[-13.16,8.85]]]},"properties":{"NAME":"Sierra Leone","SUBJECTO":"United Kingdom","BORDERPRECISION":3}},
{"type":"Feature","geometry":{"type":"Polygon","coordinates":[[[80.56,5.93],[81.87,7.08],[80.66,9.3],[79.67,8.8],[80.56,5.93]]]},"properties":{"NAME":"Sri Lanka","SUBJECTO":"Sri Lanka","BORDERPRECISION":3}},
{"type":"Feature","geometry":{"type":"Polygon","coordinates":[[[-82.96,8.05],[-80.81,7.27],[-79.72,8.88],[-77.9,7.17],[-77.49,8.66],[-79.5,9.64],[-80.96,8.86],[-82.56,9.58],[-82.96,8.05]]]},"properties":{"NAME":"Panama","SUBJECTO":"Panama","BORDERPRECISION":3}},
{"type":"Feature","geometry":{"type":"Polygon","coordinates":[[[-60.55,5.01],[-58.85,1.15],[-56.71,1.89],[-58,3.96],[-57.07,5.84],[-59.83,8.44],[-61.25,5.87],[-60.55,5.01]]]},"properties":{"NAME":"Guyana","SUBJECTO":"Netherlands","BORDERPRECISION":3}},
{"type":"Feature","geometry":{"type":"Polygon","coordinates":[[[-11.47,6.84],[-7.56,4.35],[-8.3,7.44],[-10.38,8.08],[-11.47,6.84]]]},"properties":{"NAME":"Liberia","SUBJECTO":"Liberia","BORDERPRECISION":3}},
{"type":"Feature","geometry":{"type":"Polygon","coordinates":[[[18.5,3.53],[17.45,-0.85],[15.99,-3.67],[13.02,-4.77],[12.2,-5.75],[12.34,-6.19],[16.41,-5.97],[17.6,-8.12],[19.55,-7.03],[21.61,-7.34],[22.55,-11.16],[23.94,-11.04],[27.45,-12.19],[28.47,-9.3],[30.66,-8.29],[29.35,-4.75],[28.89,-2.77],[29.53,-1.43],[29.77,0.44],[31.16,1.8],[30.74,3.51],[29.69,4.52],[27.24,5.16],[25.49,5.31],[22.42,4.07],[19.58,5.08],[18.5,3.53]]]},"properties":{"NAME":"Zaire","SUBJECTO":"Zaire","BORDERPRECISION":3}},
{"type":"Feature","geometry":{"type":"Polygon","coordinates":[[[30.66,-8.29],[33.2,-9.66],[34.49,-11.6],[38.61,-11.44],[40.47,-10.48],[39.66,-9.8],[38.92,-6.34],[39.23,-4.84],[37.62,-3.17],[33.27,-1.13],[30.6,-1.15],[30.46,-2.48],[29.35,-4.75],[30.66,-8.29]]]},"properties":{"NAME":"Tanzania, United Republic of","SUBJECTO":"United Kingdom","BORDERPRECISION":3}},
{"type":"Feature","geometry":{"type":"Polygon","coordinates":[[[28.89,-2.77],[30.46,-2.48],[30.6,-1.15],[29.53,-1.43],[28.89,-2.77]]]},"properties":{"NAME":"Rwanda","SUBJECTO":"Rwanda","BORDERPRECISION":3}},
{"type":"Feature","geometry":{"type":"Polygon","coordinates":[[[29.35,-4.75],[30.46,-2.48],[28.89,-2.77],[29.35,-4.75]]]},"properties":{"NAME":"Burundi","SUBJECTO":"Burundi","BORDERPRECISION":3}},
{"type":"Feature","geometry":{"type":"MultiPolygon","coordinates":[[[[12.34,-6.19],[13.39,-8.16],[13.65,-12.2],[12.59,-13.46],[11.78,-17.34],[18.45,-17.51],[21.46,-18.02],[23.23,-17.66],[21.99,-16.38],[21.96,-13.07],[23.78,-13.01],[23.94,-11.04],[22.55,-11.16],[21.61,-7.34],[19.55,-7.03],[17.6,-8.12],[16.41,-5.97],[12.34,-6.19]]],[[[13.02,-4.77],[12,-5],[12.2,-5.75],[13.02,-4.77]]]]},"properties":{"NAME":"Angola (Portugal)","SUBJECTO":"Portugal","BORDERPRECISION":3}},
{"type":"Feature","geometry":{"type":"Polygon","coordinates":[[[23.94,-11.04],[23.78,-13.01],[21.96,-13.07],[21.99,-16.38],[23.23,-17.66],[25,-17.81],[25.35,-18.01],[26.89,-18.11],[29.08,-16.01],[30.4,-15.67],[33.11,-14.05],[33.2,-9.66],[30.66,-8.29],[28.47,-9.3],[27.45,-12.19],[23.94,-11.04]]]},"properties":{"NAME":"Northern Rhodesia","SUBJECTO":"United Kingdom","BORDERPRECISION":3}},
{"type":"Feature","geometry":{"type":"Polygon","coordinates":[[[33.2,-9.66],[33.11,-14.05],[34.48,-14.74],[34.49,-11.6],[33.2,-9.66]]]},"properties":{"NAME":"Nyasaland","SUBJECTO":"United Kingdom","BORDERPRECISION":3}},
{"type":"Feature","geometry":{"type":"Polygon","coordinates":[[[-69.59,-10.9],[-68.64,-12.58],[-69.43,-17.6],[-68.64,-20.44],[-67.19,-22.98],[-66.15,-21.92],[-62.61,-22.16],[-61.55,-19.64],[-58.14,-19.81],[-57.6,-18.04],[-58.33,-16.37],[-60.03,-16.33],[-60.36,-13.9],[-64.26,-12.47],[-66.31,-9.84],[-69.59,-10.9]]]},"properties":{"NAME":"Bolivia","SUBJECTO":"Bolivia","BORDERPRECISION":3}},
{"type":"Feature","geometry":{"type":"Polygon","coordinates":[[[34.49,-11.6],[34.48,-14.74],[33.11,-14.05],[30.4,-15.67],[32.65,-16.61],[33.06,-19.93],[31.28,-22.56],[32.01,-26.08],[32.16,-27.01],[32.85,-26.98],[34.88,-24.72],[35.26,-22.27],[34.73,-19.86],[37.28,-17.71],[39.47,-16.72],[40.6,-14.4],[40.47,-10.48],[38.61,-11.44],[34.49,-11.6]]]},"properties":{"NAME":"Mozambique (Portugal)","SUBJECTO":"Portugal","BORDERPRECISION":3}},
{"type":"Feature","geometry":{"type":"Polygon","coordinates":[[[44.67,-16.24],[43.97,-17.55],[44.47,-20.17],[43.5,-21.49],[43.67,-24.23],[45.58,-25.62],[47.26,-24.77],[49.34,-18.23],[50.5,-15.31],[49.82,-12.83],[46.92,-15.36],[44.67,-16.24]]]},"properties":{"NAME":"Madagascar (France)","SUBJECTO":"France","BORDERPRECISION":3}},
{"type":"Feature","geometry":{"type":"Polygon","coordinates":[[[25.35,-18.01],[27.97,-21.58],[29.23,-22.19],[31.28,-22.56],[33.06,-19.93],[32.65,-16.61],[30.4,-15.67],[29.08,-16.01],[26.89,-18.11],[25.35,-18.01]]]},"properties":{"NAME":"Rhodesia","SUBJECTO":"United Kingdom","BORDERPRECISION":3}},
{"type":"Feature","geometry":{"type":"Polygon","coordinates":[[[11.78,-17.34],[14.57,-22.76],[14.44,-23.41],[15.45,-27.62],[16.33,-28.56],[19.87,-28.35],[19.84,-24.94],[19.89,-22.11],[20.92,-22.06],[20.95,-18.4],[25,-17.81],[23.23,-17.66],[21.46,-18.02],[18.45,-17.51],[11.78,-17.34]]]},"properties":{"NAME":"Namibia","SUBJECTO":"Namibia","BORDERPRECISION":3}},
{"type":"Feature","geometry":{"type":"MultiPolygon","coordinates":[[[[-69.43,-17.6],[-70.36,-18.45],[-70.11,-21.75],[-70.4,-25.25],[-71.43,-29.1],[-71.62,-33.71],[-73.67,-37.5],[-73.91,-40.84],[-72.44,-42.3],[-74.31,-48.75],[-73.41,-52.02],[-68.46,-52.42],[-71.79,-52.09],[-73.51,-49.76],[-72.46,-48.85],[-71.32,-44.81],[-71.86,-40.75],[-70.84,-38.73],[-71.1,-36.81],[-69.84,-33.76],[-70.5,-31.69],[-69.95,-29.36],[-68.25,-26.98],[-68.39,-24.6],[-67.19,-22.98],[-68.64,-20.44],[-69.43,-17.6]]],[[[-68.75,-54.89],[-68.71,-53.23],[-68.7,-52.72],[-68.75,-54.89]]]]},"properties":{"NAME":"Chile","SUBJECTO":"Chile","BORDERPRECISION":3}},
{"type":"Feature","geometry":{"type":"Polygon","coordinates":[[[25,-17.81],[20.95,-18.4],[20.92,-22.06],[19.89,-22.11],[19.84,-24.94],[20.77,-26.95],[22.94,-25.45],[25.86,-24.87],[29.23,-22.19],[27.97,-21.58],[25.35,-18.01],[25,-17.81]]]},"properties":{"NAME":"Botswana","SUBJECTO":"United Kingdom","BORDERPRECISION":3}},
{"type":"Feature","geometry":{"type":"Polygon","coordinates":[[[-62.61,-22.16],[-61.24,-23.62],[-57.71,-25.34],[-58.07,-27.19],[-55.73,-27.45],[-54.58,-25.74],[-54.22,-24.12],[-55.62,-22.45],[-57.81,-22.15],[-58.14,-19.81],[-61.55,-19.64],[-62.61,-22.16]]]},"properties":{"NAME":"Paraguay","SUBJECTO":"Paraguay","BORDERPRECISION":3}},
{"type":"Feature","geometry":{"type":"Polygon","coordinates":[[[32.16,-27.01],[31.33,-27.41],[30.81,-26.75],[32.01,-26.08],[31.28,-22.56],[29.23,-22.19],[25.86,-24.87],[22.94,-25.45],[20.77,-26.95],[19.84,-24.94],[19.87,-28.35],[16.33,-28.56],[18.18,-31.81],[18.49,-34.4],[26.66,-33.85],[28.92,-32.3],[32.23,-28.74],[32.85,-26.98],[32.16,-27.01]],[[27.85,-30.79],[27.07,-29.8],[28.62,-28.72],[29.44,-29.43],[27.85,-30.79]]]},"properties":{"NAME":"South Africa","SUBJECTO":"South Africa","BORDERPRECISION":3}},
{"type":"Feature","geometry":{"type":"Polygon","coordinates":[[[32.01,-26.08],[30.81,-26.75],[31.33,-27.41],[32.16,-27.01],[32.01,-26.08]]]},"properties":{"NAME":"Swaziland","SUBJECTO":"United Kingdom","BORDERPRECISION":3}},
{"type":"Feature","geometry":{"type":"Polygon","coordinates":[[[27.85,-30.79],[29.44,-29.43],[28.62,-28.72],[27.07,-29.8],[27.85,-30.79]]]},"properties":{"NAME":"Lesotho","SUBJECTO":"United Kingdom","BORDERPRECISION":3}},
{"type":"Feature","geometry":{"type":"MultiPolygon","coordinates":[[[[175.31,-37.32],[174.65,-38.98],[176.01,-41.26],[178.41,-38.77],[175.31,-37.32]]],[[[172.06,-43.92],[171.46,-41.99],[168.42,-44.22],[166.52,-46.23],[169.4,-46.71],[172.06,-43.92]]]]},"properties":{"NAME":"New Zealand","SUBJECTO":"New Zealand","BORDERPRECISION":3}},
{"type":"Feature","geometry":{"type":"Polygon","coordinates":[[[-67.19,-22.98],[-68.39,-24.6],[-68.25,-26.98],[-69.95,-29.36],[-70.5,-31.69],[-69.84,-33.76],[-71.1,-36.81],[-70.84,-38.73],[-71.86,-40.75],[-71.32,-44.81],[-72.46,-48.85],[-73.51,-49.76],[-71.79,-52.09],[-68.46,-52.42],[-69.04,-50.56],[-65.78,-47.23],[-64.94,-40.83],[-62.96,-41.14],[-61.36,-39.03],[-57.81,-38.39],[-56.7,-36.94],[-58.34,-34.22],[-57.58,-30.4],[-53.62,-26.27],[-54.58,-25.74],[-55.73,-27.45],[-58.07,-27.19],[-57.71,-25.34],[-61.24,-23.62],[-62.61,-22.16],[-66.15,-21.92],[-67.19,-22.98]]]},"properties":{"NAME":"Argentina","SUBJECTO":"Argentina","BORDERPRECISION":3}},
{"type":"Feature","geometry":{"type":"Polygon","coordinates":[[[-24.22,65.53],[-22.37,63.77],[-18.64,63.32],[-14.82,64.2],[-16.92,65.98],[-24.22,65.53]]]},"properties":{"NAME":"Iceland","SUBJECTO":"Iceland","BORDERPRECISION":3}},
{"type":"Feature","geometry":{"type":"Polygon","coordinates":[[[-7.43,55.06],[-9.89,52.19],[-6.41,52.21],[-6.21,53.96],[-7.43,55.06]]]},"properties":{"NAME":"Ireland","SUBJECTO":"Ireland","BORDERPRECISION":3}},
{"type":"Feature","geometry":{"type":"Polygon","coordinates":[[[119.71,46.72],[118.77,47.86],[115.6,48.1],[116.76,49.93],[114.1,50.27],[109.42,49.3],[106.32,50.42],[103.68,50.17],[98.92,52.04],[97.42,49.79],[92.16,50.76],[87.87,49.23],[90,47.84],[90,45.33],[95.24,44.28],[96.34,42.79],[101.74,42.54],[105.02,41.59],[109.38,42.44],[116.48,46.31],[119.71,46.72]]]},"properties":{"NAME":"Mongolia","SUBJECTO":"Mongolia","BORDERPRECISION":3}},
{"type":"Feature","geometry":{"type":"Polygon","coordinates":[[[6.11,50.12],[6,50.74],[3.78,51.39],[2.52,51.09],[5.82,49.51],[6.11,50.12]]]},"properties":{"NAME":"Belgium","SUBJECTO":"Belgium","BORDERPRECISION":3}},
{"type":"Feature","geometry":{"type":"Polygon","coordinates":[[[16.26,46.89],[17.79,45.81],[20.31,46.13],[23.03,48.01],[22.1,48.4],[17.33,47.99],[16.26,46.89]]]},"properties":{"NAME":"Hungary","SUBJECTO":"Hungary","BORDERPRECISION":3}},
{"type":"Feature","geometry":{"type":"Polygon","coordinates":[[[20.31,46.13],[22.69,44.26],[28.51,43.74],[29.62,45.41],[27,48.19],[23.03,48.01],[20.31,46.13]]]},"properties":{"NAME":"Romania","SUBJECTO":"Romania","BORDERPRECISION":3}},
{"type":"Feature","geometry":{"type":"Polygon","coordinates":[[[22.69,44.26],[22.92,41.23],[26.35,41.64],[27.92,41.98],[28.51,43.74],[22.69,44.26]]]},"properties":{"NAME":"Bulgaria","SUBJECTO":"Bulgaria","BORDERPRECISION":3}},
{"type":"Feature","geometry":{"type":"Polygon","coordinates":[[[87.87,49.23],[83.25,47.29],[82.44,45.74],[80.24,45.12],[80.11,42],[73.83,39.78],[74.73,37.21],[74.52,37],[78.81,34.2],[80.45,35.42],[84.1,35.36],[88.52,36.5],[89.57,36.06],[91.25,36.12],[90.11,38.47],[92.4,38.99],[93,40.59],[96.34,42.79],[95.24,44.28],[90,45.33],[90,47.84],[87.87,49.23]]]},"properties":{"NAME":"Xinjiang","SUBJECTO":"Xinjiang","BORDERPRECISION":3}},
{"type":"Feature","geometry":{"type":"Polygon","coordinates":[[[20.12,39.55],[21.03,40.73],[19.37,41.85],[20.12,39.55]]]},"properties":{"NAME":"Albania","SUBJECTO":"Albania","BORDERPRECISION":3}},
{"type":"Feature","geometry":{"type":"Polygon","coordinates":[[[-8.81,41.89],[-9.55,38.77],[-7.49,37.21],[-6.71,41.96],[-8.81,41.89]]]},"properties":{"NAME":"Portugal","SUBJECTO":"Portugal","BORDERPRECISION":3}},
{"type":"Feature","geometry":{"type":"MultiPolygon","coordinates":[[[[26.35,41.64],[26.02,40.67],[27.92,41.98],[26.35,41.64]]],[[[44.79,37.13],[44.67,39.76],[41.48,41.44],[36.38,41.24],[33.56,41.98],[26.13,39.88],[27.16,37.36],[30.47,36.19],[35.83,35.88],[42.53,37.2],[44.79,37.13]]]]},"properties":{"NAME":"Turkey","SUBJECTO":"Turkey","BORDERPRECISION":3}},
{"type":"Feature","geometry":{"type":"Polygon","coordinates":[[[22.92,41.23],[21.03,40.73],[20.12,39.55],[21.23,37.9],[23.56,38.35],[22.6,40.4],[26.02,40.67],[26.35,41.64],[22.92,41.23]]]},"properties":{"NAME":"Greece","SUBJECTO":"Greece","BORDERPRECISION":3}},
{"type":"Feature","geometry":{"type":"Polygon","coordinates":[[[44.79,37.13],[46.18,35.06],[45.51,33.8],[47.79,31.8],[48.55,29.99],[50.13,30.07],[51.35,28.04],[54.65,26.39],[61.57,25.04],[63.24,26.67],[60.82,29.83],[60.54,32.99],[61.22,35.58],[57.23,38.19],[54.02,37.35],[51.8,36.43],[48.82,38.31],[44.67,39.76],[44.79,37.13]]]},"properties":{"NAME":"Iran","SUBJECTO":"Iran","BORDERPRECISION":3}},
{"type":"Feature","geometry":{"type":"Polygon","coordinates":[[[74.73,37.21],[71.44,37.83],[67.86,36.85],[65.72,37.49],[62.68,35.27],[61.22,35.58],[60.54,32.99],[60.82,29.83],[62.37,29.38],[66.09,29.74],[66.47,30.84],[69.21,31.8],[72.37,36.72],[74.09,36.8],[74.52,37],[74.73,37.21]]]},"properties":{"NAME":"Afghanistan","SUBJECTO":"Afghanistan","BORDERPRECISION":3}},
{"type":"Feature","geometry":{"type":"Polygon","coordinates":[[[42.53,37.2],[41.12,34.43],[38.75,33.21],[39.33,32.14],[43.54,30.29],[44.69,29.03],[46.51,28.97],[47.91,29.89],[48.55,29.99],[47.79,31.8],[45.51,33.8],[46.18,35.06],[44.79,37.13],[42.53,37.2]]]},"properties":{"NAME":"Iraq","SUBJECTO":"Iraq","BORDERPRECISION":3}},
{"type":"Feature","geometry":{"type":"Polygon","coordinates":[[[35.83,35.88],[35.85,34.49],[35.5,33.11],[35.7,32.72],[38.75,33.21],[41.12,34.43],[42.53,37.2],[35.83,35.88]]]},"properties":{"NAME":"Syria","SUBJECTO":"Syria","BORDERPRECISION":3}},
{"type":"Feature","geometry":{"type":"Polygon","coordinates":[[[11.47,33.14],[10.13,37.1],[8.64,36.89],[7.82,33.06],[9.57,30.21],[11.47,33.14]]]},"properties":{"NAME":"Tunisia","SUBJECTO":"France","BORDERPRECISION":3}},
{"type":"Feature","geometry":{"type":"Polygon","coordinates":[[[-8.63,27.17],[-4.87,24.99],[1.09,21.13],[4.2,19.14],[7.54,20.92],[11.96,23.47],[10.31,24.47],[9.61,29.54],[9.57,30.21],[7.82,33.06],[8.64,36.89],[1.06,36.46],[-2.19,35.05],[-1.23,31.99],[-8.59,28.64],[-8.64,27.57],[-8.63,27.17]]]},"properties":{"NAME":"Algeria","SUBJECTO":"France","BORDERPRECISION":3}},
{"type":"Feature","geometry":{"type":"Polygon","coordinates":[[[-8.64,27.57],[-8.59,28.64],[-1.23,31.99],[-2.19,35.05],[-5.93,35.73],[-7,33.87],[-9.22,32.58],[-9.66,29.95],[-13.12,27.55],[-8.64,27.57]]]},"properties":{"NAME":"Morocco","SUBJECTO":"France","BORDERPRECISION":3}},
{"type":"Feature","geometry":{"type":"Polygon","coordinates":[[[35.85,34.49],[34.97,32.94],[35.5,33.11],[35.85,34.49]]]},"properties":{"NAME":"Lebanon","SUBJECTO":"Lebanon","BORDERPRECISION":3}},
{"type":"Feature","geometry":{"type":"Polygon","coordinates":[[[-97.26,25.81],[-99.1,26.41],[-101.03,29.33],[-103.59,29.06],[-106.54,31.7],[-111.09,31.31],[-114.62,32.43],[-117.17,32.52],[-115.6,29.69],[-113.05,31.14],[-111.69,28.5],[-109.13,26.29],[-105.54,22.28],[-104.95,19.44],[-103.49,18.35],[-97.88,16.05],[-94.08,16.11],[-92.16,14.54],[-91.01,17.84],[-89.15,17.83],[-88.32,18.49],[-87.2,21.53],[-90,21.16],[-90,19.38],[-94.24,18.24],[-96.01,18.93],[-97.5,21.19],[-97.82,24.21],[-97.26,25.81]]]},"properties":{"NAME":"Mexico","SUBJECTO":"Mexico","BORDERPRECISION":3}},
{"type":"Feature","geometry":{"type":"Polygon","coordinates":[[[46.51,28.97],[48.44,28.44],[47.91,29.89],[46.51,28.97]]]},"properties":{"NAME":"Kuwait","SUBJECTO":"Kuwait","BORDERPRECISION":3}},
{"type":"Feature","geometry":{"type":"Polygon","coordinates":[[[101.01,21.44],[99.16,22.31],[98.73,26.34],[98.01,28.09],[97.34,28.18],[95.18,26.56],[94.18,23.94],[92.51,22.11],[92.12,21],[94.05,19.06],[95.33,15.68],[97.57,16.45],[98.49,13.11],[98.59,10.12],[99.58,11.89],[98.14,15.19],[97.79,19.4],[100,20.46],[101.01,21.44]]]},"properties":{"NAME":"Burma","SUBJECTO":"Burma","BORDERPRECISION":3}},
{"type":"Feature","geometry":{"type":"Polygon","coordinates":[[[92.51,22.11],[92.14,25.1],[88.88,25.25],[89.07,21.77],[91.41,22.72],[92.12,21],[92.51,22.11]]]},"properties":{"NAME":"Bangladesh","SUBJECTO":"Bangladesh","BORDERPRECISION":3}},
{"type":"Feature","geometry":{"type":"Polygon","coordinates":[[[100,20.46],[97.79,19.4],[98.14,15.19],[99.58,11.89],[98.59,10.12],[98.18,8.6],[100.16,6.34],[102.07,6.15],[100.61,6.98],[99.07,9.9],[99.9,12.08],[102.67,12.04],[103.08,14.29],[105.06,14.24],[105.47,15.15],[103.93,18.28],[101.86,18.11],[100,20.46]]]},"properties":{"NAME":"Thailand","SUBJECTO":"Thailand","BORDERPRECISION":3}},
{"type":"Feature","geometry":{"type":"Polygon","coordinates":[[[-89.15,17.83],[-88.94,15.9],[-88.32,18.49],[-89.15,17.83]]]},"properties":{"NAME":"Belize","SUBJECTO":"Belize","BORDERPRECISION":3}},
{"type":"Feature","geometry":{"type":"Polygon","coordinates":[[[-92.16,14.54],[-90,13.87],[-89.38,14.47],[-88.27,15.75],[-88.94,15.9],[-89.15,17.83],[-91.01,17.84],[-92.16,14.54]]]},"properties":{"NAME":"Guatemala","SUBJECTO":"Guatemala","BORDERPRECISION":3}},
{"type":"Feature","geometry":{"type":"Polygon","coordinates":[[[-83.42,15],[-84.65,15.93],[-88.27,15.75],[-89.38,14.47],[-87.77,13.5],[-87.4,13.03],[-84.83,14.77],[-83.42,15]]]},"properties":{"NAME":"Honduras","SUBJECTO":"Honduras","BORDERPRECISION":3}},
{"type":"Feature","geometry":{"type":"Polygon","coordinates":[[[-90,13.87],[-87.77,13.5],[-89.38,14.47],[-90,13.87]]]},"properties":{"NAME":"El Salvador","SUBJECTO":"El Salvador","BORDERPRECISION":3}},
{"type":"Feature","geometry":{"type":"Polygon","coordinates":[[[-77.9,7.17],[-77.11,3.79],[-78.94,1.38],[-75.53,-0.14],[-72.96,-2.45],[-70.92,-2.32],[-69.88,-4.19],[-69.32,-1.3],[-69.74,1.66],[-67.18,2.07],[-67.77,6.24],[-69.3,6.01],[-71.81,6.97],[-73.02,9.74],[-71.19,11.91],[-75.45,10.63],[-77.49,8.66],[-77.9,7.17]]]},"properties":{"NAME":"Colombia","SUBJECTO":"Colombia","BORDERPRECISION":3}},
{"type":"Feature","geometry":{"type":"Polygon","coordinates":[[[2.32,12.17],[0.93,10.9],[1.76,6.25],[2.77,6.35],[2.76,8.86],[3.61,11.72],[2.32,12.17]]]},"properties":{"NAME":"Benin","SUBJECTO":"Benin","BORDERPRECISION":3}},
{"type":"Feature","geometry":{"type":"Polygon","coordinates":[[[-2.84,9.57],[-3.19,6.6],[-2.75,5.1],[-2.03,4.7],[1.17,6.07],[0.06,11.06],[-2.7,10.93],[-2.84,9.57]]]},"properties":{"NAME":"Gold Coast","SUBJECTO":"United Kingdom","BORDERPRECISION":3}},
{"type":"Feature","geometry":{"type":"Polygon","coordinates":[[[0.06,11.06],[1.17,6.07],[1.76,6.25],[0.93,10.9],[0.06,11.06]]]},"properties":{"NAME":"Togo","SUBJECTO":"Togo","BORDERPRECISION":3}},
{"type":"Feature","geometry":{"type":"Polygon","coordinates":[[[-7.91,10.12],[-8.3,7.44],[-7.56,4.35],[-5,5.24],[-2.75,5.1],[-3.19,6.6],[-2.84,9.57],[-5.56,10.36],[-7.91,10.12]]]},"properties":{"NAME":"Ivory Coast","SUBJECTO":"France","BORDERPRECISION":3}},
{"type":"Feature","geometry":{"type":"MultiPolygon","coordinates":[[[[100.16,6.34],[101.34,2.78],[103.43,1.38],[103.34,4.81],[102.07,6.15],[100.16,6.34]]],[[[109.52,1.82],[110.55,0.73],[114.66,1.6],[115.71,4.16],[117.56,3.98],[119.04,5.17],[116.6,6.9],[114.96,4.88],[115.16,4.31],[114.43,4],[114.07,4.46],[112.76,3.01],[109.52,1.82]]]]},"properties":{"NAME":"Malaysia","SUBJECTO":"Malaysia","BORDERPRECISION":3}},
{"type":"Feature","geometry":{"type":"Polygon","coordinates":[[[-56.71,1.89],[-54.39,2.26],[-53.84,5.69],[-57.07,5.84],[-58,3.96],[-56.71,1.89]]]},"properties":{"NAME":"Suriname","SUBJECTO":"Suriname","BORDERPRECISION":3}},
{"type":"Feature","geometry":{"type":"Polygon","coordinates":[[[-54.39,2.26],[-52.85,2.09],[-51.62,4.22],[-53.84,5.69],[-54.39,2.26]]]},"properties":{"NAME":"French Guiana","SUBJECTO":"French Guiana","BORDERPRECISION":3}},
{"type":"Feature","geometry":{"type":"Polygon","coordinates":[[[16.08,2.13],[13.27,2.11],[14.35,0.62],[14.14,-2.56],[11.64,-2.62],[11.15,-3.93],[12,-5],[13.02,-4.77],[15.99,-3.67],[17.45,-0.85],[18.5,3.53],[16.55,3.31],[16.08,2.13]]]},"properties":{"NAME":"Congo","SUBJECTO":"Congo","BORDERPRECISION":3}},
{"type":"Feature","geometry":{"type":"Polygon","coordinates":[[[13.27,2.11],[11.22,2.05],[9.63,0.89],[8.82,-0.9],[11.15,-3.93],[11.64,-2.62],[14.14,-2.56],[14.35,0.62],[13.27,2.11]]]},"properties":{"NAME":"Gabon","SUBJECTO":"Gabon","BORDERPRECISION":3}},
{"type":"Feature","geometry":{"type":"Polygon","coordinates":[[[11.22,2.05],[9.88,2.06],[9.63,0.89],[11.22,2.05]]]},"properties":{"NAME":"Equatorial Guinea","SUBJECTO":"Equatorial Guinea","BORDERPRECISION":3}},
{"type":"Feature","geometry":{"type":"Polygon","coordinates":[[[-78.94,1.38],[-80.97,-1.03],[-80.23,-3.47],[-78.43,-3.74],[-76.66,-2.66],[-75.53,-0.14],[-78.94,1.38]]]},"properties":{"NAME":"Ecuador","SUBJECTO":"Ecuador","BORDERPRECISION":3}},
{"type":"Feature","geometry":{"type":"Polygon","coordinates":[[[-69.59,-10.9],[-72.15,-10],[-73.84,-7.58],[-72.77,-5.14],[-69.88,-4.19],[-70.92,-2.32],[-72.96,-2.45],[-75.53,-0.14],[-76.66,-2.66],[-78.43,-3.74],[-80.23,-3.47],[-81.42,-4.68],[-79.06,-8.22],[-76.24,-13.5],[-74.05,-16.04],[-70.36,-18.45],[-69.43,-17.6],[-68.64,-12.58],[-69.59,-10.9]]]},"properties":{"NAME":"Peru","SUBJECTO":"Peru","BORDERPRECISION":3}},
{"type":"Feature","geometry":{"type":"Polygon","coordinates":[[[-60.55,5.01],[-64.15,3.42],[-63.88,1.88],[-65.36,0.56],[-67.18,2.07],[-69.74,1.66],[-69.32,-1.3],[-69.88,-4.19],[-72.77,-5.14],[-73.84,-7.58],[-72.15,-10],[-69.59,-10.9],[-66.31,-9.84],[-64.26,-12.47],[-60.36,-13.9],[-60.03,-16.33],[-58.33,-16.37],[-57.6,-18.04],[-58.14,-19.81],[-57.81,-22.15],[-55.62,-22.45],[-54.22,-24.12],[-54.58,-25.74],[-53.62,-26.27],[-57.58,-30.4],[-53.89,-32.05],[-53.41,-33.88],[-52.04,-31.56],[-48.94,-28.7],[-48.72,-25.43],[-44.56,-22.99],[-41.96,-22.92],[-39.69,-19.41],[-38.95,-16],[-39.13,-14.32],[-37.19,-10.84],[-35.6,-9.63],[-34.89,-7.61],[-35.46,-5.27],[-37.18,-4.95],[-40.23,-2.85],[-44.22,-2.78],[-44.8,-1.74],[-47.24,-0.68],[-49.22,-2.11],[-51.53,-0.43],[-49.88,1.21],[-51.62,4.22],[-52.85,2.09],[-54.39,2.26],[-56.71,1.89],[-58.85,1.15],[-60.55,5.01]]]},"properties":{"NAME":"Brazil","SUBJECTO":"Brazil","BORDERPRECISION":3}},
{"type":"Feature","geometry":{"type":"Polygon","coordinates":[[[140.95,-9.27],[142.61,-9.38],[144.38,-7.76],[145.82,-8.1],[147.87,-10.18],[148.59,-9.16],[146.91,-6.89],[147.38,-6.12],[143.45,-3.61],[140.87,-2.79],[140.95,-9.27]]]},"properties":{"NAME":"Papua New Guinea","SUBJECTO":"Papua New Guinea","BORDERPRECISION":3}},
{"type":"Feature","geometry":{"type":"MultiPolygon","coordinates":[[[[146.71,-43.72],[148.27,-41.09],[144.78,-40.84],[146.71,-43.72]]],[[[142.34,-10.92],[141.68,-12.47],[141.71,-15.23],[140.8,-17.56],[139.25,-17.43],[135.39,-14.9],[136.66,-12.62],[133.56,-11.95],[130.46,-12.76],[129.2,-14.99],[126.85,-13.78],[122.74,-16.58],[120.87,-19.68],[116.42,-20.84],[113.63,-22.57],[113.43,-26.57],[115.75,-32.21],[115.05,-34.42],[118.21,-35.09],[119.77,-34.12],[123.62,-33.92],[126.06,-32.43],[131.28,-31.63],[133.84,-32.34],[135.53,-35.05],[137.46,-33.31],[139.37,-35.61],[140.01,-37.64],[143.36,-38.97],[149.5,-37.93],[151.36,-33.52],[152.97,-31.42],[153.49,-28.84],[153.07,-26.23],[150.75,-22.81],[149.1,-21.06],[146.32,-19.08],[145.18,-15.05],[143.74,-14.47],[142.34,-10.92]]]]},"properties":{"NAME":"Australia","SUBJECTO":"Australia","BORDERPRECISION":3}},
{"type":"Feature","geometry":{"type":"Polygon","coordinates":[[[-58.34,-34.22],[-54.62,-34.92],[-53.41,-33.88],[-53.89,-32.05],[-57.58,-30.4],[-58.34,-34.22]]]},"properties":{"NAME":"Uruguay","SUBJECTO":"Uruguay","BORDERPRECISION":3}},
{"type":"Feature","geometry":{"type":"Polygon","coordinates":[[[-26.79,71.56],[-20.33,73.42],[-18.25,77.3],[-20.88,78.82],[-14.2,81.21],[-32.51,83.58],[-67.14,80.56],[-72.38,78.53],[-67.04,75.94],[-58.64,75.79],[-51.72,71.59],[-50.48,67.48],[-52.3,66.91],[-51.37,63.73],[-48.92,61.42],[-43.14,59.82],[-39.99,65.53],[-35.97,65.85],[-32.96,67.64],[-26.96,68.5],[-22.73,69.77],[-26.79,71.56]]]},"properties":{"NAME":"Denmark","SUBJECTO":"Denmark","BORDERPRECISION":3}},
{"type":"Feature","geometry":{"type":"Polygon","coordinates":[[[14.47,53.88],[14.28,53.61],[14.83,50.92],[19.78,49.24],[22.57,49.07],[24.11,50.68],[23.31,54.31],[19.98,54.42],[14.47,53.88]]]},"properties":{"NAME":"Poland","SUBJECTO":"Poland","BORDERPRECISION":3}},
{"type":"Feature","geometry":{"type":"Polygon","coordinates":[[[6,50.74],[7.16,53.16],[3.78,51.39],[6,50.74]]]},"properties":{"NAME":"Netherlands","SUBJECTO":"Netherlands","BORDERPRECISION":3}},
{"type":"Feature","geometry":{"type":"Polygon","coordinates":[[[10.4,46.89],[14.15,46.43],[16.26,46.89],[17.33,47.99],[13.95,48.66],[9.73,47.61],[9.67,47.56],[9.54,47.49],[10.4,46.89]]]},"properties":{"NAME":"Austria","SUBJECTO":"Austria","BORDERPRECISION":3}},
{"type":"Feature","geometry":{"type":"Polygon","coordinates":[[[3.61,11.72],[2.76,8.86],[2.77,6.35],[3.95,6.58],[6.09,4.33],[8.59,4.71],[10.07,6.89],[11.07,6.4],[13.79,11.09],[14.03,13.06],[13.54,13.66],[9.06,12.82],[4.19,13.48],[3.61,11.72]]]},"properties":{"NAME":"Nigeria","SUBJECTO":"United Kingdom","BORDERPRECISION":3}},
{"type":"Feature","geometry":{"type":"Polygon","coordinates":[[[8.59,4.71],[9.59,4.03],[11.07,6.4],[10.07,6.89],[8.59,4.71]]]},"properties":{"NAME":"Southern Cameroon","SUBJECTO":"United Kingdom","BORDERPRECISION":3}},
{"type":"Feature","geometry":{"type":"Polygon","coordinates":[[[38.75,33.21],[35.7,32.72],[34.98,29.47],[35.07,29.21],[37.94,30.37],[39.33,32.14],[38.75,33.21]]]},"properties":{"NAME":"Jordan","SUBJECTO":"Jordan","BORDERPRECISION":3}},
{"type":"Feature","geometry":{"type":"Polygon","coordinates":[[[14.97,22.97],[17.7,22.54],[17.56,29.29],[9.61,29.54],[10.31,24.47],[11.96,23.47],[14.97,22.97]]]},"properties":{"NAME":"Fezzan (Frech Lybia)","SUBJECTO":"France","BORDERPRECISION":3}},
{"type":"Feature","geometry":{"type":"Polygon","coordinates":[[[35.5,33.11],[34.97,32.94],[34.15,31.21],[34.94,29.42],[34.98,29.47],[35.7,32.72],[35.5,33.11]]]},"properties":{"NAME":"Israel","SUBJECTO":"Israel","BORDERPRECISION":3}},
{"type":"Feature","geometry":{"type":"Polygon","coordinates":[[[50.97,24.44],[50.12,26.74],[48.44,28.44],[46.51,28.97],[44.69,29.03],[43.54,30.29],[39.33,32.14],[37.94,30.37],[35.07,29.21],[34.89,28.36],[39.1,22.4],[42.83,16.32],[44.43,17.38],[45.56,15.06],[47.52,17.52],[51.81,18.98],[56.03,21.24],[55.7,22.3],[51.95,22.48],[51.12,24.4],[50.97,24.44]]]},"properties":{"NAME":"Saudi Arabia","SUBJECTO":"Saudi Arabia","BORDERPRECISION":3}},
{"type":"Feature","geometry":{"type":"Polygon","coordinates":[[[34.15,31.21],[31,31.47],[29.25,30.75],[25.11,31.51],[24.94,24.93],[24.95,21.88],[32.13,21.92],[36.8,21.91],[35.75,22.91],[33.93,26.56],[34.94,29.42],[34.15,31.21]]]},"properties":{"NAME":"Egypt","SUBJECTO":"United Kingdom","BORDERPRECISION":3}},
{"type":"Feature","geometry":{"type":"Polygon","coordinates":[[[88.2,27.88],[85.14,28.34],[81.02,30.25],[80.1,28.95],[82.81,27.54],[86.78,26.47],[88.2,27.88]]]},"properties":{"NAME":"Nepal","SUBJECTO":"Nepal","BORDERPRECISION":3}},
{"type":"Feature","geometry":{"type":"Polygon","coordinates":[[[-17.02,21.31],[-15.98,18.18],[-16.41,16.49],[-14.81,16.82],[-11.9,14.81],[-10.65,15.43],[-5.48,15.47],[-6.12,20.96],[-6.56,24.9],[-4.87,24.99],[-8.63,27.17],[-8.69,25.91],[-11.89,25.9],[-11.99,23.48],[-13.02,21.28],[-17.02,21.31]]]},"properties":{"NAME":"Mauritania","SUBJECTO":"France","BORDERPRECISION":3}},
{"type":"Feature","geometry":{"type":"Polygon","coordinates":[[[22.82,10.91],[23.52,8.61],[27.24,5.16],[29.69,4.52],[30.74,3.51],[33.99,4.03],[35.8,4.56],[34.04,8.43],[34.35,10.68],[36.48,14.27],[37.02,16.95],[38.64,18.06],[37.4,18.92],[36.8,21.91],[32.13,21.92],[24.95,21.88],[23.95,19.47],[23.95,15.7],[23.01,15.68],[21.78,12.8],[22.82,10.91]]]},"properties":{"NAME":"Sudan","SUBJECTO":"United Kingdom","BORDERPRECISION":3}},
{"type":"Feature","geometry":{"type":"Polygon","coordinates":[[[51.81,18.98],[47.52,17.52],[45.56,15.06],[44.43,17.38],[42.83,16.32],[43.84,12.66],[46.6,13.4],[52.14,15.69],[53.02,16.65],[51.81,18.98]]]},"properties":{"NAME":"Yemen","SUBJECTO":"Yemen","BORDERPRECISION":3}},
{"type":"Feature","geometry":{"type":"Polygon","coordinates":[[[36.48,14.27],[37.72,14.8],[40.59,14.12],[42.33,12.36],[43.05,12.7],[39.52,15.46],[38.64,18.06],[37.02,16.95],[36.48,14.27]]]},"properties":{"NAME":"Eritrea","SUBJECTO":"United Kingdom","BORDERPRECISION":3}},
{"type":"Feature","geometry":{"type":"Polygon","coordinates":[[[-11.9,14.81],[-14.81,16.82],[-16.41,16.49],[-16.46,13.57],[-15.3,13.57],[-16.01,13.14],[-16.78,13.15],[-16.57,12.31],[-13.69,12.62],[-11.42,12.4],[-11.9,14.81]]]},"properties":{"NAME":"Senegal","SUBJECTO":"France","BORDERPRECISION":3}},
{"type":"Feature","geometry":{"type":"Polygon","coordinates":[[[35.8,4.56],[39.54,3.35],[41.77,3.83],[44.99,4.82],[47.84,7.92],[43.86,9.03],[42.93,10.89],[42.33,12.36],[40.59,14.12],[37.72,14.8],[36.48,14.27],[34.35,10.68],[34.04,8.43],[35.8,4.56]]]},"properties":{"NAME":"Ethiopia","SUBJECTO":"Ethiopia","BORDERPRECISION":3}},
{"type":"Feature","geometry":{"type":"Polygon","coordinates":[[[-16.46,13.57],[-16.78,13.15],[-16.01,13.14],[-15.3,13.57],[-16.46,13.57]]]},"properties":{"NAME":"Gambia, The","SUBJECTO":"United Kingdom","BORDERPRECISION":3}},
{"type":"Feature","geometry":{"type":"Polygon","coordinates":[[[42.33,12.36],[42.93,10.89],[43.3,11.48],[43.05,12.7],[42.33,12.36]]]},"properties":{"NAME":"Djibouti","SUBJECTO":"Djibouti","BORDERPRECISION":3}},
{"type":"Feature","geometry":{"type":"Polygon","coordinates":[[[-16.57,12.31],[-15.01,11.1],[-13.69,12.62],[-16.57,12.31]]]},"properties":{"NAME":"Guinea-Bissau (Portugal)","SUBJECTO":"Portugal","BORDERPRECISION":3}},
{"type":"Feature","geometry":{"type":"Polygon","coordinates":[[[-11.42,12.4],[-13.69,12.62],[-15.01,11.1],[-13.16,8.85],[-11.29,9.9],[-10.38,8.08],[-8.3,7.44],[-7.91,10.12],[-9.12,12.46],[-11.42,12.4]]]},"properties":{"NAME":"Guinea","SUBJECTO":"France","BORDERPRECISION":3}},
{"type":"Feature","geometry":{"type":"Polygon","coordinates":[[[-59.83,8.44],[-61.53,9.85],[-67.98,10.54],[-71.19,11.91],[-73.02,9.74],[-71.81,6.97],[-69.3,6.01],[-67.77,6.24],[-67.18,2.07],[-65.36,0.56],[-63.88,1.88],[-64.15,3.42],[-60.55,5.01],[-61.25,5.87],[-59.83,8.44]]]},"properties":{"NAME":"Venezuela","SUBJECTO":"Venezuela","BORDERPRECISION":3}},
{"type":"Feature","geometry":{"type":"Polygon","coordinates":[[[-61.11,10.82],[-61.81,10.72],[-61.21,10.12],[-61.11,10.82]]]},"properties":{"NAME":"Trinidad","SUBJECTO":"Trinidad","BORDERPRECISION":3}},
{"type":"Feature","geometry":{"type":"Polygon","coordinates":[[[114.96,4.88],[114.07,4.46],[114.43,4],[115.16,4.31],[114.96,4.88]]]},"properties":{"NAME":"Brunei","SUBJECTO":"Brunei","BORDERPRECISION":3}},
{"type":"Feature","geometry":{"type":"Polygon","coordinates":[[[39.23,-4.84],[41.61,-1.88],[41.06,-1.08],[41.02,2.71],[41.77,3.83],[39.54,3.35],[35.8,4.56],[33.99,4.03],[35.04,1.69],[33.27,-1.13],[37.62,-3.17],[39.23,-4.84]]]},"properties":{"NAME":"Kenya","SUBJECTO":"United Kingdom","BORDERPRECISION":3}},
{"type":"Feature","geometry":{"type":"Polygon","coordinates":[[[29.53,-1.43],[30.6,-1.15],[33.27,-1.13],[35.04,1.69],[33.99,4.03],[30.74,3.51],[31.16,1.8],[29.77,0.44],[29.53,-1.43]]]},"properties":{"NAME":"Uganda","SUBJECTO":"United Kingdom","BORDERPRECISION":3}},
{"type":"Feature","geometry":{"type":"MultiPolygon","coordinates":[[[[-76.13,44.33],[-70.59,45.29],[-69.05,47.46],[-67.19,45.25],[-65.71,43.56],[-61.03,45.38],[-64.53,46.27],[-64.95,49.21],[-60.14,50.41],[-55.66,52.19],[-55.88,53.35],[-61.93,56.27],[-62.89,58.66],[-69.21,58.75],[-70.03,60.88],[-73.39,62.35],[-77.36,62.52],[-78.34,58.55],[-76.44,56.81],[-79.55,54.69],[-78.49,52.26],[-82.34,52.98],[-82.2,54.97],[-87.47,55.91],[-90,57.18],[-92.48,56.98],[-94.75,59.95],[-93.42,61.86],[-87.44,64.57],[-86.49,67.38],[-92.96,69.08],[-96.21,68.07],[-101.91,67.71],[-105.64,68.35],[-112.5,67.69],[-115.29,68.89],[-127.35,70.38],[-136.2,68.88],[-141.06,69.6],[-140.89,60.39],[-135.85,59.65],[-130,55.29],[-130,53.94],[-122.9,49.07],[-115.16,49.06],[-104.26,49.06],[-94.82,49.05],[-89.62,47.97],[-88.09,49],[-85.03,47.94],[-84.74,46.47],[-83.82,46.15],[-80.81,45.95],[-82.3,43.03],[-83.06,42.03],[-79.05,42.85],[-79.14,43.22],[-76.13,44.33]]],[[[-111.64,72.73],[-118.99,72.03],[-117.57,69.99],[-113.15,68.6],[-106.85,69.45],[-103.86,70.7],[-105.31,72.65],[-111.64,72.73]]],[[[-124.58,71.9],[-115.65,73.63],[-121.24,74.58],[-124.58,71.9]]],[[[-87.1,63.54],[-82.11,64.64],[-85.56,65.86],[-87.1,63.54]]],[[[-71.54,63.36],[-69.16,62.42],[-64.47,63.74],[-61.21,66.64],[-68.67,68.72],[-71.25,71.35],[-81.53,73.69],[-88.1,73.64],[-90,71.54],[-87.95,70.38],[-78.71,70.01],[-72.3,67.26],[-75.79,65.2],[-71.54,63.36]]],[[[-90,82.02],[-85.81,78.91],[-87.27,76.5],[-78.21,76.55],[-78.37,78.03],[-71.45,79.85],[-62.43,82.63],[-76.38,83.15],[-90,82.02]]]]},"properties":{"NAME":"Canada","SUBJECTO":"Canada","BORDERPRECISION":3}},
{"type":"Feature","geometry":{"type":"Polygon","coordinates":[[[11.18,59.07],[12.42,60.04],[11.93,62.55],[16.21,67.31],[20.79,68.93],[28.7,68.7],[31.05,69.64],[28.31,70.95],[20.16,69.75],[13.17,66.46],[9.83,63.68],[5.15,61.74],[5.62,58.46],[8.15,58.09],[11.18,59.07]]]},"properties":{"NAME":"Norway","SUBJECTO":"Norway","BORDERPRECISION":3}},
{"type":"Feature","geometry":{"type":"Polygon","coordinates":[[[20.79,68.93],[23.95,65.8],[24.47,64.64],[21.03,62.48],[23.66,59.84],[28.43,60.6],[30.9,62.13],[28.7,68.7],[20.79,68.93]]]},"properties":{"NAME":"Finland","SUBJECTO":"Finland","BORDERPRECISION":3}},
{"type":"Feature","geometry":{"type":"Polygon","coordinates":[[[11.18,59.07],[13.3,55.3],[15.77,56.03],[16.74,58.31],[19.04,59.86],[17.15,60.95],[18.49,62.98],[23.95,65.8],[20.79,68.93],[16.21,67.31],[11.93,62.55],[12.42,60.04],[11.18,59.07]]]},"properties":{"NAME":"Sweden","SUBJECTO":"Sweden","BORDERPRECISION":3}},
{"type":"Feature","geometry":{"type":"Polygon","coordinates":[[[169.77,-83.42],[159.32,-80.03],[163.64,-78.66],[162.35,-75.11],[170.73,-71.9],[167.63,-70.87],[157.31,-69.16],[151.09,-68.89],[145.59,-67.22],[134.21,-66.18],[129.01,-67.03],[122.46,-66.65],[118.29,-67.07],[113.01,-65.76],[109.4,-66.71],[102.63,-65.93],[99.65,-66.55],[90,-66.61],[81.81,-67.3],[67.36,-71.71],[69.37,-67.84],[56.63,-66.94],[52.45,-65.99],[47.31,-67.77],[32.75,-69.35],[23.71,-70.59],[17.6,-70.08],[8.49,-70.08],[0.68,-71.32],[-7.2,-70.89],[-16.4,-73.44],[-18.4,-75.69],[-33.16,-77.39],[-38.03,-80.94],[-60.21,-82.33],[-74.89,-80.71],[-74.5,-78.08],[-64.46,-75.69],[-60.83,-72.75],[-61.68,-70.82],[-65.38,-67.34],[-68.78,-69.81],[-67.63,-72.75],[-81.77,-74.02],[-88.57,-73.25],[-99.79,-73],[-105.64,-75.07],[-113.24,-74.32],[-134.77,-74.64],[-146.67,-76.11],[-158.19,-77.81],[-145.67,-80.52],[-152.08,-82.6],[-148.76,-85.07],[-180,-84.32],[-180,-85.32],[-180,-86.32],[-180,-87.32],[-180,-88.32],[-180,-89.32],[-180,-90],[-179.2,-90],[-178.2,-90],[-177.2,-90],[-176.2,-90],[-175.2,-90],[-174.2,-90],[-173.2,-90],[-172.2,-90],[-171.2,-90],[-170.2,-90],[-169.2,-90],[-168.2,-90],[-167.2,-90],[-166.2,-90],[-165.2,-90],[-164.2,-90],[-163.2,-90],[-162.2,-90],[-161.2,-90],[-160.2,-90],[-159.2,-90],[-158.2,-90],[-157.2,-90],[-156.2,-90],[-155.2,-90],[-154.2,-90],[-153.2,-90],[-152.2,-90],[-151.2,-90],[-150.2,-90],[-149.2,-90],[-148.2,-90],[-147.2,-90],[-146.2,-90],[-145.2,-90],[-144.2,-90],[-143.2,-90],[-142.2,-90],[-141.2,-90],[-140.2,-90],[-139.2,-90],[-138.2,-90],[-137.2,-90],[-136.2,-90],[-135.2,-90],[-134.2,-90],[-133.2,-90],[-132.2,-90],[-131.2,-90],[-130.2,-90],[-129.2,-90],[-128.2,-90],[-127.2,-90],[-126.2,-90],[-125.2,-90],[-124.2,-90],[-123.2,-90],[-122.2,-90],[-121.2,-90],[-120.2,-90],[-119.2,-90],[-118.2,-90],[-117.2,-90],[-116.2,-90],[-115.2,-90],[-114.2,-90],[-113.2,-90],[-112.2,-90],[-111.2,-90],[-110.2,-90],[-109.2,-90],[-108.2,-90],[-107.2,-90],[-106.2,-90],[-105.2,-90],[-104.2,-90],[-103.2,-90],[-102.2,-90],[-101.2,-90],[-100.2,-90],[-99.2,-90],[-98.2,-90],[-97.2,-90],[-96.2,-90],[-95.2,-90],[-94.2,-90],[-93.2,-90],[-92.2,-90],[-91.2,-90],[-90,-90],[-89.2,-90],[-88.2,-90],[-87.2,-90],[-86.2,-90],[-85.2,-90],[-84.2,-90],[-83.2,-90],[-82.2,-90],[-81.2,-90],[-80.2,-90],[-79.2,-90],[-78.2,-90],[-77.2,-90],[-76.2,-90],[-75.2,-90],[-74.2,-90],[-73.2,-90],[-72.2,-90],[-71.2,-90],[-70.2,-90],[-69.2,-90],[-68.2,-90],[-67.2,-90],[-66.2,-90],[-65.2,-90],[-64.2,-90],[-63.2,-90],[-62.2,-90],[-61.2,-90],[-60.2,-90],[-59.2,-90],[-58.2,-90],[-57.2,-90],[-56.2,-90],[-55.2,-90],[-54.2,-90],[-53.2,-90],[-52.2,-90],[-51.2,-90],[-50.2,-90],[-49.2,-90],[-48.2,-90],[-47.2,-90],[-46.2,-90],[-45.2,-90],[-44.2,-90],[-43.2,-90],[-42.2,-90],[-41.2,-90],[-40.2,-90],[-39.2,-90],[-38.2,-90],[-37.2,-90],[-36.2,-90],[-35.2,-90],[-34.2,-90],[-33.2,-90],[-32.2,-90],[-31.2,-90],[-30.2,-90],[-29.2,-90],[-28.2,-90],[-27.2,-90],[-26.2,-90],[-25.2,-90],[-24.2,-90],[-23.2,-90],[-22.2,-90],[-21.2,-90],[-20.2,-90],[-19.2,-90],[-18.2,-90],[-17.2,-90],[-16.2,-90],[-15.2,-90],[-14.2,-90],[-13.2,-90],[-12.2,-90],[-11.2,-90],[-10.2,-90],[-9.2,-90],[-8.2,-90],[-7.2,-90],[-6.2,-90],[-5.2,-90],[-4.2,-90],[-3.2,-90],[-2.2,-90],[-1.2,-90],[-0.2,-90],[0.78,-90],[1.78,-90],[2.78,-90],[3.78,-90],[4.78,-90],[5.78,-90],[6.78,-90],[7.78,-90],[8.78,-90],[9.78,-90],[10.78,-90],[11.78,-90],[12.78,-90],[13.78,-90],[14.78,-90],[15.78,-90],[16.78,-90],[17.78,-90],[18.78,-90],[19.78,-90],[20.78,-90],[21.78,-90],[22.78,-90],[23.78,-90],[24.78,-90],[25.78,-90],[26.78,-90],[27.78,-90],[28.78,-90],[29.78,-90],[30.78,-90],[31.78,-90],[32.78,-90],[33.78,-90],[34.78,-90],[35.78,-90],[36.78,-90],[37.78,-90],[38.78,-90],[39.78,-90],[40.78,-90],[41.78,-90],[42.78,-90],[43.78,-90],[44.78,-90],[45.78,-90],[46.78,-90],[47.78,-90],[48.78,-90],[49.78,-90],[50.78,-90],[51.78,-90],[52.78,-90],[53.78,-90],[54.78,-90],[55.78,-90],[56.78,-90],[57.78,-90],[58.78,-90],[59.78,-90],[60.78,-90],[61.78,-90],[62.78,-90],[63.78,-90],[64.78,-90],[65.78,-90],[66.78,-90],[67.78,-90],[68.78,-90],[69.78,-90],[70.78,-90],[71.78,-90],[72.78,-90],[73.78,-90],[74.78,-90],[75.78,-90],[76.78,-90],[77.78,-90],[78.78,-90],[79.78,-90],[80.78,-90],[81.78,-90],[82.78,-90],[83.78,-90],[84.78,-90],[85.78,-90],[86.78,-90],[87.78,-90],[88.78,-90],[89.78,-90],[89.8,-90],[90,-90],[91.78,-90],[92.78,-90],[93.78,-90],[94.78,-90],[95.78,-90],[96.78,-90],[97.78,-90],[98.78,-90],[99.78,-90],[100.78,-90],[101.78,-90],[102.78,-90],[103.78,-90],[104.78,-90],[105.78,-90],[106.78,-90],[107.78,-90],[108.78,-90],[109.78,-90],[110.78,-90],[111.78,-90],[112.78,-90],[113.78,-90],[114.78,-90],[115.78,-90],[116.78,-90],[117.78,-90],[118.78,-90],[119.78,-90],[120.78,-90],[121.78,-90],[122.78,-90],[123.78,-90],[124.78,-90],[125.78,-90],[126.78,-90],[127.78,-90],[128.78,-90],[129.78,-90],[130.78,-90],[131.78,-90],[132.78,-90],[133.78,-90],[134.78,-90],[135.78,-90],[136.78,-90],[137.78,-90],[138.78,-90],[139.78,-90],[140.78,-90],[141.78,-90],[142.78,-90],[143.78,-90],[144.78,-90],[145.78,-90],[146.78,-90],[147.78,-90],[148.78,-90],[149.78,-90],[150.78,-90],[151.78,-90],[152.78,-90],[153.78,-90],[154.78,-90],[155.78,-90],[156.78,-90],[157.78,-90],[158.78,-90],[159.78,-90],[160.78,-90],[161.78,-90],[162.78,-90],[163.78,-90],[164.78,-90],[165.78,-90],[166.78,-90],[167.78,-90],[168.78,-90],[169.78,-90],[170.78,-90],[171.78,-90],[172.78,-90],[173.78,-90],[174.78,-90],[175.78,-90],[176.78,-90],[177.78,-90],[178.78,-90],[180,-90],[180,-89.32],[180,-88.32],[180,-87.32],[180,-86.32],[180,-85.32],[180,-84.34],[169.77,-83.42]]]},"properties":{"NAME":"Antarctica","SUBJECTO":"Antarctica","BORDERPRECISION":3}},
{"type":"Feature","geometry":{"type":"Polygon","coordinates":[[[22.1,48.4],[22.57,49.07],[19.78,49.24],[14.83,50.92],[12.24,50.24],[13.95,48.66],[17.33,47.99],[22.1,48.4]]]},"properties":{"NAME":"Czechoslovakia","SUBJECTO":"Czechoslovakia","BORDERPRECISION":3}},
{"type":"Feature","geometry":{"type":"Polygon","coordinates":[[[61.57,25.04],[66.62,25.32],[68.05,23.76],[71.08,24.41],[69.58,27.19],[71.89,27.95],[74.52,31.04],[74.09,36.8],[72.37,36.72],[69.21,31.8],[66.47,30.84],[66.09,29.74],[62.37,29.38],[60.82,29.83],[63.24,26.67],[61.57,25.04]]]},"properties":{"NAME":"Pakistan","SUBJECTO":"Pakistan","BORDERPRECISION":3}},
{"type":"Feature","geometry":{"type":"Polygon","coordinates":[[[88.8,27.18],[88.2,27.88],[86.78,26.47],[82.81,27.54],[80.1,28.95],[81.02,30.25],[79.11,31.46],[78.81,34.2],[74.52,37],[74.09,36.8],[74.52,31.04],[71.89,27.95],[69.58,27.19],[71.08,24.41],[68.05,23.76],[69.13,21.97],[72.76,20.06],[73.84,15.39],[76.7,8.71],[77.9,8.26],[79.83,10.36],[80.09,15.18],[86.12,19.81],[87.64,21.56],[89.07,21.77],[88.88,25.25],[92.14,25.1],[92.51,22.11],[94.18,23.94],[95.18,26.56],[97.34,28.18],[94.57,29.2],[91.61,27.64],[90,26.78],[88.8,27.18]]]},"properties":{"NAME":"India","SUBJECTO":"India","BORDERPRECISION":3}},
{"type":"Feature","geometry":{"type":"Polygon","coordinates":[[[91.61,27.64],[94.57,29.2],[97.34,28.18],[98.01,28.09],[98.93,31.09],[97.7,32.55],[92.95,32.7],[90.42,33.24],[89.82,34.19],[89.83,34.9],[89.57,36.06],[88.52,36.5],[84.1,35.36],[80.45,35.42],[78.81,34.2],[79.11,31.46],[81.02,30.25],[85.14,28.34],[88.2,27.88],[88.8,27.18],[91.61,27.64]]]},"properties":{"NAME":"Tibet","SUBJECTO":"Tibet","BORDERPRECISION":3}},
{"type":"Feature","geometry":{"type":"Polygon","coordinates":[[[107.88,21.46],[110.08,20.87],[113.72,22.48],[116.34,22.91],[118.81,24.85],[119.43,26.59],[121.36,28.39],[121.61,31.83],[119.02,34.69],[120.14,36.19],[117.59,38.28],[119.34,39.79],[121.77,44.15],[119.53,44.61],[119.71,46.72],[116.48,46.31],[109.38,42.44],[105.02,41.59],[101.74,42.54],[96.34,42.79],[93,40.59],[92.4,38.99],[90.11,38.47],[91.25,36.12],[89.57,36.06],[89.83,34.9],[89.82,34.19],[90.42,33.24],[92.95,32.7],[97.7,32.55],[98.93,31.09],[98.01,28.09],[98.73,26.34],[99.16,22.31],[101.01,21.44],[101.97,22.53],[105.31,23.3],[107.88,21.46]]]},"properties":{"NAME":"China","SUBJECTO":"China","BORDERPRECISION":3}},
{"type":"Feature","geometry":{"type":"Polygon","coordinates":[[[130.23,42.65],[130.99,44.82],[132.78,44.99],[134.11,48.25],[127.71,49.7],[125.51,53.16],[121.19,53.32],[119.18,50.7],[116.76,49.93],[115.6,48.1],[118.77,47.86],[119.71,46.72],[119.53,44.61],[121.77,44.15],[119.34,39.79],[121.01,40.85],[124.13,39.84],[126.47,41.65],[130.23,42.65]]]},"properties":{"NAME":"Manchuria","SUBJECTO":"Manchuria","BORDERPRECISION":3}},
{"type":"Feature","geometry":{"type":"MultiPolygon","coordinates":[[[[130.44,42.28],[134.14,42.99],[137.72,46],[140.08,48.5],[141.12,53.05],[134.99,54.85],[142.85,59.27],[148.42,59.1],[154.32,59.98],[157.1,61.63],[160.64,60.72],[156.78,57.58],[155.47,54.92],[156.7,50.96],[161.5,55.29],[161.8,58.1],[163.39,59.81],[170.34,60.28],[179.29,62.82],[180,64.95],[180,65.05],[180,65.31],[180,65.38],[180,65.96],[180,66.96],[180,67.96],[180,68.92],[175.61,69.78],[167.32,69.66],[159.44,69.76],[152.13,70.66],[141.29,72.79],[137.63,71.08],[126.22,72.38],[118.46,73.52],[108.34,73.69],[113.53,76.09],[103.39,77.56],[99.47,75.97],[90,75.6],[87.69,73.9],[72.71,72.77],[62.28,69.71],[57.02,68.45],[53.89,68.79],[39.95,65.58],[40.83,67.66],[31.05,69.64],[28.7,68.7],[30.9,62.13],[28.43,60.6],[27.7,59.3],[23.42,59.12],[19.98,54.42],[23.31,54.31],[24.11,50.68],[22.57,49.07],[22.1,48.4],[23.03,48.01],[27,48.19],[29.62,45.41],[30.83,46.58],[33.64,45.93],[37.42,47.08],[37.47,44.69],[41.41,42.79],[41.48,41.44],[44.67,39.76],[48.82,38.31],[49.81,40.58],[47.57,43.01],[47.56,45.45],[51.37,47.09],[52.61,45.4],[50.87,44.63],[52.52,42.07],[54.02,37.35],[57.23,38.19],[61.22,35.58],[62.68,35.27],[65.72,37.49],[67.86,36.85],[71.44,37.83],[74.73,37.21],[73.83,39.78],[80.11,42],[80.24,45.12],[82.44,45.74],[83.25,47.29],[87.87,49.23],[92.16,50.76],[97.42,49.79],[98.92,52.04],[103.68,50.17],[106.32,50.42],[109.42,49.3],[114.1,50.27],[116.76,49.93],[119.18,50.7],[121.19,53.32],[125.51,53.16],[127.71,49.7],[134.11,48.25],[132.78,44.99],[130.99,44.82],[130.23,42.65],[130.44,42.28]]],[[[-180,66.96],[-180,65.96],[-180,65.38],[-180,65.31],[-180,65.26],[-178.12,65.48],[-173.08,64.38],[-170.61,66.04],[-180,68.92],[-180,67.96],[-180,66.96]]]]},"properties":{"NAME":"USSR","SUBJECTO":"USSR","BORDERPRECISION":3}},
{"type":"Feature","geometry":{"type":"Polygon","coordinates":[[[14.28,53.61],[10.44,54.3],[9.85,51.34],[9.89,50.77],[10.17,50.49],[12.24,50.24],[14.83,50.92],[14.28,53.61]]]},"properties":{"NAME":"Germany (Soviet)","SUBJECTO":"USSR","BORDERPRECISION":3}},
{"type":"Feature","geometry":{"type":"Polygon","coordinates":[[[6.43,49.45],[7.32,49.19],[6.41,49.55],[6.43,49.45]]]},"properties":{"NAME":"Saar Protectorate","SUBJECTO":"France","BORDERPRECISION":3}},
{"type":"Feature","geometry":{"type":"Polygon","coordinates":[[[16.26,46.89],[14.15,46.43],[14.38,45.31],[15.41,43.93],[19.37,41.85],[21.03,40.73],[22.92,41.23],[22.69,44.26],[20.31,46.13],[17.79,45.81],[16.26,46.89]]]},"properties":{"NAME":"Yugoslavia","SUBJECTO":"Yugoslavia","BORDERPRECISION":3}},
{"type":"Feature","geometry":{"type":"Polygon","coordinates":[[[6.96,45.94],[7.55,43.87],[9.91,44.11],[12.64,41.53],[15.67,40.09],[17.08,40.53],[12.35,44.3],[14.38,45.31],[14.15,46.43],[10.4,46.89],[6.96,45.94]]]},"properties":{"NAME":"Italy","SUBJECTO":"Italy","BORDERPRECISION":3}},
{"type":"Feature","geometry":{"type":"Polygon","coordinates":[[[6.11,50.12],[8.35,50.33],[9.85,51.34],[10.44,54.3],[9.5,54.94],[8.62,54.89],[7.16,53.16],[6,50.74],[6.11,50.12]]]},"properties":{"NAME":"Germany (UK)","SUBJECTO":"United Kingdom","BORDERPRECISION":3}},
{"type":"Feature","geometry":{"type":"Polygon","coordinates":[[[13.95,48.66],[12.24,50.24],[10.17,50.49],[9.89,50.77],[9.85,51.34],[8.35,50.33],[9.73,47.61],[13.95,48.66]]]},"properties":{"NAME":"Germany (USA)","SUBJECTO":"USA","BORDERPRECISION":3}},
{"type":"Feature","geometry":{"type":"Polygon","coordinates":[[[6.41,49.55],[7.32,49.19],[7.42,49.18],[7.51,47.6],[8.98,47.68],[9.12,47.68],[9.22,47.67],[9.67,47.56],[9.73,47.61],[8.35,50.33],[6.11,50.12],[6.14,49.98],[6.41,49.55]]]},"properties":{"NAME":"Germany (France)","SUBJECTO":"France","BORDERPRECISION":3}},
{"type":"Feature","geometry":{"type":"Polygon","coordinates":[[[-61.69,17.02],[-61.79,17.16],[-61.89,17.03],[-61.69,17.02]]]},"properties":{"NAME":"Antigua and Barbuda","SUBJECTO":"Antigua and Barbuda","BORDERPRECISION":3}},
{"type":"Feature","geometry":{"type":"Polygon","coordinates":[[[5.82,49.51],[2.52,51.09],[0.03,49.33],[-1.89,49.53],[-3.95,47.9],[-1.08,46.01],[-1.91,43.31],[1.45,42.61],[1.48,42.65],[1.72,42.51],[1.91,42.45],[3.09,42.37],[7.55,43.87],[6.96,45.94],[6.36,46.35],[6.17,46.21],[6.11,46.58],[7.51,47.6],[7.42,49.18],[7.32,49.19],[6.43,49.45],[5.82,49.51]]]},"properties":{"NAME":"France","SUBJECTO":"France","BORDERPRECISION":3}},
{"type":"Feature","geometry":{"type":"Polygon","coordinates":[[[1.72,42.51],[1.48,42.65],[1.45,42.61],[1.45,42.6],[1.72,42.5],[1.72,42.51]]]},"properties":{"NAME":"Andorra","SUBJECTO":"Andorra","BORDERPRECISION":3}},
{"type":"Feature","geometry":{"type":"Polygon","coordinates":[[[-59.53,13.05],[-59.43,13.16],[-59.66,13.29],[-59.64,13.15],[-59.53,13.05]]]},"properties":{"NAME":"Barbados","SUBJECTO":"Barbados","BORDERPRECISION":3}},
{"type":"Feature","geometry":{"type":"Polygon","coordinates":[[[-61.36,15.2],[-61.26,15.29],[-61.3,15.57],[-61.47,15.49],[-61.36,15.2]]]},"properties":{"NAME":"Dominica","SUBJECTO":"Dominica","BORDERPRECISION":3}},
{"type":"Feature","geometry":{"type":"Polygon","coordinates":[[[-61.75,12],[-61.6,12.13],[-61.72,12.17],[-61.75,12]]]},"properties":{"NAME":"Grenada","SUBJECTO":"Grenada","BORDERPRECISION":3}},
{"type":"Feature","geometry":{"type":"Polygon","coordinates":[[[-60.86,14.4],[-60.83,14.57],[-61.03,14.83],[-61.23,14.81],[-61.03,14.47],[-60.86,14.4]]]},"properties":{"NAME":"Martinique (France)","SUBJECTO":"France","BORDERPRECISION":3}},
{"type":"Feature","geometry":{"type":"Polygon","coordinates":[[[-62.17,16.67],[-62.14,16.69],[-62.18,16.81],[-62.24,16.71],[-62.17,16.67]]]},"properties":{"NAME":"Montserrat","SUBJECTO":"Montserrat","BORDERPRECISION":3}},
{"type":"Feature","geometry":{"type":"Polygon","coordinates":[[[-63.17,18.16],[-62.99,18.23],[-63.06,18.26],[-63.17,18.16]]]},"properties":{"NAME":"Anguilla","SUBJECTO":"Anguilla","BORDERPRECISION":3}},
{"type":"Feature","geometry":{"type":"Polygon","coordinates":[[[-62.7,17.34],[-62.81,17.41],[-62.86,17.37],[-62.78,17.29],[-62.7,17.34]]]},"properties":{"NAME":"Saint Kitts and Nevis","SUBJECTO":"Saint Kitts and Nevis","BORDERPRECISION":3}},
{"type":"Feature","geometry":{"type":"Polygon","coordinates":[[[-60.95,13.71],[-60.88,13.96],[-61.08,13.9],[-60.95,13.71]]]},"properties":{"NAME":"Saint Lucia","SUBJECTO":"Saint Lucia","BORDERPRECISION":3}},
{"type":"Feature","geometry":{"type":"Polygon","coordinates":[[[-61.17,13.13],[-61.12,13.25],[-61.21,13.37],[-61.28,13.25],[-61.17,13.13]]]},"properties":{"NAME":"Saint Vincent and the Grenadines","SUBJECTO":"Saint Vincent and the Grenadines","BORDERPRECISION":3}},
{"type":"Feature","geometry":{"type":"Polygon","coordinates":[[[-64.76,17.77],[-64.87,17.77],[-64.89,17.69],[-64.74,17.71],[-64.76,17.77]]]},"properties":{"NAME":"United States Virgin Islands","SUBJECTO":"USA","BORDERPRECISION":3}},
{"type":"Feature","geometry":{"type":"Polygon","coordinates":[[[-61.35,16.33],[-61.5,16.35],[-61.79,16.24],[-61.7,15.95],[-61.55,16.05],[-61.58,16.2],[-61.35,16.33]]]},"properties":{"NAME":"Guadeloupe","SUBJECTO":"France","BORDERPRECISION":3}},
{"type":"Feature","geometry":{"type":"Polygon","coordinates":[[[-68.97,12.2],[-69.08,12.35],[-69.16,12.31],[-69.06,12.19],[-68.83,12.05],[-68.82,12.16],[-68.97,12.2]]]},"properties":{"NAME":"Netherlands Antilles","SUBJECTO":"Netherlands Antilles","BORDERPRECISION":3}},
{"type":"Feature","geometry":{"type":"Polygon","coordinates":[[[-63.01,18.07],[-63.05,18.12],[-63.14,18.06],[-63.01,18.07]]]},"properties":{"NAME":"Saint Martin","SUBJECTO":"Saint Martin","BORDERPRECISION":3}},
{"type":"Feature","geometry":{"type":"Polygon","coordinates":[[[-63.14,18.06],[-63.03,18.02],[-63.01,18.07],[-63.14,18.06]]]},"properties":{"NAME":"Saint Barthelemy","SUBJECTO":"Saint Barthelemy","BORDERPRECISION":3}},
{"type":"Feature","geometry":{"type":"Polygon","coordinates":[[[104.39,10.31],[104.74,8.49],[107.58,10.47],[107.13,12.2],[104.39,10.31]]]},"properties":{"NAME":"Cochin China","SUBJECTO":"France","BORDERPRECISION":3}},
{"type":"Feature","geometry":{"type":"Polygon","coordinates":[[[104.68,20.24],[104.81,18.72],[107.11,16.17],[107.39,14.58],[107.13,12.2],[107.58,10.47],[109.31,12.91],[108.24,16.08],[106.43,17.55],[105.85,19.71],[104.68,20.24]]]},"properties":{"NAME":"Annam","SUBJECTO":"France","BORDERPRECISION":3}},
{"type":"Feature","geometry":{"type":"Polygon","coordinates":[[[41.77,3.83],[41.02,2.71],[41.06,-1.08],[41.61,-1.88],[43.72,0.8],[46.36,2.67],[48.47,5.2],[50.78,9.37],[51.06,11.83],[47.84,7.92],[44.99,4.82],[41.77,3.83]]]},"properties":{"NAME":"Somalia","SUBJECTO":"United Kingdom","BORDERPRECISION":3}},
{"type":"Feature","geometry":{"type":"Polygon","coordinates":[[[47.84,7.92],[51.06,11.83],[44.28,10.4],[43.3,11.48],[42.93,10.89],[43.86,9.03],[47.84,7.92]]]},"properties":{"NAME":"British Somaliland","SUBJECTO":"United Kingdom","BORDERPRECISION":3}},
{"type":"Feature","geometry":{"type":"Polygon","coordinates":[[[23.95,19.47],[24.95,21.88],[24.94,24.93],[25.11,31.51],[21.67,32.82],[20.12,30.96],[18.37,30.52],[17.56,29.29],[17.7,22.54],[23.95,19.47]]]},"properties":{"NAME":"Cyraneica (UK Lybia)","SUBJECTO":"United Kingdom","BORDERPRECISION":3}},
{"type":"Feature","geometry":{"type":"Polygon","coordinates":[[[9.57,30.21],[9.61,29.54],[17.56,29.29],[18.37,30.52],[15.84,31.29],[15.01,32.36],[11.47,33.14],[9.57,30.21]]]},"properties":{"NAME":"Tripolitana (UK Lybia)","SUBJECTO":"United Kingdom","BORDERPRECISION":3}},
{"type":"Feature","geometry":{"type":"Polygon","coordinates":[[[14.03,13.06],[13.79,11.09],[11.07,6.4],[9.59,4.03],[9.88,2.06],[11.22,2.05],[13.27,2.11],[16.08,2.13],[14.4,5.83],[15.56,7.5],[13.91,9.55],[15.16,10.37],[14.03,13.06]]]},"properties":{"NAME":"Cameroon","SUBJECTO":"Cameroon","BORDERPRECISION":3}},
{"type":"Feature","geometry":{"type":"Polygon","coordinates":[[[-71.66,21.82],[-71.85,21.85],[-71.83,21.78],[-71.66,21.82]]]},"properties":{"NAME":"Turks and Caicos Islands","SUBJECTO":"Turks and Caicos Islands","BORDERPRECISION":3}},
{"type":"Feature","geometry":{"type":"Polygon","coordinates":[[[-77.74,26.91],[-77.53,26.86],[-77.15,26.26],[-77.04,26.5],[-77.5,26.86],[-77.74,26.91]]]},"properties":{"NAME":"Bahamas","SUBJECTO":"Bahamas","BORDERPRECISION":3}},
{"type":"Feature","geometry":{"type":"Polygon","coordinates":[[[106.55,-3.18],[106.33,-2.57],[105.43,-1.71],[105.2,-2.11],[105.81,-2.38],[105.99,-2.89],[106.55,-3.18]]]},"properties":{"NAME":"Indonesia","SUBJECTO":"Indonesia","BORDERPRECISION":3}},
{"type":"Feature","geometry":{"type":"Polygon","coordinates":[[[140.87,-2.79],[137.85,-1.61],[135.25,-3.54],[133.91,-1.01],[131.21,-1.02],[134.04,-3.95],[137.82,-5.43],[139.16,-7.73],[140.95,-9.27],[140.87,-2.79]]]},"properties":{"NAME":"Dutch Guinea","SUBJECTO":"Netherlands","BORDERPRECISION":3}},
{"type":"Feature","geometry":{"type":"MultiPolygon","coordinates":[[[[109.52,1.82],[108.81,0.81],[110.1,-3.08],[112.8,-2.97],[115.57,-3.8],[117.53,0.61],[118.52,1.17],[117.56,3.98],[115.71,4.16],[114.66,1.6],[110.55,0.73],[109.52,1.82]]],[[[103.38,-0.89],[101.06,2.08],[98.15,4.07],[98.6,1.71],[100.81,-2.34],[104.57,-6.07],[105.73,-5.83],[105.94,-3.21],[103.38,-0.89]]],[[[119.7,0.01],[118.68,-2.9],[122.26,-3.21],[119.7,0.01]]]]},"properties":{"NAME":"Indonesia","SUBJECTO":"Indonesia","BORDERPRECISION":3}},
{"type":"Feature","geometry":{"type":"MultiPolygon","coordinates":[[[[-97.26,25.81],[-97.63,27.23],[-94.14,29.69],[-90,29.11],[-89.23,30.41],[-83.89,30.05],[-81.1,25.13],[-80.05,26.55],[-81.51,30.73],[-80.58,32.5],[-76.62,34.76],[-75.67,37.9],[-73.74,40.98],[-70.3,41.76],[-70.22,43.8],[-67.19,45.25],[-69.05,47.46],[-70.59,45.29],[-76.13,44.33],[-79.14,43.22],[-79.05,42.85],[-83.06,42.03],[-82.3,43.03],[-83.82,46.15],[-84.74,46.47],[-87.76,46.86],[-89.62,47.97],[-94.82,49.05],[-104.26,49.06],[-115.16,49.06],[-122.9,49.07],[-124.68,48.39],[-123.99,45.76],[-124.63,43.01],[-123.8,39.03],[-120.53,34.51],[-118.6,34.1],[-117.17,32.52],[-114.62,32.43],[-111.09,31.31],[-106.54,31.7],[-103.59,29.06],[-101.03,29.33],[-99.1,26.41],[-97.26,25.81]]],[[[-141.06,69.6],[-156.9,71.35],[-164.07,69.06],[-163.74,67.22],[-168.18,65.69],[-161.13,63.56],[-165.43,62.43],[-165.9,61.27],[-162,58.83],[-158.29,58.73],[-149.33,60.03],[-139.57,59.9],[-137.58,58.6],[-134.12,58.24],[-130,55.29],[-135.85,59.65],[-140.89,60.39],[-141.06,69.6]]]]},"properties":{"NAME":"United States","SUBJECTO":"USA","BORDERPRECISION":3}},
{"type":"Feature","geometry":{"type":"Polygon","coordinates":[[[121.73,25.14],[120.12,23.63],[120.88,22.34],[121.73,25.14]]]},"properties":{"NAME":"Taiwan","SUBJECTO":"Taiwan","BORDERPRECISION":3}},
{"type":"Feature","geometry":{"type":"Polygon","coordinates":[[[126.41,37.9],[126.37,34.79],[129.44,35.48],[128.8,37.92],[126.41,37.9]]]},"properties":{"NAME":"Korea (USA)","SUBJECTO":"USA","BORDERPRECISION":3}},
{"type":"Feature","geometry":{"type":"Polygon","coordinates":[[[-170.75,-14.37],[-170.64,-14.29],[-170.68,-14.26],[-170.8,-14.3],[-170.75,-14.37]]]},"properties":{"NAME":"American Samoa","SUBJECTO":"American Samoa","BORDERPRECISION":3}},
{"type":"Feature","geometry":{"type":"Polygon","coordinates":[[[178.69,-18.03],[178.17,-17.34],[177.51,-17.51],[177.86,-18.26],[178.69,-18.03]]]},"properties":{"NAME":"Fiji","SUBJECTO":"Fiji","BORDERPRECISION":3}},
{"type":"Feature","geometry":{"type":"Polygon","coordinates":[[[-169.89,-19.15],[-169.78,-19.06],[-169.88,-18.96],[-169.95,-19.07],[-169.89,-19.15]]]},"properties":{"NAME":"Niue","SUBJECTO":"Niue","BORDERPRECISION":3}},
{"type":"Feature","geometry":{"type":"Polygon","coordinates":[[[-175.12,-21.13],[-175.19,-21.25],[-175.12,-21.26],[-175.05,-21.16],[-175.12,-21.13]]]},"properties":{"NAME":"Tonga","SUBJECTO":"Tonga","BORDERPRECISION":3}},
{"type":"Feature","geometry":{"type":"Polygon","coordinates":[[[-178.04,-14.32],[-178.13,-14.25],[-178.13,-14.32],[-178.04,-14.32]]]},"properties":{"NAME":"Wallis and Futuna Islands","SUBJECTO":"Wallis and Futuna Islands","BORDERPRECISION":3}},
{"type":"Feature","geometry":{"type":"Polygon","coordinates":[[[-172.29,-13.49],[-172.78,-13.54],[-172.53,-13.8],[-172.21,-13.81],[-172.29,-13.49]]]},"properties":{"NAME":"Samoa","SUBJECTO":"Samoa","BORDERPRECISION":3}},
{"type":"Feature","geometry":{"type":"Polygon","coordinates":[[[-109.24,-27.13],[-109.37,-27.06],[-109.43,-27.2],[-109.24,-27.13]]]},"properties":{"NAME":"Rapa Nui","SUBJECTO":"Chile","BORDERPRECISION":3}},
{"type":"Feature","geometry":{"type":"Polygon","coordinates":[[[114.03,22.51],[114.33,22.27],[114.31,22.55],[114.03,22.51]]]},"properties":{"NAME":"Hong Kong","SUBJECTO":"United Kingdom","BORDERPRECISION":3}}
]}