{"type":"FeatureCollection", "features": [
{"type":"Feature","geometry":{"type":"Polygon","coordinates":[[[80.56,5.93],[81.87,7.08],[80.66,9.3],[79.67,8.8],[80.56,5.93]]]},"properties":{"NAME":"Simhala","SUBJECTO":"Simhala","BORDERPRECISION":1}},
{"type":"Feature","geometry":{"type":"Polygon","coordinates":[[[-100.49,20.9],[-100.75,19.59],[-99.14,18.92],[-99.11,20.59],[-100.49,20.9]]]},"properties":{"NAME":"Teotihuacàn","SUBJECTO":"Teotihuacàn","BORDERPRECISION":1}},
{"type":"Feature","geometry":{"type":"Polygon","coordinates":[[[-96.21,17.89],[-98.59,17.99],[-99.02,16.82],[-96.44,16.22],[-96.19,17.88],[-96.21,17.89]]]},"properties":{"NAME":"Monte Albàn","SUBJECTO":"Monte Albàn","BORDERPRECISION":1}},
{"type":"Feature","geometry":{"type":"Polygon","coordinates":[[[-87.57,15.91],[-87.2,21.53],[-90,21.16],[-90,19.38],[-92.94,18.59],[-93.14,16.98],[-93.59,15.74],[-90,13.75],[-87.57,15.91]]]},"properties":{"NAME":"Maya states","SUBJECTO":"Maya states","BORDERPRECISION":1}},
{"type":"Feature","geometry":{"type":"Polygon","coordinates":[[[-58.14,48.6],[-56.08,47.87],[-54.13,48.84],[-57.36,50.6],[-58.14,48.6]]]},"properties":{"NAME":"Dorset","SUBJECTO":"Dorset","BORDERPRECISION":1}},
{"type":"Feature","geometry":{"type":"Polygon","coordinates":[[[-96.19,17.88],[-93.14,16.98],[-92.94,18.59],[-96.01,18.93],[-97.53,21.25],[-98.45,19.79],[-96.21,17.89],[-96.19,17.88]]]},"properties":{"NAME":"Veracruz civilization","SUBJECTO":"Veracruz civilization","BORDERPRECISION":1}},
{"type":"Feature","geometry":{"type":"Polygon","coordinates":[[[128.16,34.8],[128.04,36.56],[127.67,37.21],[126.67,37.53],[126.39,37.61],[126.23,35.16],[126.41,34.27],[126.5,34.33],[126.62,34.41],[126.67,34.41],[126.82,34.43],[126.83,34.44],[126.99,34.55],[127.23,34.71],[127.36,34.8],[128.16,34.8]]]},"properties":{"NAME":"Paekche","SUBJECTO":"Paekche","BORDERPRECISION":1}},
{"type":"Feature","geometry":{"type":"Polygon","coordinates":[[[128.16,34.8],[129.06,35.17],[129.25,37.01],[128.45,38.26],[128.27,38.42],[128.14,38.53],[127.96,38.69],[127.4,39.08],[125.29,38.69],[126.39,37.61],[126.67,37.53],[127.67,37.21],[128.04,36.56],[128.16,34.8]]]},"properties":{"NAME":"Silla","SUBJECTO":"Silla","BORDERPRECISION":1}},
{"type":"Feature","geometry":{"type":"Polygon","coordinates":[[[-80.89,-5.9],[-79.06,-8.22],[-76.65,-12.84],[-75.99,-12.19],[-78.57,-7.1],[-80.89,-5.9]]]},"properties":{"NAME":"Moche","SUBJECTO":"Moche","BORDERPRECISION":1}},
{"type":"Feature","geometry":{"type":"Polygon","coordinates":[[[30.81,23.86],[29.49,20.28],[30.35,16.93],[35.19,17.58],[34.42,20.51],[33.66,24.02],[30.81,23.86]]]},"properties":{"NAME":"Makkura","SUBJECTO":"Makkura","BORDERPRECISION":1}},
{"type":"Feature","geometry":{"type":"Polygon","coordinates":[[[30.35,16.93],[30.74,11.2],[32.04,8.8],[36.15,8],[38.64,9.7],[42.64,13.09],[42.41,13.18],[39.52,15.46],[38.64,18.06],[35.19,17.58],[30.35,16.93]]]},"properties":{"NAME":"Axum","SUBJECTO":"Axum","BORDERPRECISION":1}},
{"type":"Feature","geometry":{"type":"Polygon","coordinates":[[[39.53,20.69],[42.76,16.65],[43.84,12.66],[51.31,15.25],[52.36,16.23],[50.77,16.79],[45.48,16],[42.34,20.72],[39.53,20.69]]]},"properties":{"NAME":"Himyarite Kingdom","SUBJECTO":"Himyarite Kingdom","BORDERPRECISION":1}},
{"type":"Feature","geometry":{"type":"MultiPolygon","coordinates":[[[[33.66,24.02],[35.19,24.4],[33.93,26.56],[35.07,29.21],[36.47,29.57],[38.38,33.53],[39.97,35.77],[40.39,39.72],[41.68,41.79],[40.36,40.96],[33.56,41.98],[26.13,39.88],[27.16,37.36],[30.47,36.19],[35.71,36.21],[35.87,34.42],[33.56,30.97],[29.25,30.75],[20.37,32.3],[18.61,30.37],[18.61,29.41],[22.31,29.96],[28.41,27.74],[30.81,23.86],[33.66,24.02]]],[[[29.62,45.41],[25.26,43.82],[19.07,45.54],[18.84,42.24],[21.23,37.9],[22.6,40.4],[28.83,40.91],[27.5,42.52],[29.62,45.41]]]]},"properties":{"NAME":"Eastern Roman Empire","SUBJECTO":"Eastern Roman Empire","BORDERPRECISION":1}},
{"type":"Feature","geometry":{"type":"Polygon","coordinates":[[[107.33,15.3],[107.1,10.41],[109.31,12.91],[107.69,16.37],[107.33,15.3]]]},"properties":{"NAME":"Champa","SUBJECTO":"Champa","BORDERPRECISION":1}},
{"type":"Feature","geometry":{"type":"Polygon","coordinates":[[[136.73,34.87],[136.19,36.2],[134.43,34.63],[135.76,33.34],[136.73,34.87]]]},"properties":{"NAME":"Yamato","SUBJECTO":"Yamato","BORDERPRECISION":1}},
{"type":"Feature","geometry":{"type":"Polygon","coordinates":[[[127.4,39.08],[129.64,41.66],[127.3,43.24],[124.7,42.31],[124.11,39.88],[125.29,38.69],[127.4,39.08]]]},"properties":{"NAME":"Koguryo","SUBJECTO":"Koguryo","BORDERPRECISION":1}},
{"type":"Feature","geometry":{"type":"Polygon","coordinates":[[[124.7,42.31],[119.04,42.31],[118.21,40.83],[111.1,40.87],[106.18,41.37],[102.98,40.18],[97.02,40.85],[96.94,38.39],[102.83,35.49],[103.35,33.18],[107.6,33.77],[109.69,33.1],[116.91,34.29],[116.91,36.75],[118.88,37.95],[121.01,40.85],[124.11,39.88],[124.7,42.31]]]},"properties":{"NAME":"Toba Wei","SUBJECTO":"Toba Wei","BORDERPRECISION":1}},
{"type":"Feature","geometry":{"type":"Polygon","coordinates":[[[71.63,35.84],[70.29,31.29],[75.59,33.65],[76,34.68],[77.22,36.28],[74.2,37.49],[71.63,35.84]]]},"properties":{"NAME":"Kushan Principalities","SUBJECTO":"Kushan Principalities","BORDERPRECISION":1}},
{"type":"Feature","geometry":{"type":"Polygon","coordinates":[[[47.61,29.27],[50.13,30.07],[51.35,28.04],[54.65,26.39],[61.34,25.03],[66.43,25.49],[67.39,28.23],[70.29,31.29],[71.63,35.84],[67.06,37.12],[62.7,39.99],[54.07,36.94],[51.8,36.43],[48.84,37.51],[49.81,40.58],[48.25,42.25],[41.68,41.79],[40.39,39.72],[39.97,35.77],[38.38,33.53],[47.61,29.27]]]},"properties":{"NAME":"Sasanian Empire","SUBJECTO":"Sasanian Empire","BORDERPRECISION":1}},
{"type":"Feature","geometry":{"type":"Polygon","coordinates":[[[70.29,31.29],[67.39,28.23],[66.43,25.49],[69.13,21.97],[72.93,20.95],[74.92,22.15],[80.09,22.09],[80.18,16.68],[79.58,15.47],[79.71,12.93],[79.92,12.11],[80.09,15.18],[86.12,19.81],[87.64,21.56],[91.41,22.72],[92.92,20.37],[91.88,23.64],[94.19,25.72],[92.63,27.09],[88,25.87],[83.61,26.92],[78.76,30.79],[76,34.68],[75.59,33.65],[70.29,31.29]]]},"properties":{"NAME":"Gupta Empire","SUBJECTO":"Gupta Empire","BORDERPRECISION":1}},
{"type":"Feature","geometry":{"type":"Polygon","coordinates":[[[72.93,20.95],[74.15,14.85],[77,14.97],[79.58,15.47],[80.18,16.68],[80.09,22.09],[74.92,22.15],[72.93,20.95]]]},"properties":{"NAME":"Vakataka","SUBJECTO":"Vakataka","BORDERPRECISION":1}},
{"type":"Feature","geometry":{"type":"Polygon","coordinates":[[[76.65,8.9],[78.24,8.9],[77.63,9.12],[76.65,8.9]]]},"properties":{"NAME":"Pandyas","SUBJECTO":"Pandyas","BORDERPRECISION":1}},
{"type":"Feature","geometry":{"type":"Polygon","coordinates":[[[-71.1,47.13],[-66.37,50.31],[-60.14,50.41],[-55.66,52.19],[-56.13,53.47],[-60.17,53.3],[-60.22,53.32],[-65.64,55.26],[-71.03,55.2],[-74.2,52.93],[-78.74,52.74],[-82.34,52.98],[-82.2,54.97],[-92.4,56.98],[-102.14,57.21],[-111.28,58.55],[-118.2,62.71],[-124.94,64.83],[-132.43,62.5],[-139.52,62.42],[-150.13,63.32],[-160.94,63.98],[-165.9,61.27],[-162,58.83],[-158.29,58.73],[-149.33,60.03],[-139.57,59.9],[-134.12,58.24],[-130.66,54.96],[-130.48,54.97],[-129.85,55],[-128.59,55.06],[-125.7,55.19],[-114.47,52],[-105.19,51.45],[-97.2,50.11],[-97.15,50.41],[-101.21,53.27],[-97.09,55.07],[-96.2,52.38],[-93.99,50.64],[-90.71,50.27],[-91.08,49.95],[-87.79,49.93],[-76.06,47.31],[-74.19,47.97],[-71.1,47.13]]]},"properties":{"NAME":"Subarctic forest hunter-gatherers","SUBJECTO":"Subarctic forest hunter-gatherers","BORDERPRECISION":1}},
{"type":"Feature","geometry":{"type":"Polygon","coordinates":[[[142.34,-10.92],[140.8,-17.56],[139.25,-17.43],[135.39,-14.9],[136.66,-12.62],[133.56,-11.95],[130.46,-12.76],[129.2,-14.99],[126.85,-13.78],[122.74,-16.58],[120.87,-19.68],[116.42,-20.84],[113.63,-22.57],[113.43,-26.57],[115.75,-32.21],[115.05,-34.42],[118.21,-35.09],[119.77,-34.12],[123.62,-33.92],[126.06,-32.43],[131.28,-31.63],[133.84,-32.34],[135.53,-35.05],[137.46,-33.31],[140.01,-37.64],[143.36,-38.97],[149.5,-37.93],[151.36,-33.52],[152.97,-31.42],[153.07,-26.23],[150.75,-22.81],[146.32,-19.08],[145.18,-15.05],[143.74,-14.47],[142.34,-10.92]]]},"properties":{"NAME":"Australian aboriginal hunter-gatherers","SUBJECTO":"Australian aboriginal hunter-gatherers","BORDERPRECISION":1}},
{"type":"Feature","geometry":{"type":"Polygon","coordinates":[[[146.71,-43.72],[148.27,-41.09],[144.78,-40.84],[146.71,-43.72]]]},"properties":{"NAME":"Tasmanian hunter-gatherers","SUBJECTO":"Tasmanian hunter-gatherers","BORDERPRECISION":1}},
{"type":"Feature","geometry":{"type":"Polygon","coordinates":[[[140.01,41.38],[143.21,41.93],[145.06,43.79],[141.88,45.44],[140.01,41.38]]]},"properties":{"NAME":"Ainu","SUBJECTO":"Ainu","BORDERPRECISION":1}},
{"type":"Feature","geometry":{"type":"Polygon","coordinates":[[[105.4,72.75],[98.46,69.79],[75.86,61.43],[62.81,56.96],[59.09,56.43],[65.31,55.05],[78.36,56.41],[93.7,56.48],[99.49,55.66],[107.96,59.82],[114.02,59.55],[116.71,54.66],[119.94,51.26],[127.34,49.98],[134.87,52.01],[141.05,52.69],[134.99,54.85],[142.85,59.27],[148.42,59.1],[154.32,59.98],[157.1,61.63],[160.64,60.72],[156.78,57.58],[155.47,54.92],[156.7,50.96],[161.5,55.29],[163.39,59.81],[170.34,60.28],[172.44,63.08],[171.77,65.86],[168.14,67.46],[155.89,68.17],[130.87,69.9],[124.54,71.59],[123.5,73.5],[123.41,73.48],[105.6,72.74],[105.4,72.75]]]},"properties":{"NAME":"Paleo-Siberian hunter-gatherers","SUBJECTO":"Paleo-Siberian hunter-gatherers","BORDERPRECISION":1}},
{"type":"Feature","geometry":{"type":"Polygon","coordinates":[[[25.2,65.27],[34.73,65.78],[34.73,65.8],[40.83,67.66],[29.73,69.7],[20.16,69.75],[10.16,64.1],[11.53,61.9],[17.94,62.55],[25.25,65.42],[25.2,65.27]]]},"properties":{"NAME":"Saami","SUBJECTO":"Saami","BORDERPRECISION":1}},
{"type":"Feature","geometry":{"type":"MultiPolygon","coordinates":[[[[-91.08,49.95],[-91.44,49.63],[-88.16,48.99],[-86.46,48.95],[-83.49,47.46],[-80.53,45.65],[-76.06,47.31],[-87.79,49.93],[-91.08,49.95]]],[[[-80.9,32.04],[-75.73,35.88],[-75.67,37.9],[-73.74,40.98],[-70.3,41.76],[-70.22,43.8],[-64.53,46.27],[-64.95,49.21],[-70.36,46.88],[-70.56,45.31],[-75.59,43.68],[-78.29,41.02],[-79.98,37.58],[-82.14,36.96],[-85.56,37.55],[-88.51,36.06],[-90.81,38.01],[-93.43,38.34],[-94.12,36.33],[-94.12,35.88],[-92.22,33.32],[-89.79,30.69],[-87.97,30.58],[-88.16,31],[-88.54,32.82],[-88.38,33.19],[-88.41,35.47],[-88.06,35.17],[-85.85,34.43],[-85.77,34.16],[-82.39,34.14],[-80.9,32.04]]],[[[-76.21,43.56],[-75.59,43.68],[-76.18,43.61],[-76.21,43.56]]],[[[-78.82,43.31],[-79.27,43.67],[-80.29,44.52],[-80.5,44.59],[-80.02,42.81],[-79.19,42.85],[-78.82,43.31]]],[[[-82.77,42.27],[-81.86,42.26],[-82.17,43.08],[-82.46,43.2],[-82.77,42.27]]],[[[-79.56,42.39],[-81.95,41.51],[-81.96,41.15],[-82.28,40.91],[-79.56,42.39]]],[[[-87.35,41.17],[-83.66,40.61],[-84.05,40.74],[-84.75,41.69],[-84.74,41.72],[-87.35,41.17]]],[[[-86.45,44.13],[-83.74,43.62],[-84.17,45.59],[-86.1,44.76],[-86.45,44.13]]],[[[-94.51,47.39],[-94.12,40.14],[-94.11,42.03],[-89.32,44.49],[-87.79,42.84],[-87.2,45.57],[-89.29,46.89],[-91.2,47.33],[-93.64,47.13],[-94.51,47.39]]],[[[-87.51,32.81],[-87.51,32.82],[-88.54,32.82],[-87.51,32.81]]],[[[-83.7,29.87],[-82.43,27.83],[-80.59,28.49],[-81.38,30],[-83.7,29.87]]]]},"properties":{"NAME":"Eastern North Amercian hunter-gatherers","SUBJECTO":"Eastern North Amercian hunter-gatherers","BORDERPRECISION":1}},
{"type":"Feature","geometry":{"type":"Polygon","coordinates":[[[105.4,72.75],[105.28,72.75],[113.63,75.27],[103.39,77.56],[91.63,75.65],[89.8,75.52],[87.69,73.9],[72.71,72.77],[62.28,69.71],[39.95,65.58],[34.73,65.61],[34.73,65.78],[25.2,65.27],[25.19,65.24],[21.2,62.44],[32.52,60.93],[46.11,57.71],[53.98,57.71],[59.09,56.43],[62.81,56.96],[75.86,61.43],[98.46,69.79],[105.4,72.75]]]},"properties":{"NAME":"Finno-Ugric taiga hunter-gatherers","SUBJECTO":"Finno-Ugric taiga hunter-gatherers","BORDERPRECISION":1}},
{"type":"Feature","geometry":{"type":"MultiPolygon","coordinates":[[[[-43.58,59.94],[-39.69,65.19],[-42.79,65.4],[-43.58,59.94]]],[[[-49.47,67.03],[-50.54,67.49],[-50.94,67.53],[-53.1,65.87],[-48.92,61.42],[-46.16,60.94],[-49.47,67.03]]],[[[-92.4,56.98],[-94.75,59.95],[-89.87,63.58],[-89.86,63.65],[-89.99,64.03],[-86.49,67.38],[-92.96,69.08],[-101.91,67.71],[-112.5,67.69],[-115.29,68.89],[-127.35,70.38],[-137.73,69.02],[-156.9,71.35],[-164.07,69.06],[-166.59,64.73],[-160.94,63.98],[-150.13,63.32],[-139.52,62.42],[-132.43,62.5],[-124.94,64.83],[-118.2,62.71],[-111.28,58.55],[-102.14,57.21],[-92.4,56.98]]],[[[-60.22,53.32],[-57.52,54.47],[-61.93,56.27],[-62.89,58.66],[-69.21,58.75],[-70.03,60.88],[-77.36,62.52],[-78.34,58.55],[-76.44,56.81],[-79.55,54.69],[-78.74,52.74],[-74.2,52.93],[-71.03,55.2],[-65.64,55.26],[-60.22,53.32]]],[[[170.34,60.28],[170.52,60.34],[179.29,62.82],[180,64.95],[180,65.05],[180,65.31],[180,65.38],[180,65.96],[180,66.96],[180,67.96],[180,68.92],[175.61,69.78],[159.44,69.76],[152.13,70.66],[141.29,72.79],[137.63,71.08],[126.22,72.38],[124.22,73.7],[123.5,73.5],[124.54,71.59],[130.87,69.9],[155.89,68.17],[168.14,67.46],[171.77,65.86],[172.44,63.08],[170.34,60.28]]],[[[-75.62,69.1],[-72.3,67.26],[-75.79,65.2],[-71.32,63.06],[-64.47,63.74],[-61.21,66.64],[-68.67,68.72],[-71.25,71.35],[-81.53,73.69],[-88.1,73.64],[-87.95,70.38],[-75.62,69.1]]],[[[-117.22,72.86],[-117.57,69.99],[-113.15,68.6],[-104.62,71.09],[-110.35,71.2],[-117.22,72.86]]],[[[-170.47,66.29],[-180,68.92],[-180,67.96],[-180,66.96],[-180,65.96],[-180,65.38],[-180,65.31],[-180,65.26],[-178.12,65.48],[-173.08,64.38],[-170.47,66.29]]]]},"properties":{"NAME":"Arctic marine mammal hunters","SUBJECTO":"Arctic marine mammal hunters","BORDERPRECISION":1}},
{"type":"Feature","geometry":{"type":"Polygon","coordinates":[[[-70.11,-20.69],[-70.4,-25.25],[-71.43,-29.1],[-71.62,-33.71],[-73.67,-37.5],[-72.73,-41.55],[-72.07,-40.55],[-69.44,-37.16],[-67.48,-31.66],[-69.32,-29.3],[-67.12,-25.03],[-65.91,-18.31],[-70.11,-20.69]]]},"properties":{"NAME":"Andean hunter-gatherers","SUBJECTO":"Andean hunter-gatherers","BORDERPRECISION":1}},
{"type":"Feature","geometry":{"type":"Polygon","coordinates":[[[-52.14,-31.74],[-57.35,-29.68],[-63.56,-30.04],[-67.48,-31.66],[-69.44,-37.16],[-72.07,-40.55],[-70.58,-40.58],[-72.19,-45.99],[-71.17,-51.56],[-69.11,-51.35],[-69.17,-51.15],[-65.78,-47.23],[-64.94,-40.83],[-61.36,-39.03],[-57.81,-38.39],[-56.34,-35],[-54.07,-34.65],[-52.14,-31.75],[-52.14,-31.74]]]},"properties":{"NAME":"Pampas cultures","SUBJECTO":"Pampas cultures","BORDERPRECISION":1}},
{"type":"Feature","geometry":{"type":"Polygon","coordinates":[[[-61.7,8.61],[-61.53,9.85],[-67.98,10.54],[-69.75,11.53],[-71.1,9.33],[-70.68,8.56],[-65.97,8.18],[-61.7,8.61]]]},"properties":{"NAME":"Caribbean hunter-gatherers","SUBJECTO":"Caribbean hunter-gatherers","BORDERPRECISION":1}},
{"type":"Feature","geometry":{"type":"Polygon","coordinates":[[[-69.11,-51.35],[-71.17,-51.56],[-72.19,-45.99],[-70.58,-40.58],[-72.07,-40.55],[-72.73,-41.55],[-74.31,-48.75],[-71.87,-53.7],[-69.08,-51.5],[-69.11,-51.35]]]},"properties":{"NAME":"Patagonian shellfish and marine mammal hunters","SUBJECTO":"Patagonian shellfish and marine mammal hunters","BORDERPRECISION":1}},
{"type":"Feature","geometry":{"type":"Polygon","coordinates":[[[-48.73,-28.37],[-48.72,-25.43],[-44.56,-22.99],[-43.24,-23.03],[-45.94,-21.75],[-49.49,-24.55],[-48.8,-28.48],[-48.73,-28.37]]]},"properties":{"NAME":"Shellfish gatherers","SUBJECTO":"Shellfish gatherers","BORDERPRECISION":1}},
{"type":"Feature","geometry":{"type":"Polygon","coordinates":[[[-65.91,-18.31],[-67.12,-25.03],[-69.32,-29.3],[-67.48,-31.66],[-63.56,-30.04],[-57.35,-29.68],[-52.14,-31.74],[-52.04,-31.56],[-48.85,-28.56],[-48.8,-28.48],[-49.49,-24.55],[-45.94,-21.75],[-43.24,-23.03],[-41.96,-22.92],[-39.69,-19.41],[-39.13,-14.32],[-34.89,-7.61],[-35.46,-5.27],[-37.89,-4.39],[-39.94,-8.29],[-48.32,-13.92],[-51.54,-14.38],[-60.27,-13.81],[-64.19,-14.69],[-65.91,-18.31]]]},"properties":{"NAME":"Savanna hunter-gatherers","SUBJECTO":"Savanna hunter-gatherers","BORDERPRECISION":1}},
{"type":"Feature","geometry":{"type":"Polygon","coordinates":[[[-64.19,-14.69],[-60.27,-13.81],[-51.54,-14.38],[-48.32,-13.92],[-39.94,-8.29],[-37.89,-4.39],[-40.23,-2.85],[-44.55,-3.1],[-49.07,-4.74],[-56.33,-4.33],[-58.44,-2.29],[-55.86,1.7],[-58.56,3.98],[-62.66,4.15],[-66.41,3.04],[-70.16,-5.74],[-69.05,-8.24],[-64.19,-14.69]]]},"properties":{"NAME":"Amazon hunter-gatherers","SUBJECTO":"Amazon hunter-gatherers","BORDERPRECISION":1}},
{"type":"Feature","geometry":{"type":"Polygon","coordinates":[[[-120.13,34.52],[-119.78,34.46],[-117.5,33.33],[-115.6,29.69],[-113.05,31.14],[-110.6,27.86],[-107.56,27.76],[-104.22,25.12],[-100.36,23.97],[-97.82,24.14],[-97.45,27.99],[-97.21,28.07],[-104.52,33.87],[-111.67,41.94],[-120.47,43.57],[-121.36,39.69],[-120.13,34.52]]]},"properties":{"NAME":"Desert hunter-gatherers","SUBJECTO":"Desert hunter-gatherers","BORDERPRECISION":1}},
{"type":"Feature","geometry":{"type":"Polygon","coordinates":[[[-128.59,55.06],[-120.48,48.96],[-120.47,43.57],[-111.67,41.94],[-114.13,47.95],[-114.47,52],[-125.7,55.19],[-128.59,55.06]]]},"properties":{"NAME":"Plateau fichers and hunter gatherers","SUBJECTO":"Plateau fichers and hunter gatherers","BORDERPRECISION":1}},
{"type":"Feature","geometry":{"type":"Polygon","coordinates":[[[-129.85,55],[-130,53.94],[-124.68,48.39],[-124.14,44.79],[-124.23,44.45],[-123.8,39.03],[-120.2,34.53],[-120.13,34.52],[-121.36,39.69],[-120.47,43.57],[-120.48,48.96],[-128.59,55.06],[-129.85,55]]]},"properties":{"NAME":"North American Pacifi foraging, hunting and fishing peoples","SUBJECTO":"North American Pacifi foraging, hunting and fishing peoples","BORDERPRECISION":1}},
{"type":"Feature","geometry":{"type":"Polygon","coordinates":[[[30.74,11.2],[24.07,11.18],[17.75,12.83],[8.27,12.37],[2.35,13.29],[-6.26,13.35],[-8.91,12.64],[-10.18,14.21],[-13.4,14.92],[-16.87,14.36],[-16.77,12.6],[-13.68,9.92],[-12.26,7.35],[-7.53,4.34],[-5,5.24],[-2.03,4.7],[3.95,6.58],[5.45,5.48],[5.36,5.37],[12.6,7.73],[22.22,6.2],[33.93,2.84],[36.02,1.3],[38.77,-2.27],[40.86,0.32],[44.14,1.15],[44.3,1.29],[48.47,5.2],[50.78,9.37],[51.18,11.78],[44.28,10.4],[42.64,13.09],[38.64,9.7],[39.14,9.06],[38.61,6.6],[35.58,5.53],[33.02,6.86],[32.04,8.8],[30.74,11.2]]]},"properties":{"NAME":"West African cereal farmers","SUBJECTO":"West African cereal farmers","BORDERPRECISION":1}},
{"type":"Feature","geometry":{"type":"Polygon","coordinates":[[[101.66,52.6],[81.78,51.11],[75.3,47.41],[73.44,44.51],[76.36,43.62],[89.16,42.27],[107.36,44.03],[116.32,45.45],[113.33,53.47],[111.18,53.31],[112.36,52.14],[109.65,50.76],[101.53,50.38],[101.66,52.6]]]},"properties":{"NAME":"Ruanruan","SUBJECTO":"Ruanruan","BORDERPRECISION":1}},
{"type":"Feature","geometry":{"type":"Polygon","coordinates":[[[34.42,20.51],[37.13,21.23],[35.19,24.4],[33.66,24.02],[34.42,20.51]]]},"properties":{"NAME":"Blemmyes","SUBJECTO":"Blemmyes","BORDERPRECISION":1}},
{"type":"Feature","geometry":{"type":"Polygon","coordinates":[[[-94.12,35.88],[-94.28,35.13],[-92.22,33.32],[-94.12,35.88]]]},"properties":{"NAME":"Poverty point culture","SUBJECTO":"Poverty point culture","BORDERPRECISION":1}},
{"type":"Feature","geometry":{"type":"Polygon","coordinates":[[[-92.22,33.32],[-93.81,31.94],[-94.12,31.64],[-94.12,29.69],[-90.78,29.11],[-89.79,30.69],[-92.22,33.32]]]},"properties":{"NAME":"Marksville Culture","SUBJECTO":"Marksville Culture","BORDERPRECISION":1}},
{"type":"Feature","geometry":{"type":"Polygon","coordinates":[[[-93.81,31.94],[-96.04,32.99],[-94.12,31.64],[-93.81,31.94]]]},"properties":{"NAME":"Mill Creek Culture","SUBJECTO":"Mill Creek Culture","BORDERPRECISION":1}},
{"type":"Feature","geometry":{"type":"Polygon","coordinates":[[[-85.77,34.16],[-85.77,34.15],[-86.99,32.82],[-87.3,31.3],[-83.7,29.87],[-81.38,30],[-80.9,32.04],[-82.39,34.14],[-85.77,34.16]]]},"properties":{"NAME":"Swift Creek Culture","SUBJECTO":"Swift Creek Culture","BORDERPRECISION":1}},
{"type":"Feature","geometry":{"type":"Polygon","coordinates":[[[-88.38,33.19],[-88.13,34.93],[-88.41,35.47],[-88.38,33.19]]]},"properties":{"NAME":"Miller","SUBJECTO":"Miller","BORDERPRECISION":1}},
{"type":"Feature","geometry":{"type":"MultiPolygon","coordinates":[[[[-97.2,50.11],[-97.28,49.57],[-95.62,47.72],[-94.51,47.39],[-93.64,47.13],[-91.2,47.33],[-88.16,48.99],[-91.44,49.63],[-91.08,49.95],[-90.71,50.27],[-93.99,50.64],[-96.2,52.38],[-97.09,55.07],[-101.21,53.27],[-97.15,50.41],[-97.2,50.11]]],[[[-86.46,48.95],[-89.29,46.89],[-87.2,45.57],[-86.1,44.76],[-84.17,45.59],[-83.49,47.46],[-86.46,48.95]]]]},"properties":{"NAME":"Laurel complex","SUBJECTO":"Laurel complex","BORDERPRECISION":1}},
{"type":"Feature","geometry":{"type":"Polygon","coordinates":[[[-88.06,35.17],[-88.13,34.93],[-87.9,34.41],[-88.38,33.19],[-88.54,32.82],[-87.51,32.82],[-86.99,32.82],[-85.77,34.15],[-85.77,34.16],[-85.85,34.43],[-88.06,35.17]]]},"properties":{"NAME":"Copena","SUBJECTO":"Copena","BORDERPRECISION":1}},
{"type":"Feature","geometry":{"type":"Polygon","coordinates":[[[-88.16,31],[-87.3,31.3],[-86.99,32.82],[-87.47,32.81],[-87.51,32.81],[-88.54,32.82],[-88.16,31]]]},"properties":{"NAME":"Porter","SUBJECTO":"Porter","BORDERPRECISION":1}},
{"type":"Feature","geometry":{"type":"MultiPolygon","coordinates":[[[[-84.74,41.72],[-84.45,42.89],[-83.74,43.62],[-86.45,44.13],[-86.49,44],[-86.51,43.68],[-87.03,41.69],[-87.22,41.63],[-87.38,41.63],[-87.35,41.17],[-84.74,41.72]]],[[[-87.48,41.69],[-88.16,41.94],[-87.38,41.63],[-87.48,41.69]]]]},"properties":{"NAME":"Goodall Focus","SUBJECTO":"Goodall Focus","BORDERPRECISION":1}},
{"type":"Feature","geometry":{"type":"Polygon","coordinates":[[[-75.59,43.68],[-76.21,43.56],[-78.82,43.31],[-79.19,42.85],[-79.56,42.39],[-82.28,40.91],[-82.44,40.79],[-83.64,40.6],[-83.66,40.61],[-87.35,41.17],[-87.38,41.63],[-88.16,41.94],[-87.79,42.82],[-87.79,42.84],[-89.32,44.49],[-94.11,42.03],[-94.12,40.14],[-95.79,37.17],[-94.12,36.33],[-93.43,38.34],[-90.81,38.01],[-88.51,36.06],[-85.56,37.55],[-82.14,36.96],[-79.98,37.58],[-78.29,41.02],[-75.59,43.68]]]},"properties":{"NAME":"Hopewell Culture","SUBJECTO":"Hopewell Culture","BORDERPRECISION":1}},
{"type":"Feature","geometry":{"type":"Polygon","coordinates":[[[-80.5,44.59],[-82.17,43.08],[-81.86,42.26],[-80.02,42.81],[-80.5,44.59]]]},"properties":{"NAME":"Saugeen Complex","SUBJECTO":"Saugeen Complex","BORDERPRECISION":1}},
{"type":"Feature","geometry":{"type":"Polygon","coordinates":[[[-82.46,43.2],[-83.74,43.62],[-84.45,42.89],[-84.74,41.72],[-84.75,41.69],[-84.05,40.74],[-83.66,40.61],[-83.64,40.6],[-82.44,40.79],[-82.28,40.91],[-81.96,41.15],[-81.95,41.51],[-82.77,42.27],[-82.46,43.2]]]},"properties":{"NAME":"Couture Complex","SUBJECTO":"Couture Complex","BORDERPRECISION":1}},
{"type":"Feature","geometry":{"type":"Polygon","coordinates":[[[-76.06,47.31],[-80.53,45.65],[-79.95,44.77],[-80.29,44.52],[-79.27,43.67],[-77.3,43.94],[-77.29,43.94],[-77.13,44.02],[-77.12,44.05],[-77.08,44.13],[-76.95,44.25],[-76.18,43.61],[-75.59,43.68],[-70.56,45.31],[-70.36,46.88],[-71.1,47.13],[-74.19,47.97],[-76.06,47.31]]]},"properties":{"NAME":"Point Peninsula","SUBJECTO":"Point Peninsula","BORDERPRECISION":1}},
{"type":"Feature","geometry":{"type":"Polygon","coordinates":[[[-114.47,52],[-114.13,47.95],[-111.67,41.94],[-104.52,33.87],[-97.21,28.07],[-97.12,28.11],[-96.83,28.16],[-94.12,29.69],[-94.12,31.64],[-96.04,32.99],[-96.04,33.01],[-95.46,33.03],[-94.28,35.13],[-94.12,35.88],[-94.12,36.33],[-95.79,37.17],[-94.12,40.14],[-94.51,47.39],[-95.62,47.72],[-97.28,49.57],[-97.2,50.11],[-105.19,51.45],[-114.47,52]]]},"properties":{"NAME":"Plain bison hunters","SUBJECTO":"Plain bison hunters","BORDERPRECISION":1}},
{"type":"Feature","geometry":{"type":"Polygon","coordinates":[[[-76.24,-13.91],[-74.62,-15.67],[-73.89,-14.85],[-75.56,-12.87],[-76.24,-13.91]]]},"properties":{"NAME":"Nazca","SUBJECTO":"Nazca","BORDERPRECISION":1}},
{"type":"Feature","geometry":{"type":"Polygon","coordinates":[[[-82.43,27.83],[-81.1,25.13],[-80.05,26.55],[-80.59,28.49],[-82.43,27.83]]]},"properties":{"NAME":"Caloosahatchee cultureure","SUBJECTO":"Caloosahatchee cultureure","BORDERPRECISION":1}},
{"type":"Feature","geometry":{"type":"Polygon","coordinates":[[[-6.26,13.35],[-4.55,15.11],[-5.18,17.2],[-7.46,19.44],[-9.91,17.89],[-11.18,15.46],[-10.18,14.21],[-8.91,12.64],[-6.26,13.35]]]},"properties":{"NAME":"Empire of Ghana","SUBJECTO":"Empire of Ghana","BORDERPRECISION":1}},
{"type":"Feature","geometry":{"type":"Polygon","coordinates":[[[-3.15,54.84],[-4.6,50.78],[-2.35,50.63],[-2.06,54.93],[-3.15,54.84]]]},"properties":{"NAME":"Western Roman Empire","SUBJECTO":"Western Roman Empire","BORDERPRECISION":1}},
{"type":"Feature","geometry":{"type":"Polygon","coordinates":[[[-5.82,43.7],[-8.71,40.93],[-6.98,39.61],[-4.77,42.28],[-5.82,43.7]]]},"properties":{"NAME":"Sveves","SUBJECTO":"Sveves","BORDERPRECISION":1}},
{"type":"Feature","geometry":{"type":"Polygon","coordinates":[[[-4.77,42.28],[-1.68,43.42],[-5.82,43.7],[-4.77,42.28]]]},"properties":{"NAME":"Basks","SUBJECTO":"Basks","BORDERPRECISION":1}},
{"type":"Feature","geometry":{"type":"Polygon","coordinates":[[[-2.06,54.93],[-2.35,50.63],[1.69,52.31],[-1.58,54.97],[-2.06,54.93]]]},"properties":{"NAME":"Anglo-Saxons","SUBJECTO":"Anglo-Saxons","BORDERPRECISION":1}},
{"type":"Feature","geometry":{"type":"Polygon","coordinates":[[[9.34,52.2],[7.21,50.72],[9.49,48.37],[11.17,48.72],[9.34,52.2]]]},"properties":{"NAME":"Turingians","SUBJECTO":"Turingians","BORDERPRECISION":1}},
{"type":"Feature","geometry":{"type":"Polygon","coordinates":[[[19.07,45.54],[18.91,47.84],[11.17,48.72],[9.49,48.37],[9.01,47.44],[4.45,44.38],[4.27,43.41],[8.9,44.44],[12.64,41.53],[15.41,43.93],[18.84,42.24],[19.07,45.54]]]},"properties":{"NAME":"Ostrogoths","SUBJECTO":"","BORDERPRECISION":1}},
{"type":"Feature","geometry":{"type":"Polygon","coordinates":[[[9.01,47.44],[3.77,47.7],[3.71,46.33],[4.45,44.38],[9.01,47.44]]]},"properties":{"NAME":"Burgunds","SUBJECTO":"Burgunds","BORDERPRECISION":1}},
{"type":"Feature","geometry":{"type":"Polygon","coordinates":[[[9.34,52.2],[10.35,54.35],[4.64,52.76],[3.78,51.39],[7.21,50.72],[9.34,52.2]]]},"properties":{"NAME":"Saxons","SUBJECTO":"Saxons","BORDERPRECISION":1}},
{"type":"Feature","geometry":{"type":"Polygon","coordinates":[[[-1.73,48.62],[-3.09,48.87],[-3.95,47.9],[-2.4,47.22],[-1.73,48.62]]]},"properties":{"NAME":"Armorica","SUBJECTO":"Armorica","BORDERPRECISION":1}},
{"type":"Feature","geometry":{"type":"Polygon","coordinates":[[[18.61,30.37],[15.84,31.29],[10.02,34.08],[10.13,37.1],[0.23,36.06],[2.55,34.73],[7.99,35.5],[9.83,32.92],[18.61,29.41],[18.61,30.37]]]},"properties":{"NAME":"Vandals","SUBJECTO":"Vandals","BORDERPRECISION":1}},
{"type":"Feature","geometry":{"type":"Polygon","coordinates":[[[-94.28,35.13],[-95.46,33.03],[-96.04,33.01],[-96.04,32.99],[-93.81,31.94],[-92.22,33.32],[-94.28,35.13]]]},"properties":{"NAME":"Fourche Maline Culture","SUBJECTO":"Fourche Maline Culture","BORDERPRECISION":1}},
{"type":"Feature","geometry":{"type":"Polygon","coordinates":[[[-87.97,30.58],[-87.77,30.26],[-87.69,30.26],[-87.97,30.58]]]},"properties":{"NAME":"Swift Creek Culture","SUBJECTO":"Swift Creek Culture","BORDERPRECISION":1}},
{"type":"Feature","geometry":{"type":"Polygon","coordinates":[[[-87.51,32.81],[-87.47,32.81],[-86.99,32.82],[-87.51,32.82],[-87.51,32.81]]]},"properties":{"NAME":"Swift Creek Culture","SUBJECTO":"Swift Creek Culture","BORDERPRECISION":1}},
{"type":"Feature","geometry":{"type":"Polygon","coordinates":[[[111.18,53.31],[110.86,53.62],[109.19,53.65],[109.02,53.65],[108.69,53.65],[107.72,53.67],[101.68,52.93],[101.66,52.6],[101.53,50.38],[109.65,50.76],[112.36,52.14],[111.18,53.31]]]},"properties":{"NAME":"Kurykans","SUBJECTO":"Kurykans","BORDERPRECISION":1}},
{"type":"Feature","geometry":{"type":"Polygon","coordinates":[[[15.29,59.42],[17.74,59.11],[17.75,58.99],[18.27,59.29],[18.52,59.4],[16.41,59.45],[18.89,59.93],[15.29,59.42]]]},"properties":{"NAME":"Swedes","SUBJECTO":"Swedes","BORDERPRECISION":1}},
{"type":"Feature","geometry":{"type":"Polygon","coordinates":[[[77.63,9.12],[77.65,10.32],[76.27,10.04],[76.65,8.9],[77.63,9.12]]]},"properties":{"NAME":"Cheras","SUBJECTO":"Cheras","BORDERPRECISION":1}},
{"type":"Feature","geometry":{"type":"Polygon","coordinates":[[[77.65,10.32],[77.86,10.36],[77.47,12.45],[75.2,12.15],[76.27,10.04],[77.65,10.32]]]},"properties":{"NAME":"Western Gangas","SUBJECTO":"Western Gangas","BORDERPRECISION":1}},
{"type":"Feature","geometry":{"type":"Polygon","coordinates":[[[78.24,8.9],[79.16,10],[77.86,10.36],[77.65,10.32],[77.63,9.12],[78.24,8.9]]]},"properties":{"NAME":"Cholas","SUBJECTO":"Cholas","BORDERPRECISION":1}},
{"type":"Feature","geometry":{"type":"Polygon","coordinates":[[[74.15,14.85],[75.2,12.15],[77.47,12.45],[77,14.97],[74.15,14.85]]]},"properties":{"NAME":"Kadambas","SUBJECTO":"Kadambas","BORDERPRECISION":1}},
{"type":"Feature","geometry":{"type":"Polygon","coordinates":[[[79.71,12.93],[77.47,12.45],[77.86,10.36],[79.16,10],[79.92,12.11],[79.71,12.93]]]},"properties":{"NAME":"Pallavas","SUBJECTO":"Pallavas","BORDERPRECISION":1}},
{"type":"Feature","geometry":{"type":"Polygon","coordinates":[[[79.58,15.47],[77,14.97],[77.47,12.45],[79.71,12.93],[79.58,15.47]]]},"properties":{"NAME":"Vishnu-Kundins","SUBJECTO":"Vishnu-Kundins","BORDERPRECISION":1}},
{"type":"Feature","geometry":{"type":"Polygon","coordinates":[[[5.36,5.37],[5.35,5.36],[8.87,4.62],[9.92,2.82],[9.2,-0.63],[9.66,-2.42],[11.77,-4.54],[13.39,-8.16],[13.65,-12.2],[12.59,-13.46],[11.77,-17.6],[14.42,-22.27],[15.45,-27.62],[18.18,-31.81],[18.49,-34.4],[26.66,-33.85],[32.23,-28.74],[33.35,-25.3],[34.88,-24.72],[34.73,-19.86],[39.47,-16.72],[40.6,-14.4],[40.31,-11.34],[38.92,-6.34],[40.23,-3.19],[43.72,0.8],[44.14,1.15],[40.86,0.32],[38.77,-2.27],[36.02,1.3],[33.93,2.84],[22.22,6.2],[12.6,7.73],[5.36,5.37]]]},"properties":{"NAME":"Khoiasan","SUBJECTO":"Khoiasan","BORDERPRECISION":1}},
{"type":"Feature","geometry":{"type":"Polygon","coordinates":[[[103.35,33.18],[99.75,27.47],[100.41,25.09],[102.38,24.01],[103.23,20.12],[106.39,17.66],[105.53,18.84],[107.9,21.48],[110.08,20.87],[116.34,22.91],[118.81,24.85],[121.36,28.39],[121.61,31.83],[119.02,34.69],[118.88,37.95],[116.91,36.75],[116.91,34.29],[109.69,33.1],[107.6,33.77],[103.35,33.18]]]},"properties":{"NAME":"Jin Empire","SUBJECTO":"Jin Empire","BORDERPRECISION":1}},
{"type":"Feature","geometry":{"type":"Polygon","coordinates":[[[107.33,15.3],[101.88,16.23],[101.77,12.64],[103.04,10.9],[107.1,10.41],[107.33,15.3]]]},"properties":{"NAME":"Funan","SUBJECTO":"Funan","BORDERPRECISION":1}},
{"type":"Feature","geometry":{"type":"Polygon","coordinates":[[[99.47,9.18],[99.9,12.08],[101.77,12.64],[101.88,16.23],[97.67,15.69],[98.74,11.44],[98.24,8.9],[99.47,9.18]]]},"properties":{"NAME":"Lavo","SUBJECTO":"Lavo","BORDERPRECISION":1}},
{"type":"Feature","geometry":{"type":"Polygon","coordinates":[[[7.21,50.72],[3.78,51.39],[-1.73,48.62],[-2.4,47.22],[-1.22,46.26],[3.71,46.33],[3.77,47.7],[9.01,47.44],[9.49,48.37],[7.21,50.72]]]},"properties":{"NAME":"Franks","SUBJECTO":"Franks","BORDERPRECISION":1}},
{"type":"Feature","geometry":{"type":"Polygon","coordinates":[[[-8.71,40.93],[-8.67,37.12],[-2.24,36.73],[0.17,38.74],[0.88,41.02],[4.27,43.41],[4.45,44.38],[3.71,46.33],[-1.22,46.26],[-1.68,43.42],[-4.77,42.28],[-6.98,39.61],[-8.71,40.93]]]},"properties":{"NAME":"Visigoths","SUBJECTO":"Visigoths","BORDERPRECISION":1}},
{"type":"Feature","geometry":{"type":"Polygon","coordinates":[[[178.18,-18.24],[178.17,-17.34],[177.51,-17.51],[177.33,-18.12],[178.18,-18.24]]]},"properties":{"NAME":"Tuʻi Tonga Empire","SUBJECTO":"Tuʻi Tonga Empire","BORDERPRECISION":1}}
]}