{"type":"FeatureCollection", "features": [
{"type":"Feature","geometry":{"type":"Polygon","coordinates":[[[33.78,35.21],[32.82,35.28],[32.6,34.61],[33.92,34.95],[33.78,35.21]]]},"properties":{"NAME":"Cyprus","SUBJECTO":"Cyprus","BORDERPRECISION":1}},
{"type":"Feature","geometry":{"type":"MultiPolygon","coordinates":[[[[136.81,37.31],[134.43,34.63],[140.32,35.03],[140.87,37.92],[136.81,37.31]]],[[[140.01,41.38],[141.16,41.75],[140.25,42.23],[145.45,43.17],[145.36,43.33],[145.15,43.6],[145.06,43.79],[145.14,44.18],[143.51,44.16],[143.02,44.46],[142.54,44.84],[142.13,45.21],[141.9,45.4],[141.57,44.97],[141.75,44.63],[141.74,44.25],[141.71,43.91],[141.3,43.19],[140.9,43.13],[140.6,43.33],[140.5,43.32],[140.52,43.06],[140.5,42.9],[139.71,42.48],[139.78,42.11],[140.1,41.95],[140.12,41.79],[140.01,41.38]]]]},"properties":{"NAME":"Japan","SUBJECTO":"Japan","BORDERPRECISION":1}},
{"type":"Feature","geometry":{"type":"Polygon","coordinates":[[[120.62,21.93],[121.59,24.65],[120.02,23.62],[120.62,21.93]]]},"properties":{"NAME":"Taiwan","SUBJECTO":"Taiwan","BORDERPRECISION":1}},
{"type":"Feature","geometry":{"type":"MultiPolygon","coordinates":[[[[120.36,14.53],[122.4,17.11],[120.39,18.04],[120.36,14.53]]],[[[126.05,6.61],[125.93,9.17],[123.46,7.79],[124.22,6.09],[126.05,6.61]]]]},"properties":{"NAME":"Philippines","SUBJECTO":"Philippines","BORDERPRECISION":1}},
{"type":"Feature","geometry":{"type":"Polygon","coordinates":[[[44.67,-16.24],[43.97,-17.55],[44.47,-20.17],[43.5,-21.49],[43.67,-24.23],[45.58,-25.62],[47.26,-24.77],[49.34,-18.23],[50.5,-15.31],[49.82,-12.83],[46.92,-15.36],[44.67,-16.24]],[[48.01,-17.02],[48.49,-20.04],[47.19,-23.12],[45.29,-22.65],[46.65,-17.73],[48.01,-17.02]]]},"properties":{"NAME":"Madagascar","SUBJECTO":"Madagascar","BORDERPRECISION":1}},
{"type":"Feature","geometry":{"type":"MultiPolygon","coordinates":[[[[175.31,-37.32],[174.65,-38.98],[176.01,-41.26],[178.41,-38.77],[175.31,-37.32]]],[[[172.06,-43.92],[171.46,-41.99],[166.52,-46.23],[169.4,-46.71],[172.06,-43.92]]]]},"properties":{"NAME":"Maori","SUBJECTO":"Maori","BORDERPRECISION":1}},
{"type":"Feature","geometry":{"type":"MultiPolygon","coordinates":[[[[19.82,69.37],[18.96,68.29],[18.53,66.43],[19.82,69.37]]],[[[13.28,79.49],[11.76,78.88],[15.1,77.12],[19.12,78.45],[13.28,79.49]]],[[[16.06,56.4],[16.03,56.35],[14.65,56.12],[14.13,55.67],[14.65,56.12],[15.77,56.03],[16.03,56.35],[16.06,56.4]]]]},"properties":{"NAME":"Denmark-Norway","SUBJECTO":"Denmark-Norway","BORDERPRECISION":1}},
{"type":"Feature","geometry":{"type":"Polygon","coordinates":[[[-1.98,55.59],[-3.32,54.89],[-4.32,53.09],[-3.52,50.62],[0.19,50.73],[1.69,52.31],[-1.98,55.59]]]},"properties":{"NAME":"England","SUBJECTO":"England","BORDERPRECISION":1}},
{"type":"Feature","geometry":{"type":"Polygon","coordinates":[[[-1.98,55.59],[-2.15,57.57],[-5.76,57.62],[-3.32,54.89],[-1.98,55.59]]]},"properties":{"NAME":"Scottland","SUBJECTO":"Scottland","BORDERPRECISION":1}},
{"type":"Feature","geometry":{"type":"Polygon","coordinates":[[[-7.49,37.21],[-6.71,41.96],[-8.81,41.89],[-9.55,38.77],[-7.49,37.21]]]},"properties":{"NAME":"Portugal","SUBJECTO":"Portugal","BORDERPRECISION":1}},
{"type":"Feature","geometry":{"type":"Polygon","coordinates":[[[140.95,-9.27],[142.61,-9.38],[144.38,-7.76],[148.59,-9.16],[147.38,-6.12],[143.45,-3.61],[140.87,-2.79],[140.95,-9.27]]]},"properties":{"NAME":"Papua New Guinea","SUBJECTO":"Papua New Guinea","BORDERPRECISION":1}},
{"type":"Feature","geometry":{"type":"Polygon","coordinates":[[[12.38,44.73],[11.17,45.07],[11.96,42.01],[13.76,41.21],[14.08,42.63],[12.38,44.73]]]},"properties":{"NAME":"Papal States","SUBJECTO":"Papal States","BORDERPRECISION":1}},
{"type":"Feature","geometry":{"type":"Polygon","coordinates":[[[48.01,-17.02],[46.65,-17.73],[45.29,-22.65],[47.19,-23.12],[48.49,-20.04],[48.01,-17.02]]]},"properties":{"NAME":"Expansionist Kingdom of Merina","SUBJECTO":"Expansionist Kingdom of Merina","BORDERPRECISION":1}},
{"type":"Feature","geometry":{"type":"Polygon","coordinates":[[[-1.17,10.85],[-0.06,13.29],[-3.02,13.66],[-3.17,10.92],[-1.17,10.85]]]},"properties":{"NAME":"Mossi States","SUBJECTO":"Mossi States","BORDERPRECISION":1}},
{"type":"Feature","geometry":{"type":"Polygon","coordinates":[[[12.37,-6.26],[13.08,-9.29],[14.33,-9.37],[14.58,-4.77],[12.37,-6.26]]]},"properties":{"NAME":"Congo","SUBJECTO":"Congo","BORDERPRECISION":1}},
{"type":"Feature","geometry":{"type":"Polygon","coordinates":[[[102.67,12.04],[103.04,10.9],[106.48,9.55],[106.85,10.58],[107.38,12.35],[107.48,13.26],[105.02,13.41],[102.67,12.04]]]},"properties":{"NAME":"Cambodia","SUBJECTO":"Cambodia","BORDERPRECISION":1}},
{"type":"Feature","geometry":{"type":"Polygon","coordinates":[[[7.4,43.76],[5.53,46.1],[5.36,49.7],[1.8,50.92],[-1.75,48.18],[-2.58,47.32],[-1.08,46.01],[-1.91,43.31],[-0.91,42.88],[3,42.77],[7.4,43.76]]]},"properties":{"NAME":"France","SUBJECTO":"France","BORDERPRECISION":1}},
{"type":"Feature","geometry":{"type":"MultiPolygon","coordinates":[[[[12.38,44.73],[13.37,45.69],[11.17,45.07],[12.38,44.73]]],[[[16.64,43.39],[16.7,43.85],[15.49,43.89],[16.64,43.39]]]]},"properties":{"NAME":"Venice","SUBJECTO":"Venice","BORDERPRECISION":1}},
{"type":"Feature","geometry":{"type":"Polygon","coordinates":[[[40.4,-11.23],[38.92,-6.34],[40.23,-3.19],[44.3,1.29],[42.79,1.32],[39.42,-1.38],[37.73,-4.58],[38.24,-9.29],[39.25,-11.14],[40.4,-11.23]]]},"properties":{"NAME":"Islamic city-states","SUBJECTO":"Islamic city-states","BORDERPRECISION":1}},
{"type":"Feature","geometry":{"type":"Polygon","coordinates":[[[80.56,5.93],[81.87,7.08],[80.66,9.3],[79.67,8.8],[80.56,5.93]]]},"properties":{"NAME":"Sinhalese kingdoms","SUBJECTO":"Sinhalese kingdoms","BORDERPRECISION":1}},
{"type":"Feature","geometry":{"type":"Polygon","coordinates":[[[96.12,3.95],[96.6,5.08],[95.46,5.57],[95.56,4.53],[96.12,3.95]]]},"properties":{"NAME":"Aceh","SUBJECTO":"Aceh","BORDERPRECISION":1}},
{"type":"Feature","geometry":{"type":"Polygon","coordinates":[[[103.31,-0.82],[101.06,2.08],[98.63,3.66],[101.14,-1.37],[103.31,-0.82]]]},"properties":{"NAME":"Malacca","SUBJECTO":"Malacca","BORDERPRECISION":1}},
{"type":"Feature","geometry":{"type":"MultiPolygon","coordinates":[[[[140.87,-2.79],[137.85,-1.61],[135.25,-3.54],[133.91,-1.01],[131.21,-1.02],[134.04,-3.95],[137.82,-5.43],[139.16,-7.73],[140.95,-9.27],[140.87,-2.79]]],[[[96.12,3.95],[98.6,1.71],[100.81,-2.34],[104.57,-6.07],[105.73,-5.83],[105.94,-3.21],[103.31,-0.82],[101.14,-1.37],[98.63,3.66],[96.6,5.08],[96.12,3.95]]],[[[109,0.2],[110.1,-3.08],[112.8,-2.97],[115.57,-3.8],[117.53,0.61],[117.07,3.51],[119.04,5.17],[116.6,6.9],[110.82,1.24],[109,0.2]]],[[[119.69,-0.02],[118.68,-2.9],[122.26,-3.21],[119.69,-0.02]]]]},"properties":{"NAME":"Malaysian Islamic states","SUBJECTO":"Malaysian Islamic states","BORDERPRECISION":1}},
{"type":"Feature","geometry":{"type":"Polygon","coordinates":[[[41.48,41.44],[45.38,42.62],[41.31,43.56],[41.12,43.02],[41.48,41.44]]]},"properties":{"NAME":"Georgia","SUBJECTO":"Georgia","BORDERPRECISION":1}},
{"type":"Feature","geometry":{"type":"Polygon","coordinates":[[[27.82,56.73],[27.58,58.23],[27.65,58.84],[27.66,58.94],[27.7,59.3],[23.42,59.12],[21.68,57.46],[21.14,54.85],[18.68,54.25],[22.23,54.13],[21.9,56.35],[27.37,55.72],[27.82,56.73]]]},"properties":{"NAME":"Teutonic Knights","SUBJECTO":"Teutonic Knights","BORDERPRECISION":1}},
{"type":"Feature","geometry":{"type":"Polygon","coordinates":[[[18.68,54.25],[17.66,54.69],[15.76,52.27],[18.93,49.62],[25.67,48.69],[26.54,45.25],[28.37,45.33],[30.89,47.45],[32.01,46.91],[32.09,46.93],[38.14,49.05],[36.86,52.09],[33.69,51.34],[30.85,51.54],[32.56,53.32],[30.78,56.07],[27.82,56.73],[27.37,55.72],[21.9,56.35],[22.23,54.13],[18.68,54.25]]]},"properties":{"NAME":"Poland-Lithuania","SUBJECTO":"Poland-Lithuania","BORDERPRECISION":1}},
{"type":"Feature","geometry":{"type":"Polygon","coordinates":[[[16.7,43.85],[23.54,45.86],[26.54,45.25],[25.67,48.69],[18.93,49.62],[14.35,45.32],[15.49,43.89],[16.7,43.85]]]},"properties":{"NAME":"Imperial Hungary","SUBJECTO":"Imperial Hungary","BORDERPRECISION":1}},
{"type":"Feature","geometry":{"type":"Polygon","coordinates":[[[-1.91,43.31],[-2.14,43.33],[-2.13,41.82],[-0.91,42.88],[-1.91,43.31]]]},"properties":{"NAME":"Navarre","SUBJECTO":"Navarre","BORDERPRECISION":1}},
{"type":"Feature","geometry":{"type":"Polygon","coordinates":[[[-7.49,37.21],[-5.66,36.01],[-1.94,36.95],[-2.13,41.82],[-2.14,43.33],[-7.64,43.72],[-8.81,41.89],[-6.71,41.96],[-7.49,37.21]]]},"properties":{"NAME":"Castille","SUBJECTO":"Castille","BORDERPRECISION":1}},
{"type":"Feature","geometry":{"type":"Polygon","coordinates":[[[-2.19,35.05],[-5.93,35.73],[-8.31,33.34],[-4.89,32.4],[-1.8,32.43],[-2.19,35.05]]]},"properties":{"NAME":"Wattasid Caliphate","SUBJECTO":"Wattasid Caliphate","BORDERPRECISION":1}},
{"type":"Feature","geometry":{"type":"Polygon","coordinates":[[[-1.8,32.43],[6.5,32.73],[6.92,36.82],[1.06,36.46],[-2.19,35.05],[-1.8,32.43]]]},"properties":{"NAME":"Zayyanid Caliphate","SUBJECTO":"Zayyanid Caliphate","BORDERPRECISION":1}},
{"type":"Feature","geometry":{"type":"Polygon","coordinates":[[[6.5,32.73],[12.53,30.8],[12.12,32.88],[10.13,37.1],[6.92,36.82],[6.5,32.73]]]},"properties":{"NAME":"Hafsid Caliphate","SUBJECTO":"Hafsid Caliphate","BORDERPRECISION":1}},
{"type":"Feature","geometry":{"type":"MultiPolygon","coordinates":[[[[12.53,30.8],[17,28.75],[21.68,28.08],[25.44,28.01],[27.43,27.2],[29.34,24.03],[32.51,23.73],[35.19,24.4],[33.93,26.56],[34.89,28.36],[39.1,22.4],[40.82,19.68],[41.81,21.71],[37.42,27.83],[36.52,31.16],[38.04,34.6],[38.61,38.37],[35.89,36.77],[35.87,34.42],[33.56,30.97],[31,31.47],[29.25,30.75],[23.15,32.14],[20.37,32.3],[18.92,30.2],[15.84,31.29],[15.01,32.36],[12.12,32.88],[12.53,30.8]]],[[[38.53,18.16],[37.17,20.76],[36.45,18.07],[38.53,18.16]]]]},"properties":{"NAME":"Mamluke Sultanate","SUBJECTO":"Mamluke Sultanate","BORDERPRECISION":1}},
{"type":"Feature","geometry":{"type":"Polygon","coordinates":[[[43.5,9.73],[42.81,11.78],[41.51,10.76],[42.46,9.51],[43.5,9.73]]]},"properties":{"NAME":"Adal","SUBJECTO":"Adal","BORDERPRECISION":1}},
{"type":"Feature","geometry":{"type":"Polygon","coordinates":[[[41.51,10.76],[41.14,13.86],[38.85,15.63],[36.42,14.89],[35.61,12.23],[35.98,7.44],[38.32,6.5],[42.17,7.15],[42.46,9.51],[41.51,10.76]]]},"properties":{"NAME":"Ethiopia","SUBJECTO":"Ethiopia","BORDERPRECISION":1}},
{"type":"Feature","geometry":{"type":"Polygon","coordinates":[[[33.69,16.44],[33.03,18.28],[31.63,17.39],[32.15,16.29],[33.69,16.44]]]},"properties":{"NAME":"Alwa","SUBJECTO":"Alwa","BORDERPRECISION":1}},
{"type":"Feature","geometry":{"type":"Polygon","coordinates":[[[32.15,16.29],[31.78,12.38],[33.62,10.98],[34.58,12.75],[33.69,16.44],[32.15,16.29]]]},"properties":{"NAME":"Funj","SUBJECTO":"Funj","BORDERPRECISION":1}},
{"type":"Feature","geometry":{"type":"Polygon","coordinates":[[[28.02,-21.23],[28.64,-24.91],[31.37,-25.28],[33.06,-23.08],[33.36,-20.84],[33.4,-20.76],[33.4,-20.58],[33.4,-20.54],[33.47,-20.02],[33.66,-18.65],[32.96,-16.07],[30.08,-16.36],[28.17,-19.68],[28.14,-19.94],[28.02,-21.23]]]},"properties":{"NAME":"Mwenemutapa","SUBJECTO":"Mwenemutapa","BORDERPRECISION":1}},
{"type":"Feature","geometry":{"type":"Polygon","coordinates":[[[16.2,-9.12],[15.24,-9.88],[16.2,-10.19],[16.2,-9.12]]]},"properties":{"NAME":"Ndongo","SUBJECTO":"Ndongo","BORDERPRECISION":1}},
{"type":"Feature","geometry":{"type":"Polygon","coordinates":[[[3.95,6.58],[5.45,5.48],[5.33,5.25],[5.42,4.96],[6.09,4.33],[6.76,5.83],[7.37,7.91],[5.34,8.72],[4.82,7.93],[3.95,6.58]]]},"properties":{"NAME":"Benin","SUBJECTO":"Benin","BORDERPRECISION":1}},
{"type":"Feature","geometry":{"type":"Polygon","coordinates":[[[5.34,8.72],[4.32,9.8],[2.33,9.58],[2.63,7.81],[4.82,7.93],[5.34,8.72]]]},"properties":{"NAME":"Oyo","SUBJECTO":"Oyo","BORDERPRECISION":1}},
{"type":"Feature","geometry":{"type":"Polygon","coordinates":[[[-3.94,5.27],[-2.03,4.7],[0.54,5.72],[-0.4,6.12],[-3.94,5.27]]]},"properties":{"NAME":"Akan","SUBJECTO":"Akan","BORDERPRECISION":1}},
{"type":"Feature","geometry":{"type":"Polygon","coordinates":[[[-9.39,12.23],[-8.73,11.64],[-5.09,12.85],[-2.53,15.04],[-0.84,15.18],[1.93,12.33],[3.39,13.12],[3.41,14.1],[-0.4,18.94],[-3.64,19.02],[-5.9,17.79],[-8.21,15.18],[-9.39,12.23]]]},"properties":{"NAME":"Songhai","SUBJECTO":"Songhai","BORDERPRECISION":1}},
{"type":"Feature","geometry":{"type":"Polygon","coordinates":[[[-5.9,17.79],[-9.09,18.65],[-16.06,18.67],[-16.7,14.08],[-16.64,13.84],[-16.47,13.72],[-14.25,13.49],[-10.95,11.43],[-9.39,12.23],[-8.21,15.18],[-5.9,17.79]]]},"properties":{"NAME":"Mali","SUBJECTO":"Mali","BORDERPRECISION":1}},
{"type":"Feature","geometry":{"type":"Polygon","coordinates":[[[3.56,12.18],[4.67,11.51],[9.85,10.91],[10.73,11.29],[10.07,14.22],[8.3,14.52],[3.78,13.66],[3.56,12.18]]]},"properties":{"NAME":"Hausa States","SUBJECTO":"Hausa States","BORDERPRECISION":1}},
{"type":"Feature","geometry":{"type":"Polygon","coordinates":[[[10.73,11.29],[12.35,11.2],[14.71,12.51],[15.01,15.04],[13.31,20.97],[11.99,20.34],[11.77,16.21],[10.07,14.22],[10.73,11.29]]]},"properties":{"NAME":"Bornu-Kanem","SUBJECTO":"Bornu-Kanem","BORDERPRECISION":1}},
{"type":"Feature","geometry":{"type":"Polygon","coordinates":[[[46.88,13.47],[46.66,15.42],[45.24,17.69],[42.76,16.65],[43.84,12.66],[46.88,13.47]]]},"properties":{"NAME":"Yemen","SUBJECTO":"Yemen","BORDERPRECISION":1}},
{"type":"Feature","geometry":{"type":"Polygon","coordinates":[[[46.88,13.47],[55.19,17.15],[57.84,19.03],[59.84,22.28],[58.18,21.85],[56.95,20.64],[53.96,19.73],[50.51,17.15],[46.66,15.42],[46.88,13.47]]]},"properties":{"NAME":"Hadramaut","SUBJECTO":"Hadramaut","BORDERPRECISION":1}},
{"type":"Feature","geometry":{"type":"Polygon","coordinates":[[[59.84,22.28],[57.15,23.98],[56.02,25.77],[54.35,24.15],[50.97,24.44],[53.99,23.11],[56.41,23.45],[58.18,21.85],[59.84,22.28]]]},"properties":{"NAME":"Muscat","SUBJECTO":"Muscat","BORDERPRECISION":1}},
{"type":"Feature","geometry":{"type":"Polygon","coordinates":[[[40.82,19.68],[42.76,16.65],[45.24,17.69],[46.66,15.42],[50.51,17.15],[53.96,19.73],[56.95,20.64],[58.18,21.85],[56.41,23.45],[53.99,23.11],[50.97,24.44],[47.84,29.5],[44.08,30.34],[40.03,34.39],[38.04,34.6],[36.52,31.16],[37.42,27.83],[41.81,21.71],[40.82,19.68]]]},"properties":{"NAME":"Arabs","SUBJECTO":"Arabs","BORDERPRECISION":1}},
{"type":"Feature","geometry":{"type":"Polygon","coordinates":[[[41.48,41.44],[38.61,38.37],[38.04,34.6],[40.03,34.39],[44.08,30.34],[47.84,29.5],[50.13,30.07],[51.35,28.04],[54.65,26.39],[60.48,25.3],[59.98,26.51],[57.19,30.76],[53.98,36.78],[51.8,36.43],[48.84,37.51],[49.81,40.58],[47.49,43.58],[45.38,42.62],[41.48,41.44]]]},"properties":{"NAME":"Emirate of the White Sheep Turks","SUBJECTO":"Emirate of the White Sheep Turks","BORDERPRECISION":1}},
{"type":"Feature","geometry":{"type":"Polygon","coordinates":[[[60.48,25.3],[66.62,25.32],[69.11,22.9],[69.01,24.63],[70.13,28.1],[72.82,31.06],[70.34,31.38],[69.57,29.96],[65.52,26.93],[59.98,26.51],[60.48,25.3]]]},"properties":{"NAME":"Islamic states","SUBJECTO":"Islamic states","BORDERPRECISION":1}},
{"type":"Feature","geometry":{"type":"Polygon","coordinates":[[[72.82,31.06],[74.59,30.69],[74.88,27.96],[76.43,27.52],[78.28,24.3],[82.55,23.24],[83.14,24.79],[85.27,24.2],[86.23,27],[80.05,29.98],[77.53,32.09],[77.98,34.87],[72.03,35.61],[70.34,31.38],[72.82,31.06]]]},"properties":{"NAME":"Sultanate of Delhi","SUBJECTO":"Sultanate of Delhi","BORDERPRECISION":1}},
{"type":"Feature","geometry":{"type":"Polygon","coordinates":[[[82.55,23.24],[84.3,20.75],[85.38,19.61],[87.64,21.56],[91.41,22.72],[91.72,24.09],[91.55,26.29],[86.23,27],[85.27,24.2],[83.14,24.79],[82.55,23.24]]]},"properties":{"NAME":"Bengal","SUBJECTO":"Bengal","BORDERPRECISION":1}},
{"type":"Feature","geometry":{"type":"Polygon","coordinates":[[[86.23,27],[91.55,26.29],[97.34,28.18],[98.64,27.48],[100.68,28.69],[102.41,33.72],[101.69,36.31],[95.52,37.1],[91.69,36.36],[89.92,35.19],[82.69,34.74],[77.98,34.87],[77.53,32.09],[80.05,29.98],[86.23,27]]]},"properties":{"NAME":"Tibet","SUBJECTO":"Tibet","BORDERPRECISION":1}},
{"type":"Feature","geometry":{"type":"Polygon","coordinates":[[[125.3,39.36],[124.74,38.28],[126.21,37.75],[126.39,37.61],[126.44,37.47],[126.66,37.22],[126.73,37.14],[126.77,37.1],[126.79,37.07],[126.79,37.01],[126.8,36.95],[126.8,36.94],[126.69,36.84],[126.39,36.96],[126.36,36.95],[126.31,36.93],[126.25,36.91],[126.19,36.86],[125.96,36.72],[126.36,36.63],[126.44,36.13],[126.63,35.93],[126.23,35.16],[126.41,34.27],[126.5,34.33],[126.62,34.41],[126.67,34.41],[126.82,34.43],[126.83,34.44],[126.99,34.55],[127.23,34.71],[127.36,34.8],[129.06,35.17],[129.25,37.01],[128.45,38.26],[128.27,38.42],[128.14,38.53],[127.96,38.69],[127.4,39.08],[127.28,39.22],[129.64,41.66],[125.3,39.36]]]},"properties":{"NAME":"Korea","SUBJECTO":"Korea","BORDERPRECISION":1}},
{"type":"Feature","geometry":{"type":"Polygon","coordinates":[[[69.11,22.9],[70.38,22.86],[73.04,24.2],[73.71,22.95],[76.93,23.9],[78.28,24.3],[76.43,27.52],[74.88,27.96],[74.59,30.69],[72.82,31.06],[70.13,28.1],[69.01,24.63],[69.11,22.9]]]},"properties":{"NAME":"Rajastan","SUBJECTO":"Rajastan","BORDERPRECISION":1}},
{"type":"Feature","geometry":{"type":"Polygon","coordinates":[[[84.3,20.75],[79.33,17.23],[82.32,17],[85.38,19.61],[84.3,20.75]]]},"properties":{"NAME":"Orissa","SUBJECTO":"Orissa","BORDERPRECISION":1}},
{"type":"Feature","geometry":{"type":"Polygon","coordinates":[[[70.38,22.86],[69.13,21.97],[72.85,19.24],[74.27,21.91],[73.71,22.95],[73.04,24.2],[70.38,22.86]]]},"properties":{"NAME":"Islamic states","SUBJECTO":"Islamic states","BORDERPRECISION":1}},
{"type":"Feature","geometry":{"type":"Polygon","coordinates":[[[77.92,16.25],[77.49,16.31],[73.49,16.29],[76.7,8.71],[77.9,8.26],[79.83,10.36],[80.46,15.77],[79.43,16.02],[77.92,16.25]]]},"properties":{"NAME":"Vijayanagara","SUBJECTO":"Vijayanagara","BORDERPRECISION":1}},
{"type":"Feature","geometry":{"type":"Polygon","coordinates":[[[91.41,22.72],[92.83,20.42],[91.72,24.09],[91.41,22.72]]]},"properties":{"NAME":"Arakan","SUBJECTO":"Arakan","BORDERPRECISION":1}},
{"type":"Feature","geometry":{"type":"Polygon","coordinates":[[[106.85,10.58],[109.05,11.93],[107.38,12.35],[106.85,10.58]]]},"properties":{"NAME":"Champa","SUBJECTO":"Champa","BORDERPRECISION":1}},
{"type":"Feature","geometry":{"type":"Polygon","coordinates":[[[105.57,17.88],[102.98,20.97],[101.66,19.66],[101.65,18],[105.57,17.88]]]},"properties":{"NAME":"Laos","SUBJECTO":"Laos","BORDERPRECISION":1}},
{"type":"Feature","geometry":{"type":"Polygon","coordinates":[[[107.38,12.35],[109.05,11.93],[108.24,16.08],[105.53,18.84],[107.47,20.98],[105.41,21.9],[102.98,20.97],[105.57,17.88],[107.11,16.17],[107.48,13.26],[107.38,12.35]]]},"properties":{"NAME":"Đại Việt","SUBJECTO":"Đại Việt","BORDERPRECISION":1}},
{"type":"Feature","geometry":{"type":"Polygon","coordinates":[[[98.64,27.48],[98.56,24.71],[99.84,20.48],[101.66,19.66],[102.98,20.97],[105.41,21.9],[107.47,20.98],[110.08,20.87],[113.72,22.48],[116.34,22.91],[118.81,24.85],[121.36,28.39],[121.61,31.83],[119.02,34.69],[120.14,36.19],[117.59,38.28],[121.01,40.85],[125.3,39.36],[129.64,41.66],[131.87,43.29],[119.6,42.03],[102.93,39.02],[95.59,38.94],[95.52,37.1],[101.69,36.31],[102.41,33.72],[100.68,28.69],[98.64,27.48]]]},"properties":{"NAME":"Ming Chinese Empire","SUBJECTO":"Ming Chinese Empire","BORDERPRECISION":1}},
{"type":"Feature","geometry":{"type":"Polygon","coordinates":[[[91.72,24.09],[92.83,20.42],[94.46,17.26],[98.67,18.4],[99.84,20.48],[98.56,24.71],[98.64,27.48],[97.34,28.18],[91.55,26.29],[91.72,24.09]]]},"properties":{"NAME":"Burmese kingdoms","SUBJECTO":"Burmese kingdoms","BORDERPRECISION":1}},
{"type":"Feature","geometry":{"type":"Polygon","coordinates":[[[94.46,17.26],[95.33,15.68],[97.57,16.45],[98.67,18.4],[94.46,17.26]]]},"properties":{"NAME":"Pegu","SUBJECTO":"Pegu","BORDERPRECISION":1}},
{"type":"Feature","geometry":{"type":"Polygon","coordinates":[[[-98.15,16.17],[-97.08,17.64],[-95.17,16.97],[-93.78,18.35],[-96.01,18.93],[-97.88,22.33],[-99.95,22.9],[-99.95,19.84],[-100.9,18.79],[-105.51,20.1],[-103.49,18.35],[-98.15,16.17]]]},"properties":{"NAME":"Aztec Empire","SUBJECTO":"Aztec Empire","BORDERPRECISION":1}},
{"type":"Feature","geometry":{"type":"Polygon","coordinates":[[[-98.15,16.17],[-95.13,16.3],[-95.17,16.97],[-97.08,17.64],[-98.15,16.17]]]},"properties":{"NAME":"Mixtec Empire","SUBJECTO":"Mixtec Empire","BORDERPRECISION":1}},
{"type":"Feature","geometry":{"type":"Polygon","coordinates":[[[-90,19.38],[-89.92,16.97],[-88.74,16.27],[-87.2,21.53],[-90,21.16],[-90,19.38]]]},"properties":{"NAME":"Maya city-states","SUBJECTO":"Maya city-states","BORDERPRECISION":1}},
{"type":"Feature","geometry":{"type":"Polygon","coordinates":[[[-71.52,-32.18],[-73.14,-37.16],[-71.03,-37.21],[-69.37,-34.44],[-68.44,-30.94],[-68.41,-30.48],[-68.26,-28.54],[-67.15,-25.22],[-65.49,-19.14],[-66.05,-16.55],[-68.63,-13.05],[-74.35,-12.13],[-77.89,-6.98],[-77.92,-4.19],[-78.77,-3.64],[-78.41,-0.32],[-79.78,0.86],[-80.97,-1.03],[-80.14,-3.41],[-81.42,-4.68],[-79.06,-8.22],[-76.24,-13.5],[-74.05,-16.04],[-71.61,-17.22],[-70.21,-19.07],[-70.4,-25.25],[-71.68,-30.6],[-71.52,-32.18]]]},"properties":{"NAME":"Inca Empire","SUBJECTO":"Inca Empire","BORDERPRECISION":1}},
{"type":"Feature","geometry":{"type":"Polygon","coordinates":[[[9.45,54.19],[9.44,54.25],[8.88,54.23],[1.8,50.92],[5.36,49.7],[5.53,46.1],[7.4,43.76],[9.91,44.11],[11.96,42.01],[11.17,45.07],[13.37,45.69],[13.67,45.71],[14.35,45.32],[18.93,49.62],[15.76,52.27],[17.66,54.69],[14.47,53.88],[10.14,54.34],[9.88,54.25],[9.74,54.28],[9.67,54.19],[9.45,54.19]]]},"properties":{"NAME":"Holy Roman Empire","SUBJECTO":"Holy Roman Empire","BORDERPRECISION":1}},
{"type":"Feature","geometry":{"type":"Polygon","coordinates":[[[-14.51,28.05],[-13.88,28.2],[-14.15,28.39],[-14.51,28.05]]]},"properties":{"NAME":"Guanches","SUBJECTO":"Guanches","BORDERPRECISION":1}},
{"type":"Feature","geometry":{"type":"Polygon","coordinates":[[[-133.1,54.02],[-132.57,53.28],[-131.89,53.89],[-133.1,54.02]]]},"properties":{"NAME":"Bella","SUBJECTO":"Bella","BORDERPRECISION":1}},
{"type":"Feature","geometry":{"type":"Polygon","coordinates":[[[-66.4,45.11],[-65.71,43.56],[-61.03,45.38],[-64.53,46.27],[-66.97,48.95],[-66.4,45.11]]]},"properties":{"NAME":"Mi'kma'ki","SUBJECTO":"Mi'kma'ki","BORDERPRECISION":1}},
{"type":"Feature","geometry":{"type":"Polygon","coordinates":[[[-103,33.15],[-108.93,32.24],[-108.69,31],[-112.72,30.07],[-109.26,26.09],[-101.23,28.3],[-101.08,31.33],[-101.07,31.58],[-102.33,32.33],[-102.98,32.92],[-103,33.15]]]},"properties":{"NAME":"Apache","SUBJECTO":"Apache","BORDERPRECISION":1}},
{"type":"Feature","geometry":{"type":"Polygon","coordinates":[[[-83.41,29.59],[-81.1,25.13],[-80.05,26.55],[-81.46,30.43],[-82.52,29.98],[-83.41,29.59]]]},"properties":{"NAME":"Calusa","SUBJECTO":"Calusa","BORDERPRECISION":1}},
{"type":"Feature","geometry":{"type":"Polygon","coordinates":[[[-108.93,32.24],[-109.73,36.41],[-115.77,35.52],[-114.34,31.59],[-112.72,30.07],[-108.69,31],[-108.93,32.24]]]},"properties":{"NAME":"Hopi","SUBJECTO":"Hopi","BORDERPRECISION":1}},
{"type":"Feature","geometry":{"type":"Polygon","coordinates":[[[-103,33.15],[-103.38,37.34],[-109.73,36.41],[-108.93,32.24],[-103,33.15]]]},"properties":{"NAME":"Navajo","SUBJECTO":"Navajo","BORDERPRECISION":1}},
{"type":"Feature","geometry":{"type":"Polygon","coordinates":[[[-81.46,30.43],[-80.58,32.5],[-77.46,34.5],[-79.23,39.36],[-80.26,38.77],[-86,35.23],[-82.52,29.98],[-81.46,30.43]]]},"properties":{"NAME":"Cherookee","SUBJECTO":"Cherookee","BORDERPRECISION":1}},
{"type":"Feature","geometry":{"type":"Polygon","coordinates":[[[-120.18,41.01],[-120.46,43.57],[-120.46,43.62],[-121,48.53],[-123.18,47.49],[-122.83,48.02],[-124.73,48.33],[-124.31,47.46],[-123.91,47.04],[-124.13,46.67],[-123.79,46.3],[-124.07,46.02],[-124.03,45.94],[-123.99,45.76],[-124.33,44.07],[-124.14,43.67],[-124.63,43.01],[-124.25,41.93],[-124.36,40.33],[-124.33,40.3],[-120.71,40.92],[-120.18,41.01]]]},"properties":{"NAME":"Coqs","SUBJECTO":"Coqs","BORDERPRECISION":1}},
{"type":"Feature","geometry":{"type":"Polygon","coordinates":[[[-104.55,45.07],[-104.54,47.13],[-106.28,47.92],[-110.16,46.79],[-110.28,44.75],[-105.98,43.31],[-104.55,45.07]]]},"properties":{"NAME":"Crow","SUBJECTO":"Crow","BORDERPRECISION":1}},
{"type":"Feature","geometry":{"type":"Polygon","coordinates":[[[-105.98,43.31],[-104.16,41.97],[-102.23,44.17],[-104.55,45.07],[-105.98,43.31]]]},"properties":{"NAME":"Cheyenne","SUBJECTO":"Cheyenne","BORDERPRECISION":1}},
{"type":"Feature","geometry":{"type":"Polygon","coordinates":[[[-117.85,46.35],[-117.39,44.79],[-114.21,45.53],[-116.63,46.87],[-117.85,46.35]]]},"properties":{"NAME":"Nez Perce","SUBJECTO":"Nez Perce","BORDERPRECISION":1}},
{"type":"Feature","geometry":{"type":"Polygon","coordinates":[[[-82.52,29.98],[-86,35.23],[-95.41,35.3],[-95.25,33.73],[-94.86,29.78],[-90,29.11],[-89.23,30.41],[-86.39,30.47],[-83.41,29.59],[-82.52,29.98]]]},"properties":{"NAME":"Natchez","SUBJECTO":"Natchez","BORDERPRECISION":1}},
{"type":"Feature","geometry":{"type":"Polygon","coordinates":[[[-77.46,34.5],[-75.73,35.88],[-75.67,37.9],[-73.25,41.18],[-76.94,43.24],[-78.55,43.35],[-79.84,42.83],[-82.47,41.41],[-80.26,38.77],[-79.23,39.36],[-77.46,34.5]]]},"properties":{"NAME":"Delaware","SUBJECTO":"Delaware","BORDERPRECISION":1}},
{"type":"Feature","geometry":{"type":"Polygon","coordinates":[[[-101.23,28.3],[-97.75,28.69],[-95.38,28.96],[-95.06,29.68],[-94.86,29.78],[-95.25,33.73],[-96.51,33.63],[-99.44,33.41],[-102.57,33.18],[-103,33.15],[-102.98,32.92],[-102.33,32.33],[-101.07,31.58],[-101.08,31.33],[-101.23,28.3]]]},"properties":{"NAME":"Comanche","SUBJECTO":"Comanche","BORDERPRECISION":1}},
{"type":"Feature","geometry":{"type":"Polygon","coordinates":[[[-73.25,41.18],[-70.3,41.76],[-70.22,43.8],[-66.83,45.2],[-70.71,45.7],[-76.46,44.25],[-76.94,43.24],[-73.25,41.18]]]},"properties":{"NAME":"Iroquois","SUBJECTO":"Iroquois","BORDERPRECISION":1}},
{"type":"Feature","geometry":{"type":"Polygon","coordinates":[[[-115.77,35.52],[-118.84,38.88],[-120.71,40.92],[-124.33,40.3],[-123.82,39.61],[-123.74,39.08],[-120.53,34.51],[-117.5,33.33],[-115.6,29.69],[-114.34,31.59],[-115.77,35.52]]]},"properties":{"NAME":"Pomo","SUBJECTO":"Pomo","BORDERPRECISION":1}},
{"type":"Feature","geometry":{"type":"Polygon","coordinates":[[[-144.17,63.33],[-150.14,61.24],[-144.41,60.09],[-139.31,59.71],[-139.79,59.52],[-136.94,58.94],[-135.33,58.58],[-135.51,58.97],[-135.14,59.17],[-135.05,58.91],[-133.47,57.84],[-133.34,57.38],[-133.4,57.22],[-132.1,56.35],[-132.28,56.13],[-132.26,55.94],[-132.26,55.85],[-130.87,55.73],[-128.7,60.74],[-138.75,62.42],[-144.17,63.33]]]},"properties":{"NAME":"Tlinoit","SUBJECTO":"Tlinoit","BORDERPRECISION":1}},
{"type":"Feature","geometry":{"type":"Polygon","coordinates":[[[-66.97,48.95],[-69.22,48.68],[-81.17,50.03],[-81.27,49.74],[-81.92,47.77],[-70.71,45.7],[-66.83,45.2],[-66.4,45.11],[-66.97,48.95]]]},"properties":{"NAME":"Algonquin","SUBJECTO":"Algonquin","BORDERPRECISION":1}},
{"type":"Feature","geometry":{"type":"Polygon","coordinates":[[[-78.55,43.35],[-77.28,43.89],[-76.91,44.05],[-76.46,44.25],[-70.71,45.7],[-81.92,47.77],[-81.27,49.74],[-83.76,49.02],[-84.61,46.9],[-84.79,46.47],[-84.98,45.98],[-85.25,45.31],[-82.52,41.94],[-80.47,42.57],[-80.36,42.62],[-79.84,42.83],[-78.55,43.35]]]},"properties":{"NAME":"Huron","SUBJECTO":"Huron","BORDERPRECISION":1}},
{"type":"Feature","geometry":{"type":"Polygon","coordinates":[[[-155.93,20.28],[-156.03,19.11],[-154.95,19.48],[-155.93,20.28]]]},"properties":{"NAME":"Polynesians","SUBJECTO":"Polynesians","BORDERPRECISION":1}},
{"type":"Feature","geometry":{"type":"Polygon","coordinates":[[[-53.11,48.52],[-57.36,50.6],[-59.16,47.67],[-53.11,48.52]]]},"properties":{"NAME":"Beothuk","SUBJECTO":"Beothuk","BORDERPRECISION":1}},
{"type":"Feature","geometry":{"type":"Polygon","coordinates":[[[-64.88,50.33],[-60.14,50.41],[-55.66,52.19],[-55.88,53.35],[-61.93,56.28],[-62.28,55.59],[-62.74,54.65],[-63.2,53.73],[-64.88,50.33]]]},"properties":{"NAME":"Innu","SUBJECTO":"Innu","BORDERPRECISION":1}},
{"type":"Feature","geometry":{"type":"Polygon","coordinates":[[[-77.25,-2.1],[-78.56,-2.13],[-78.39,-2.91],[-77.25,-2.76],[-77.25,-2.1]]]},"properties":{"NAME":"Shuar","SUBJECTO":"Shuar","BORDERPRECISION":1}},
{"type":"Feature","geometry":{"type":"Polygon","coordinates":[[[142.34,-10.92],[141.71,-15.23],[140.8,-17.56],[139.25,-17.43],[135.39,-14.9],[136.66,-12.62],[133.56,-11.95],[130.46,-12.76],[129.2,-14.99],[126.85,-13.78],[122.74,-16.58],[120.87,-19.68],[116.42,-20.84],[113.63,-22.57],[113.43,-26.57],[115.75,-32.21],[115.05,-34.42],[118.21,-35.09],[119.77,-34.12],[123.62,-33.92],[126.06,-32.43],[131.28,-31.63],[133.84,-32.34],[135.53,-35.05],[137.46,-33.31],[139.37,-35.61],[140.01,-37.64],[143.36,-38.97],[149.5,-37.93],[151.36,-33.52],[152.97,-31.42],[153.49,-28.84],[153.07,-26.23],[150.75,-22.81],[146.32,-19.08],[145.18,-15.05],[143.74,-14.47],[142.34,-10.92]]]},"properties":{"NAME":"Australian aboriginal hunter-gatherers","SUBJECTO":"Australian aboriginal hunter-gatherers","BORDERPRECISION":1}},
{"type":"Feature","geometry":{"type":"Polygon","coordinates":[[[146.71,-43.72],[148.27,-41.09],[144.78,-40.84],[146.71,-43.72]]]},"properties":{"NAME":"Tasmanian hunter-gatherers","SUBJECTO":"Tasmanian hunter-gatherers","BORDERPRECISION":1}},
{"type":"Feature","geometry":{"type":"Polygon","coordinates":[[[-69.22,48.68],[-64.88,50.33],[-63.2,53.73],[-62.74,54.65],[-71.03,55.2],[-74.2,52.93],[-78.57,52.49],[-78.7,51.57],[-79.5,51.14],[-79.34,50.84],[-81.75,52.17],[-81.71,52.33],[-82.34,52.98],[-82.16,53.8],[-82.4,54.27],[-82.34,54.65],[-90.2,57.07],[-90.44,57.14],[-92.71,56.83],[-102.14,57.21],[-111.28,58.55],[-122.49,54.24],[-114.47,52],[-105.19,51.45],[-98.92,50.23],[-95.57,50],[-87.79,49.93],[-83.76,49.02],[-81.27,49.74],[-81.17,50.03],[-69.22,48.68]]]},"properties":{"NAME":"Subarctic forest hunter-gatherers","SUBJECTO":"Subarctic forest hunter-gatherers","BORDERPRECISION":1}},
{"type":"Feature","geometry":{"type":"Polygon","coordinates":[[[-130.87,55.73],[-130.7,55.47],[-130.69,54.97],[-129.84,54.98],[-130.18,54.17],[-128.81,53.76],[-128.43,52.94],[-128.08,52.94],[-127.87,52.41],[-125.76,53.13],[-122.49,54.24],[-111.28,58.55],[-118.2,62.71],[-124.94,64.83],[-132.43,62.5],[-138.75,62.42],[-128.7,60.74],[-130.87,55.73]]]},"properties":{"NAME":"Athabaskan","SUBJECTO":"Athabaskan","BORDERPRECISION":1}},
{"type":"Feature","geometry":{"type":"Polygon","coordinates":[[[-68.41,-30.48],[-67.48,-31.66],[-63.56,-30.04],[-57.35,-29.68],[-52.14,-31.74],[-50.61,-30.3],[-51.12,-31.47],[-49.94,-29.63],[-48.8,-28.48],[-49.84,-26.8],[-48.47,-23.75],[-53.12,-14.28],[-60.27,-13.81],[-64.19,-14.69],[-65.49,-19.14],[-67.15,-25.22],[-68.26,-28.54],[-68.41,-30.48]]]},"properties":{"NAME":"Savanna hunter-gatherers","SUBJECTO":"Savanna hunter-gatherers","BORDERPRECISION":1}},
{"type":"Feature","geometry":{"type":"MultiPolygon","coordinates":[[[[-65.26,-54.82],[-68.71,-53.23],[-68.31,-52.94],[-70.33,-53.47],[-69.44,-53.41],[-70.04,-53.99],[-69.06,-54.6],[-70.5,-54.92],[-65.26,-54.82]]],[[[-72.84,-52.65],[-73.24,-52.57],[-73.08,-53.03],[-72.84,-52.65]]],[[[-73.46,-42.26],[-74.17,-42.35],[-74.24,-43.37],[-73.7,-43.39],[-73.83,-42.56],[-73.46,-42.26]]],[[[-72.59,-41.62],[-72.61,-42],[-72.47,-42.03],[-72.53,-43.06],[-72.76,-44.37],[-72.58,-44.44],[-73.14,-45.34],[-73.05,-45.38],[-73.97,-46.71],[-74,-46.49],[-74.43,-46.53],[-74.04,-46.09],[-75.44,-46.63],[-75.02,-46.55],[-74.86,-46.82],[-73.98,-47.03],[-74.38,-47.42],[-74.3,-47.76],[-73.36,-47.97],[-73.96,-49.24],[-73.93,-49.99],[-73.93,-50.51],[-73.53,-50.43],[-74.21,-51.02],[-73.68,-51.23],[-73.78,-51.61],[-73.26,-51.71],[-73.11,-52.1],[-72.45,-52.16],[-72.21,-52.57],[-71.68,-52.64],[-72.75,-53.14],[-71.15,-52.96],[-71.44,-53.88],[-68.46,-52.42],[-69.08,-51.5],[-69.11,-51.35],[-71.17,-51.56],[-72.19,-45.99],[-70.58,-40.58],[-72.07,-40.55],[-72.73,-41.55],[-72.59,-41.62]]]]},"properties":{"NAME":"Patagonian shellfish and marine mammal hunters","SUBJECTO":"Patagonian shellfish and marine mammal hunters","BORDERPRECISION":1}},
{"type":"Feature","geometry":{"type":"Polygon","coordinates":[[[-71.52,-32.18],[-73.44,-37.9],[-73.67,-41.48],[-73.46,-41.79],[-72.73,-41.55],[-72.07,-40.55],[-69.44,-37.16],[-67.65,-33.58],[-67.48,-31.66],[-68.41,-30.48],[-68.44,-30.94],[-69.37,-34.44],[-71.03,-37.21],[-73.14,-37.16],[-71.52,-32.18]]]},"properties":{"NAME":"Andean hunter-gatherers","SUBJECTO":"Andean hunter-gatherers","BORDERPRECISION":1}},
{"type":"Feature","geometry":{"type":"Polygon","coordinates":[[[-64.19,-14.69],[-60.27,-13.81],[-53.12,-14.28],[-46.28,-3.55],[-49.07,-4.74],[-56.33,-4.33],[-58.44,-2.29],[-57.97,-0.59],[-55.86,1.7],[-58.56,3.98],[-62.66,4.15],[-66.41,3.04],[-70.16,-5.74],[-69.05,-8.24],[-64.19,-14.69]]]},"properties":{"NAME":"Amazon hunter-gatherers","SUBJECTO":"Amazon hunter-gatherers","BORDERPRECISION":1}},
{"type":"Feature","geometry":{"type":"Polygon","coordinates":[[[-61.12,9.17],[-62.3,9.72],[-62.93,10.37],[-62.2,10.62],[-64.88,10.14],[-68.3,10.73],[-69.74,11.66],[-69.78,11.79],[-69.79,11.87],[-69.87,12.01],[-70.2,11.75],[-69.87,11.76],[-69.79,11.69],[-71.46,10.88],[-71.5,10.65],[-71.38,10.41],[-71.09,9.92],[-70.68,8.56],[-65.97,8.18],[-63.07,8.33],[-61.12,9.17]]]},"properties":{"NAME":"Caribbean hunter-gatherers","SUBJECTO":"Caribbean hunter-gatherers","BORDERPRECISION":1}},
{"type":"Feature","geometry":{"type":"Polygon","coordinates":[[[-52.14,-31.74],[-57.35,-29.68],[-63.56,-30.04],[-67.48,-31.66],[-67.65,-33.58],[-69.44,-37.16],[-72.07,-40.55],[-70.58,-40.58],[-72.19,-45.99],[-71.17,-51.56],[-69.11,-51.35],[-65.78,-47.71],[-67.47,-46.27],[-65.66,-44.94],[-65.63,-44.72],[-64.7,-43.2],[-65.09,-42.78],[-64.17,-42.65],[-64,-42.85],[-63.62,-42.57],[-64.12,-42.38],[-64.99,-42.19],[-64.92,-41.73],[-65.13,-41.24],[-62.26,-40.8],[-62.47,-40.37],[-62.11,-39.69],[-62.35,-39.33],[-57.81,-38.39],[-56.7,-36.94],[-57.37,-36.15],[-57.24,-35.58],[-58.52,-34.59],[-54.07,-34.65],[-52.14,-31.74]]]},"properties":{"NAME":"Pampas cultures","SUBJECTO":"Pampas cultures","BORDERPRECISION":1}},
{"type":"Feature","geometry":{"type":"Polygon","coordinates":[[[-120.71,40.92],[-118.84,38.88],[-109.05,38.88],[-111.67,41.94],[-120.46,43.57],[-120.18,41.01],[-120.71,40.92]]]},"properties":{"NAME":"Desert hunter-gatherers","SUBJECTO":"Desert hunter-gatherers","BORDERPRECISION":1}},
{"type":"Feature","geometry":{"type":"MultiPolygon","coordinates":[[[[-126.52,49.82],[-126.56,49.57],[-125.89,49.38],[-125.78,49.09],[-125,49.17],[-125.1,48.8],[-123.59,48.63],[-125.72,50.41],[-128.34,50.67],[-126.52,49.82]]],[[[-132.17,54.85],[-132.69,55.65],[-132.62,55.75],[-133.27,55.83],[-133.02,55.37],[-132.17,54.85]]],[[[-120.46,43.62],[-120.48,48.96],[-125.76,53.13],[-127.87,52.41],[-127.43,52.46],[-127.04,52.46],[-127.46,51.77],[-127.35,51.64],[-127.46,51.02],[-126.23,50.93],[-126.09,50.71],[-124.94,50.6],[-124.47,49.81],[-123.92,49.89],[-123.7,49.53],[-123.21,49.62],[-122.98,49.14],[-122.53,48.7],[-122.35,48.08],[-123.18,47.49],[-121,48.53],[-120.46,43.62]]]]},"properties":{"NAME":"North American Pacifi foraging, hunting and fishing peoples","SUBJECTO":"North American Pacifi foraging, hunting and fishing peoples","BORDERPRECISION":1}},
{"type":"Feature","geometry":{"type":"Polygon","coordinates":[[[-120.46,43.57],[-111.67,41.94],[-114.13,47.95],[-114.47,52],[-122.49,54.24],[-125.76,53.13],[-120.48,48.96],[-120.46,43.62],[-120.46,43.57]],[[-117.85,46.35],[-116.63,46.87],[-114.21,45.53],[-117.39,44.79],[-117.85,46.35]]]},"properties":{"NAME":"Plateau fichers and hunter gatherers","SUBJECTO":"Plateau fichers and hunter gatherers","BORDERPRECISION":1}},
{"type":"Feature","geometry":{"type":"MultiPolygon","coordinates":[[[[-97.75,28.69],[-96.6,28.38],[-96.58,28.43],[-96.77,28.62],[-95.38,28.96],[-97.75,28.69]]],[[[-96.51,33.63],[-96.41,35.65],[-94.12,35.88],[-94.12,39.73],[-94.23,46.72],[-95.57,50],[-98.92,50.23],[-105.19,51.45],[-114.47,52],[-114.13,47.95],[-111.67,41.94],[-109.05,38.88],[-102.57,38.88],[-102.57,33.18],[-99.44,33.41],[-96.51,33.63]],[[-104.55,45.07],[-102.23,44.17],[-104.16,41.97],[-105.98,43.31],[-110.28,44.75],[-110.16,46.79],[-106.28,47.92],[-104.54,47.13],[-104.55,45.07]]]]},"properties":{"NAME":"Plain bison hunters","SUBJECTO":"Plain bison hunters","BORDERPRECISION":1}},
{"type":"Feature","geometry":{"type":"Polygon","coordinates":[[[28.14,-19.94],[12.91,-19.7],[12.52,-19.06],[14.53,-22.5],[15.15,-26.33],[15.29,-27.15],[15.66,-27.89],[18.18,-31.81],[17.93,-33.1],[18.46,-33.83],[18.35,-34.35],[19.28,-34.5],[19.88,-34.99],[22.68,-34.1],[26.66,-33.85],[28.92,-32.3],[32.23,-28.74],[32.92,-26.52],[32.5,-26.07],[35.5,-24.09],[35.3,-23.83],[35.53,-22.46],[35.26,-22.27],[35.03,-21.19],[34.67,-20.52],[34.72,-20.04],[33.47,-20.02],[33.4,-20.54],[33.4,-20.58],[33.4,-20.76],[33.36,-20.84],[33.06,-23.08],[31.37,-25.28],[28.64,-24.91],[28.02,-21.23],[28.14,-19.94]]]},"properties":{"NAME":"Khoiasan","SUBJECTO":"Khoiasan","BORDERPRECISION":1}},
{"type":"Feature","geometry":{"type":"Polygon","coordinates":[[[42.46,9.51],[42.17,7.15],[38.32,6.5],[35.58,5.53],[33.02,6.86],[32.35,9.53],[30.6,11.12],[24.07,11.18],[20.67,11.96],[18.63,10.17],[15.66,11.31],[14.71,12.51],[12.35,11.2],[10.73,11.29],[9.85,10.91],[4.67,11.51],[3.56,12.18],[3.39,13.12],[1.93,12.33],[-1.17,10.85],[-6.83,10.11],[-15.1,11.81],[-15.34,11.22],[-15.03,11.16],[-14.97,10.85],[-14.57,10.78],[-14.47,10.33],[-13.68,9.92],[-13.28,9.27],[-13.14,9.03],[-13.14,8.72],[-12.93,8.63],[-13.04,8.14],[-12.27,7.63],[-12.05,7.26],[-7.53,4.34],[-3.94,5.27],[-0.4,6.12],[3.95,6.58],[4.82,7.93],[2.63,7.81],[2.33,9.58],[4.32,9.8],[5.34,8.72],[7.37,7.91],[6.76,5.83],[12.6,7.73],[22.22,6.2],[33.93,2.84],[34.41,2.49],[43.41,2.51],[44.28,3.36],[47.64,4.1],[50.78,9.37],[51.18,11.78],[44.28,10.4],[43.5,9.73],[42.46,9.51]]]},"properties":{"NAME":"West African cereal farmers","SUBJECTO":"West African cereal farmers","BORDERPRECISION":1}},
{"type":"Feature","geometry":{"type":"Polygon","coordinates":[[[143.14,52.86],[141.84,52.96],[142.02,51.43],[142.11,51.22],[141.89,48.45],[141.98,48.28],[141.91,47.07],[141.9,45.91],[143.3,46.01],[142.61,47.46],[143.97,49.06],[143.07,51.27],[143.14,52.86]]]},"properties":{"NAME":"Ainus","SUBJECTO":"Ainus","BORDERPRECISION":1}},
{"type":"Feature","geometry":{"type":"Polygon","coordinates":[[[41.31,43.56],[42.52,47.05],[44.36,49.43],[42.59,50.91],[40.03,49.08],[38.14,49.05],[32.09,46.93],[37.97,46.44],[37.47,44.69],[41.12,43.02],[41.31,43.56]]]},"properties":{"NAME":"Crimean Khanate","SUBJECTO":"Ottoman Empire","BORDERPRECISION":1}},
{"type":"Feature","geometry":{"type":"Polygon","coordinates":[[[-1.75,48.18],[-3.09,48.87],[-4.35,48.39],[-2.58,47.32],[-1.75,48.18]]]},"properties":{"NAME":"Britany","SUBJECTO":"Britany","BORDERPRECISION":1}},
{"type":"Feature","geometry":{"type":"Polygon","coordinates":[[[13.08,-9.29],[13.42,-9.99],[13.64,-10.3],[13.65,-12.2],[11.78,-15.87],[12.08,-18.49],[12.52,-19.06],[12.91,-19.7],[28.14,-19.94],[28.17,-19.68],[30.08,-16.36],[32.96,-16.07],[33.66,-18.65],[33.47,-20.02],[34.72,-20.04],[37.28,-17.71],[40.57,-15.48],[40.53,-15.18],[40.86,-14.7],[40.62,-14.48],[40.6,-13.53],[40.37,-12.99],[40.31,-11.34],[40.4,-11.23],[39.25,-11.14],[38.24,-9.29],[37.73,-4.58],[39.42,-1.38],[43.41,2.51],[34.41,2.49],[33.93,2.84],[22.22,6.2],[12.6,7.73],[6.76,5.83],[6.09,4.33],[8.3,4.56],[8.26,4.75],[8.92,4.52],[9.03,4.14],[9.78,3.85],[9.77,3.38],[9.56,1.13],[9.62,1.09],[9.6,0.33],[9.85,0.17],[8.98,-1.1],[9.47,-1.59],[9.66,-2.42],[10.06,-2.57],[10.52,-3.24],[12.23,-5.36],[12.37,-6.26],[14.58,-4.77],[14.33,-9.37],[13.08,-9.29]],[[16.2,-9.12],[16.2,-10.19],[15.24,-9.88],[16.2,-9.12]]]},"properties":{"NAME":"Bantou","SUBJECTO":"Bantou","BORDERPRECISION":1}},
{"type":"Feature","geometry":{"type":"MultiPolygon","coordinates":[[[[11.18,59.07],[11.14,58.85],[11.41,58.33],[11.61,58.25],[11.8,58.18],[11.74,57.7],[11.88,57.33],[12.87,56.51],[12.51,56.12],[12.99,55.67],[13.3,55.3],[14.12,55.35],[14.13,55.67],[14.65,56.12],[16.03,56.35],[16.06,56.4],[19.04,59.86],[17.15,60.95],[22.65,65.93],[25.25,65.42],[21.03,62.48],[21.56,60.51],[27.7,59.3],[27.66,58.94],[27.77,58.89],[31.65,59.53],[29.73,61.85],[30.47,67.49],[25.63,66.7],[18.53,66.43],[18.96,68.29],[17.13,68.42],[16.65,68.05],[15.76,67.68],[14.62,67.25],[14.78,67.22],[13.99,66.69],[13.26,66.39],[13.58,66.19],[12.5,65.38],[11.51,64.52],[7.1,62.7],[7.55,62.6],[5.53,61.93],[5.83,61.82],[5.12,61.14],[5.39,61.03],[5.08,60.59],[5.55,60.51],[5.28,60.13],[5.89,60.16],[5.69,59.75],[6.19,59.82],[5.74,59.63],[5.42,59.52],[5.18,59.31],[5.35,59.39],[5.53,59.27],[5.68,59.41],[5.8,59.43],[6.11,59.53],[6.02,59.25],[6.24,59.28],[5.82,59.02],[6.27,58.99],[6.09,58.8],[5.67,58.82],[5.53,58.88],[5.62,58.46],[6.65,58.17],[6.64,58.04],[9.15,58.66],[9.35,58.85],[10.36,59.21],[10.38,59.37],[10.63,59.45],[10.66,59.22],[11.18,59.07]]],[[[8.56,55.36],[8.74,54.61],[8.95,54.42],[8.88,54.23],[9.44,54.25],[9.45,54.19],[9.67,54.19],[9.74,54.28],[9.88,54.25],[10.14,54.34],[10.06,54.43],[9.86,54.41],[9.98,54.49],[9.42,54.98],[9.7,55.48],[9.69,55.6],[10.15,55.76],[10.18,56.08],[10.75,56.1],[10.23,56.61],[8.32,55.85],[8.21,55.4],[8.56,55.36]]],[[[10.46,57.24],[10.4,57.51],[8.37,56.67],[10.46,57.24]]],[[[12.3,55.17],[12.16,55.38],[12.47,55.71],[11.23,55.34],[11.58,55.16],[12.3,55.17]]],[[[-21.73,65.18],[-23.51,64.56],[-21.49,64.38],[-22.37,63.77],[-18.64,63.32],[-13.53,65.18],[-14.75,65.7],[-17.86,65.84],[-19.16,65.73],[-21.49,65.57],[-21.3,65.7],[-22.56,66.11],[-22.47,66],[-23.43,65.83],[-23.27,65.72],[-24.15,65.44],[-21.73,65.18]]],[[[-42.82,60.8],[-39.99,65.53],[-35.97,65.85],[-32.96,67.64],[-22.73,69.77],[-25.29,71.57],[-20.33,73.42],[-18.25,77.3],[-20.88,78.82],[-14.2,81.21],[-32.51,83.58],[-67.14,80.56],[-65.16,79.31],[-58.83,78.24],[-51.82,74.21],[-50.48,67.48],[-52.3,66.91],[-51.37,63.73],[-48.92,61.42],[-42.82,60.8]]]]},"properties":{"NAME":"Kalmar Union","SUBJECTO":"Kalmar Union","BORDERPRECISION":1}},
{"type":"Feature","geometry":{"type":"MultiPolygon","coordinates":[[[[-143.61,68.65],[-128.37,66.88],[-98.73,65.63],[-92.89,62.13],[-87.44,64.57],[-86.49,67.38],[-92.96,69.08],[-101.91,67.71],[-105.64,68.35],[-112.5,67.69],[-115.29,68.89],[-127.35,70.38],[-131.67,69.28],[-137.73,69.02],[-156.9,71.35],[-159.86,70.54],[-143.61,68.65]]],[[[-61.93,56.28],[-62.89,58.66],[-69.21,58.75],[-70.03,60.88],[-73.39,62.35],[-77.36,62.52],[-78.34,58.55],[-76.44,56.81],[-79.55,54.69],[-75.37,54.66],[-74.52,60.12],[-68.21,57.04],[-64.6,58.15],[-62.37,55.59],[-62.28,55.59],[-61.93,56.28]]],[[[-65.16,79.31],[-72.38,78.53],[-67.04,75.94],[-58.64,75.79],[-51.82,74.21],[-58.83,78.24],[-65.16,79.31]]],[[[-107.53,72.02],[-114.65,73.35],[-118.99,72.03],[-117.57,69.99],[-113.15,68.6],[-101.06,70.03],[-107.53,72.02]]],[[[-74.56,64.78],[-71.32,63.06],[-64.47,63.74],[-61.21,66.64],[-68.67,68.72],[-71.25,71.35],[-81.53,73.69],[-88.1,73.64],[-87.95,70.38],[-78.71,70.01],[-72.3,67.26],[-74.56,64.78]]]]},"properties":{"NAME":"Thule","SUBJECTO":"Thule","BORDERPRECISION":1}},
{"type":"Feature","geometry":{"type":"Polygon","coordinates":[[[77.98,34.87],[82.69,34.74],[89.92,35.19],[91.69,36.36],[95.52,37.1],[95.59,38.94],[102.93,39.02],[119.6,42.03],[131.87,43.29],[134.14,42.99],[137.72,46],[140.08,48.5],[141.12,53.05],[136.49,53.65],[126.44,54.92],[118.11,56.89],[109.08,57.6],[102.59,57.3],[87.21,49.61],[85.52,48.41],[77.18,46.78],[68.23,42.24],[64.53,40.15],[68.58,37.13],[72.03,35.61],[77.98,34.87]]]},"properties":{"NAME":"Chagatai Khanate","SUBJECTO":"Chagatai Khanate","BORDERPRECISION":1}},
{"type":"Feature","geometry":{"type":"Polygon","coordinates":[[[102.59,57.3],[93.98,56.89],[85.08,58.16],[77.04,61.97],[75.24,62.13],[75.66,58.62],[82.54,57.08],[79.3,54.4],[78.8,54.39],[87.21,49.61],[102.59,57.3]]]},"properties":{"NAME":"Oirat Confederation","SUBJECTO":"Oirat Confederation","BORDERPRECISION":1}},
{"type":"Feature","geometry":{"type":"Polygon","coordinates":[[[59.98,26.51],[65.52,26.93],[69.57,29.96],[70.34,31.38],[72.03,35.61],[68.58,37.13],[64.53,40.15],[68.23,42.24],[66.67,44.43],[61.27,46.26],[60.94,44.44],[58.88,43.85],[55.64,40.05],[54.07,38.9],[53.98,36.78],[57.19,30.76],[59.98,26.51]]]},"properties":{"NAME":"Timurid Emirates","SUBJECTO":"Timurid Emirates","BORDERPRECISION":1}},
{"type":"Feature","geometry":{"type":"Polygon","coordinates":[[[-0.91,42.88],[-2.13,41.82],[-1.94,36.95],[0.17,38.74],[0.88,41.02],[3,42.77],[-0.91,42.88]]]},"properties":{"NAME":"Aragón","SUBJECTO":"Aragón","BORDERPRECISION":1}},
{"type":"Feature","geometry":{"type":"Polygon","coordinates":[[[78,16.47],[78.17,19.01],[77.39,18.77],[78,16.47]]]},"properties":{"NAME":"Bidar","SUBJECTO":"Bidar","BORDERPRECISION":1}},
{"type":"Feature","geometry":{"type":"Polygon","coordinates":[[[77.92,16.25],[78,16.47],[77.39,18.77],[75.41,18.5],[73.4,16.62],[73.49,16.29],[77.49,16.31],[77.92,16.25]]]},"properties":{"NAME":"Bijapur","SUBJECTO":"Bijapur","BORDERPRECISION":1}},
{"type":"Feature","geometry":{"type":"Polygon","coordinates":[[[73.71,22.95],[74.27,21.91],[72.85,19.24],[73.4,16.62],[75.41,18.5],[77.39,18.77],[78.17,19.01],[78.53,19.12],[78.57,20.44],[76.09,21.05],[76.93,23.9],[73.71,22.95]]]},"properties":{"NAME":"Ahmadnagar","SUBJECTO":"Ahmadnagar","BORDERPRECISION":1}},
{"type":"Feature","geometry":{"type":"Polygon","coordinates":[[[79.33,17.23],[78.75,19.19],[78.53,19.12],[78.17,19.01],[78,16.47],[77.92,16.25],[79.43,16.02],[80.46,15.77],[82.32,17],[79.33,17.23]]]},"properties":{"NAME":"Golkonda","SUBJECTO":"Golkonda","BORDERPRECISION":1}},
{"type":"Feature","geometry":{"type":"Polygon","coordinates":[[[78.28,24.3],[76.93,23.9],[76.09,21.05],[78.57,20.44],[78.53,19.12],[78.75,19.19],[79.33,17.23],[84.3,20.75],[82.55,23.24],[78.28,24.3]]]},"properties":{"NAME":"Islamic states","SUBJECTO":"Islamic states","BORDERPRECISION":1}},
{"type":"Feature","geometry":{"type":"Polygon","coordinates":[[[107.48,13.26],[107.11,16.17],[105.57,17.88],[101.65,18],[101.66,19.66],[99.84,20.48],[98.67,18.4],[97.57,16.45],[98.74,11.44],[98.18,8.6],[100.14,6.18],[101.26,3.23],[103.33,3.39],[103.34,4.81],[100.61,6.98],[99.07,9.9],[99.9,12.08],[102.67,12.04],[105.02,13.41],[107.48,13.26]]]},"properties":{"NAME":"Ayutthaya","SUBJECTO":"Ayutthaya","BORDERPRECISION":1}},
{"type":"Feature","geometry":{"type":"Polygon","coordinates":[[[18.53,66.43],[25.63,66.7],[30.47,67.49],[32.16,69.69],[28.31,70.95],[19.82,69.37],[18.53,66.43]]]},"properties":{"NAME":"Sámi","SUBJECTO":"Sámi","BORDERPRECISION":1}},
{"type":"Feature","geometry":{"type":"Polygon","coordinates":[[[136.49,53.65],[134.99,54.85],[142.85,59.27],[148.42,59.1],[154.32,59.98],[157.1,61.63],[160.64,60.72],[156.78,57.58],[155.47,54.92],[156.7,50.96],[161.5,55.29],[163.39,59.81],[170.34,60.28],[179.29,62.82],[180,64.95],[180,65.05],[180,65.31],[180,65.38],[180,65.96],[180,66.96],[180,67.96],[180,68.92],[175.61,69.78],[159.44,69.76],[152.13,70.66],[141.29,72.79],[137.63,71.08],[126.22,72.38],[108.34,73.69],[113.53,76.09],[103.39,77.56],[99.47,75.97],[90,75.6],[87.69,73.9],[73.22,71.46],[74.74,67.69],[72.21,66.17],[69.08,66.69],[66.51,66.53],[65.06,62.97],[67.85,61.67],[70.97,64.24],[75.24,62.13],[77.04,61.97],[85.08,58.16],[93.98,56.89],[102.59,57.3],[109.08,57.6],[118.11,56.89],[126.44,54.92],[136.49,53.65]]]},"properties":{"NAME":"Siberians","SUBJECTO":"Siberians","BORDERPRECISION":1}},
{"type":"Feature","geometry":{"type":"Polygon","coordinates":[[[87.21,49.61],[78.8,54.39],[68.59,54.28],[64.68,55.97],[65.9,59.73],[56.37,57.36],[52.86,46.94],[51.17,43.72],[54.07,38.9],[55.64,40.05],[58.88,43.85],[58.82,45.93],[61.27,46.26],[66.67,44.43],[68.23,42.24],[77.18,46.78],[85.52,48.41],[87.21,49.61]]]},"properties":{"NAME":"White Horde","SUBJECTO":"White Horde","BORDERPRECISION":1}},
{"type":"Feature","geometry":{"type":"Polygon","coordinates":[[[39.13,55.17],[38.18,53.97],[40.51,53.85],[39.13,55.17]]]},"properties":{"NAME":"Ryazan","SUBJECTO":"Ryazan","BORDERPRECISION":1}},
{"type":"Feature","geometry":{"type":"Polygon","coordinates":[[[45.38,42.62],[47.49,43.58],[47.56,45.45],[52.78,46.95],[56.34,57.36],[46.88,56.45],[43.97,54.82],[43.99,52.62],[39.64,51.75],[36.86,52.09],[38.14,49.05],[40.03,49.08],[42.59,50.91],[44.36,49.43],[42.52,47.05],[41.31,43.56],[45.38,42.62]]]},"properties":{"NAME":"Golden Horde","SUBJECTO":"Golden Horde","BORDERPRECISION":1}},
{"type":"Feature","geometry":{"type":"Polygon","coordinates":[[[32.91,52.4],[32.94,51.9],[33.4,51.78],[33.65,52.36],[32.91,52.4]]]},"properties":{"NAME":"Novgorod-Seversky","SUBJECTO":"Novgorod-Seversky","BORDERPRECISION":1}},
{"type":"Feature","geometry":{"type":"Polygon","coordinates":[[[27.58,58.23],[30.78,56.07],[32.56,53.32],[30.85,51.54],[33.69,51.34],[36.86,52.09],[39.64,51.75],[43.99,52.62],[43.97,54.82],[46.88,56.45],[56.34,57.36],[56.37,57.36],[65.9,59.73],[67.85,61.67],[65.06,62.97],[66.51,66.53],[69.08,66.69],[71.35,66.66],[73.39,68.38],[71.8,71.43],[66.82,71.11],[57.02,68.45],[53.89,68.79],[39.95,65.58],[40.83,67.66],[32.16,69.69],[30.47,67.49],[29.73,61.85],[31.65,59.53],[27.77,58.89],[27.65,58.84],[27.58,58.23]],[[39.13,55.17],[40.51,53.85],[38.18,53.97],[39.13,55.17]],[[32.91,52.4],[33.65,52.36],[33.4,51.78],[32.94,51.9],[32.91,52.4]]]},"properties":{"NAME":"Grand Duchy of Moscow","SUBJECTO":"Grand Duchy of Moscow","BORDERPRECISION":1}},
{"type":"Feature","geometry":{"type":"Polygon","coordinates":[[[75.24,62.13],[70.97,64.24],[67.85,61.67],[65.9,59.73],[64.68,55.97],[68.59,54.28],[78.8,54.39],[79.3,54.4],[82.54,57.08],[75.66,58.62],[75.24,62.13]]]},"properties":{"NAME":"Khanate of Sibir","SUBJECTO":"Khanate of Sibir","BORDERPRECISION":1}},
{"type":"Feature","geometry":{"type":"MultiPolygon","coordinates":[[[[27.65,58.84],[27.77,58.89],[27.66,58.94],[27.65,58.84]]],[[[27.82,56.73],[30.78,56.07],[27.58,58.23],[27.82,56.73]]]]},"properties":{"NAME":"Pskov","SUBJECTO":"Pskov","BORDERPRECISION":1}},
{"type":"Feature","geometry":{"type":"Polygon","coordinates":[[[178.18,-18.24],[178.17,-17.34],[177.51,-17.51],[177.33,-18.12],[178.18,-18.24]]]},"properties":{"NAME":"Tuʻi Tonga Empire","SUBJECTO":"Tuʻi Tonga Empire","BORDERPRECISION":1}},
{"type":"Feature","geometry":{"type":"Polygon","coordinates":[[[-109.24,-27.13],[-109.37,-27.06],[-109.43,-27.2],[-109.24,-27.13]]]},"properties":{"NAME":"Polynesians","SUBJECTO":"Polynesians","BORDERPRECISION":1}},
{"type":"Feature","geometry":{"type":"MultiPolygon","coordinates":[[[[16.64,43.39],[16.99,43.32],[17.3,43.08],[19.61,41.76],[19.37,40.26],[21.23,37.9],[23.56,38.35],[22.6,40.4],[28.83,40.91],[27.5,42.52],[30.83,46.58],[32.01,46.91],[30.89,47.45],[28.37,45.33],[26.54,45.25],[23.54,45.86],[16.7,43.85],[16.64,43.39]]],[[[38.61,38.37],[41.48,41.44],[36.38,41.24],[33.56,41.98],[26.13,39.88],[27.16,37.36],[30.47,36.19],[33.17,35.97],[35.89,36.77],[38.61,38.37]]]]},"properties":{"NAME":"Ottoman Empire","SUBJECTO":"Ottoman Empire","BORDERPRECISION":1}}
]}