{"type":"FeatureCollection", "features": [
{"type":"Feature","geometry":{"type":"Polygon","coordinates":[[[-95.47,31.22],[-95.82,29.64],[-95.17,29.11],[-92.02,29.82],[-91.98,30.23],[-92.46,30.58],[-94.71,30.75],[-95.47,31.22]]]},"properties":{"NAME":"Atakapa","SUBJECTO":"Atakapa","BORDERPRECISION":1}},
{"type":"Feature","geometry":{"type":"Polygon","coordinates":[[[-82.18,22.37],[-77.29,20.7],[-77.34,21.51],[-81.43,23.14],[-82.18,22.37]]]},"properties":{"NAME":"Cuba (Spain)","SUBJECTO":"Cuba (Spain)","BORDERPRECISION":1}},
{"type":"Feature","geometry":{"type":"Polygon","coordinates":[[[-71.37,19.83],[-72.75,18.51],[-71.4,17.7],[-70.62,18.51],[-71.37,19.83]]]},"properties":{"NAME":"Hispaniola (Spain)","SUBJECTO":"Hispaniola (Spain)","BORDERPRECISION":1}},
{"type":"Feature","geometry":{"type":"Polygon","coordinates":[[[44.67,-16.24],[43.97,-17.55],[44.47,-20.17],[43.5,-21.49],[43.67,-24.23],[45.58,-25.62],[47.26,-24.77],[49.34,-18.23],[50.5,-15.31],[49.82,-12.83],[46.92,-15.36],[44.67,-16.24]],[[48.01,-17.02],[48.49,-20.04],[47.19,-23.12],[45.29,-22.65],[46.65,-17.73],[48.01,-17.02]]]},"properties":{"NAME":"Madagascar","SUBJECTO":"Madagascar","BORDERPRECISION":1}},
{"type":"Feature","geometry":{"type":"MultiPolygon","coordinates":[[[[175.31,-37.32],[174.65,-38.98],[176.01,-41.26],[178.41,-38.77],[175.31,-37.32]]],[[[172.06,-43.92],[171.46,-41.99],[168.42,-44.22],[166.52,-46.23],[169.4,-46.71],[172.06,-43.92]]]]},"properties":{"NAME":"Maoris","SUBJECTO":"Maoris","BORDERPRECISION":1}},
{"type":"Feature","geometry":{"type":"Polygon","coordinates":[[[-7.49,37.21],[-6.71,41.96],[-8.81,41.89],[-9.55,38.77],[-7.49,37.21]]]},"properties":{"NAME":"Portugal","SUBJECTO":"Portugal","BORDERPRECISION":1}},
{"type":"Feature","geometry":{"type":"MultiPolygon","coordinates":[[[[121.26,1.1],[119.91,0.54],[118.68,-2.9],[122.26,-3.21],[119.87,-0.46],[121.26,1.1]]],[[[96.12,3.95],[98.6,1.71],[100.81,-2.34],[104.57,-6.07],[105.73,-5.83],[105.94,-3.21],[103.31,-0.82],[101.14,-1.37],[98.63,3.66],[96.6,5.08],[96.12,3.95]]],[[[109,0.2],[110.1,-3.08],[112.8,-2.97],[115.57,-3.8],[117.53,0.61],[118.52,1.17],[117.07,3.51],[119.04,5.17],[116.6,6.9],[110.82,1.24],[109,0.2]]]]},"properties":{"NAME":"Malaysian Islamic states","SUBJECTO":"Malaysian Islamic states","BORDERPRECISION":1}},
{"type":"Feature","geometry":{"type":"Polygon","coordinates":[[[10.73,11.29],[9.25,13.29],[6.96,14.25],[3.78,13.66],[3.56,12.18],[7.18,11.05],[8.72,9.04],[10.37,9.52],[10.73,11.29]]]},"properties":{"NAME":"Hausa States","SUBJECTO":"Hausa States","BORDERPRECISION":1}},
{"type":"Feature","geometry":{"type":"Polygon","coordinates":[[[12.38,44.73],[11.17,45.07],[11.96,42.01],[13.76,41.21],[14.08,42.63],[12.38,44.73]]]},"properties":{"NAME":"Papal States","SUBJECTO":"Papal States","BORDERPRECISION":1}},
{"type":"Feature","geometry":{"type":"Polygon","coordinates":[[[48.01,-17.02],[46.65,-17.73],[45.29,-22.65],[47.19,-23.12],[48.49,-20.04],[48.01,-17.02]]]},"properties":{"NAME":"Expansionist Kingdom of Merina","SUBJECTO":"Expansionist Kingdom of Merina","BORDERPRECISION":1}},
{"type":"Feature","geometry":{"type":"Polygon","coordinates":[[[-3.02,13.66],[-3.83,12.7],[-3.17,10.92],[-1.17,10.85],[0.08,11.73],[-0.06,13.29],[-3.02,13.66]]]},"properties":{"NAME":"Mossi States","SUBJECTO":"Mossi States","BORDERPRECISION":1}},
{"type":"Feature","geometry":{"type":"Polygon","coordinates":[[[20.02,12.64],[22.63,13.22],[22.33,15.33],[20.52,16.48],[19.46,13.26],[19.85,13.22],[20.02,12.64]]]},"properties":{"NAME":"Wadai","SUBJECTO":"Wadai","BORDERPRECISION":1}},
{"type":"Feature","geometry":{"type":"Polygon","coordinates":[[[22.69,15.33],[24.32,12.79],[29.09,13.16],[30,14.24],[29.15,17.93],[27.46,18.17],[23.11,16.6],[22.69,15.33]]]},"properties":{"NAME":"Darfur","SUBJECTO":"Darfur","BORDERPRECISION":1}},
{"type":"Feature","geometry":{"type":"Polygon","coordinates":[[[23.5,-10.33],[23.63,-6.77],[21.33,-6.71],[17.89,-7.38],[17.47,-8.16],[18.25,-11.12],[23.02,-10.82],[23.5,-10.33]]]},"properties":{"NAME":"Lunda","SUBJECTO":"Lunda","BORDERPRECISION":1}},
{"type":"Feature","geometry":{"type":"Polygon","coordinates":[[[23.5,-10.33],[26.37,-10.27],[31,-8.77],[29.2,-5.32],[25.98,-5.14],[25.32,-6.53],[23.63,-6.77],[23.5,-10.33]]]},"properties":{"NAME":"Luba","SUBJECTO":"Luba","BORDERPRECISION":1}},
{"type":"Feature","geometry":{"type":"Polygon","coordinates":[[[12.37,-6.26],[13.39,-8.16],[13.08,-9.29],[14.33,-9.37],[14.58,-4.77],[12.37,-6.26]]]},"properties":{"NAME":"Congo","SUBJECTO":"Congo","BORDERPRECISION":1}},
{"type":"Feature","geometry":{"type":"Polygon","coordinates":[[[8.82,38.98],[9.79,40.56],[8.24,40.86],[8.82,38.98]]]},"properties":{"NAME":"Sardinia","SUBJECTO":"Sardinia","BORDERPRECISION":1}},
{"type":"Feature","geometry":{"type":"Polygon","coordinates":[[[13.76,41.21],[15.67,40.09],[17.08,40.53],[14.08,42.63],[13.76,41.21]]]},"properties":{"NAME":"Naples","SUBJECTO":"Naples","BORDERPRECISION":1}},
{"type":"Feature","geometry":{"type":"Polygon","coordinates":[[[14.94,36.74],[15.39,38.21],[12.45,37.77],[14.94,36.74]]]},"properties":{"NAME":"Sicily","SUBJECTO":"Sicily","BORDERPRECISION":1}},
{"type":"Feature","geometry":{"type":"Polygon","coordinates":[[[101.97,22.53],[104,19.7],[107.46,15],[107.48,13.26],[106.85,10.58],[108.7,11.15],[109.31,12.91],[108.24,16.08],[105.53,18.84],[107.88,21.46],[105.31,23.3],[101.97,22.53]]]},"properties":{"NAME":"Đại Việt","SUBJECTO":"Đại Việt","BORDERPRECISION":1}},
{"type":"Feature","geometry":{"type":"Polygon","coordinates":[[[107.48,13.26],[105.02,13.41],[102.67,12.04],[103.04,10.9],[106.48,9.55],[106.85,10.58],[107.48,13.26]]]},"properties":{"NAME":"Cambodia","SUBJECTO":"Cambodia","BORDERPRECISION":1}},
{"type":"Feature","geometry":{"type":"Polygon","coordinates":[[[57.4,23.84],[58.18,21.85],[58.77,20.94],[59.84,22.28],[57.4,23.84]]]},"properties":{"NAME":"Oman","SUBJECTO":"Oman","BORDERPRECISION":1}},
{"type":"Feature","geometry":{"type":"Polygon","coordinates":[[[47.49,43.58],[46.87,44.68],[44.75,44.44],[43.38,46.19],[40.63,46.69],[37.47,44.69],[41.41,42.79],[41.48,41.44],[47.49,43.58]]]},"properties":{"NAME":"Astrakhan Khanate","SUBJECTO":"Nogai Horde","BORDERPRECISION":1}},
{"type":"Feature","geometry":{"type":"Polygon","coordinates":[[[-2,48.68],[-4.35,48.39],[-2.58,47.32],[-2,48.68]]]},"properties":{"NAME":"Britany","SUBJECTO":"Britany","BORDERPRECISION":1}},
{"type":"Feature","geometry":{"type":"Polygon","coordinates":[[[12.38,44.73],[13.37,45.69],[10.56,46.5],[9.57,46.04],[10.51,45.37],[11.17,45.07],[12.38,44.73]]]},"properties":{"NAME":"Venice","SUBJECTO":"Venice","BORDERPRECISION":1}},
{"type":"Feature","geometry":{"type":"Polygon","coordinates":[[[5.38,5.61],[6.9,6.13],[7.37,7.91],[5.34,8.72],[4.82,7.93],[3.95,6.58],[5.38,5.61]]]},"properties":{"NAME":"Benin","SUBJECTO":"Benin","BORDERPRECISION":1}},
{"type":"Feature","geometry":{"type":"Polygon","coordinates":[[[46.34,14.1],[46.88,13.47],[51.6,15.38],[50.51,17.15],[47.84,16.42],[46.34,14.1]]]},"properties":{"NAME":"Hadramaut","SUBJECTO":"Hadramaut","BORDERPRECISION":1}},
{"type":"Feature","geometry":{"type":"Polygon","coordinates":[[[50.51,17.15],[51.6,15.38],[55.39,17.81],[53.96,19.73],[50.51,17.15]]]},"properties":{"NAME":"Mahra","SUBJECTO":"Mahra","BORDERPRECISION":1}},
{"type":"Feature","geometry":{"type":"Polygon","coordinates":[[[58.18,21.85],[56.95,20.64],[53.96,19.73],[55.39,17.81],[57.84,19.03],[58.77,20.94],[58.18,21.85]]]},"properties":{"NAME":"Gharra","SUBJECTO":"Gharra","BORDERPRECISION":1}},
{"type":"Feature","geometry":{"type":"Polygon","coordinates":[[[-71.41,-32.73],[-67.92,-26.26],[-67.92,-22.01],[-66.54,-19.77],[-67,-15.79],[-69.27,-15.22],[-70.52,-13.74],[-74.29,-12.65],[-77.89,-6.98],[-77.93,-3.1],[-78.39,-2.91],[-78.56,-2.13],[-77.94,-1.72],[-77.99,2.47],[-80.09,0.82],[-80.97,-1.03],[-80.14,-3.41],[-81.42,-4.68],[-79.06,-8.22],[-76.24,-13.5],[-74.05,-16.04],[-71.61,-17.22],[-70.21,-19.07],[-70.4,-25.25],[-71.68,-30.6],[-71.52,-32.18],[-71.41,-32.73]]]},"properties":{"NAME":"Inca Empire","SUBJECTO":"Inca Empire","BORDERPRECISION":1}},
{"type":"Feature","geometry":{"type":"Polygon","coordinates":[[[-95.82,29.64],[-97.53,28.68],[-97.65,28.56],[-98.17,28.25],[-97.55,27.92],[-95.17,29.11],[-95.82,29.64]]]},"properties":{"NAME":"Karankawa","SUBJECTO":"Karankawa","BORDERPRECISION":1}},
{"type":"Feature","geometry":{"type":"Polygon","coordinates":[[[-88.3,17.64],[-87.2,21.53],[-90,21.16],[-90,19.38],[-88.3,17.64]]]},"properties":{"NAME":"Mayas","SUBJECTO":"Mayas","BORDERPRECISION":1}},
{"type":"Feature","geometry":{"type":"Polygon","coordinates":[[[-16.45,16.12],[-16.77,12.6],[-13.28,9.27],[-10.95,11.43],[-10.78,13.95],[-12.97,15.3],[-16.45,16.12]]]},"properties":{"NAME":"Senegal","SUBJECTO":"Senegal","BORDERPRECISION":1}},
{"type":"Feature","geometry":{"type":"Polygon","coordinates":[[[5.34,8.72],[4.04,10.27],[2.42,9.05],[4.82,7.93],[5.34,8.72]]]},"properties":{"NAME":"Oyo","SUBJECTO":"Oyo","BORDERPRECISION":1}},
{"type":"Feature","geometry":{"type":"Polygon","coordinates":[[[-0.3,5.48],[1.18,6.08],[0.12,8.54],[-0.82,8.43],[-0.3,5.48]]]},"properties":{"NAME":"Akan","SUBJECTO":"Akan","BORDERPRECISION":1}},
{"type":"Feature","geometry":{"type":"Polygon","coordinates":[[[-0.06,13.29],[1.93,12.33],[3.41,14.1],[1.19,17.06],[-0.51,20.97],[-3.54,21.27],[-7.45,15.13],[-7.45,14.03],[-5.68,12.62],[-3.02,13.66],[-0.06,13.29]]]},"properties":{"NAME":"Songhai","SUBJECTO":"Songhai","BORDERPRECISION":1}},
{"type":"Feature","geometry":{"type":"Polygon","coordinates":[[[34.38,-20.27],[34.75,-18.94],[32.68,-16.79],[30.76,-17.02],[31.49,-19.23],[30.24,-21.97],[32.23,-22.34],[34.52,-21.3],[34.38,-20.27]]]},"properties":{"NAME":"Mwenemutapa","SUBJECTO":"Mwenemutapa","BORDERPRECISION":1}},
{"type":"Feature","geometry":{"type":"Polygon","coordinates":[[[42.82,4.59],[40.56,6.16],[36.08,5.69],[36.45,2.63],[38.41,1.04],[42.33,1.77],[42.82,4.59]]]},"properties":{"NAME":"Oromo","SUBJECTO":"Oromo","BORDERPRECISION":1}},
{"type":"Feature","geometry":{"type":"Polygon","coordinates":[[[50.08,11.48],[44.28,10.4],[41.71,13.93],[41.18,12.34],[41.81,8.59],[43.61,7.34],[46.11,7.41],[48.37,8.74],[50.08,11.48]]]},"properties":{"NAME":"Adal","SUBJECTO":"Adal","BORDERPRECISION":1}},
{"type":"Feature","geometry":{"type":"Polygon","coordinates":[[[41.71,13.93],[39.8,15.09],[38.04,16.23],[36.08,16.11],[36.46,8.55],[39.07,7.49],[41.81,8.59],[41.18,12.34],[41.71,13.93]]]},"properties":{"NAME":"Ethiopia","SUBJECTO":"Ethiopia","BORDERPRECISION":1}},
{"type":"Feature","geometry":{"type":"Polygon","coordinates":[[[44.3,1.29],[42.79,1.32],[39.42,-1.38],[37.73,-4.58],[38.24,-9.29],[39.25,-11.14],[40.4,-11.23],[38.92,-6.34],[40.23,-3.19],[44.3,1.29]]]},"properties":{"NAME":"Islamic city-states","SUBJECTO":"Islamic city-states","BORDERPRECISION":1}},
{"type":"Feature","geometry":{"type":"Polygon","coordinates":[[[64.68,36.53],[62.66,39.22],[58.62,39.05],[56.43,38.21],[53.94,38.16],[53.8,36.68],[50.25,36.89],[49.56,34.26],[49.45,30.08],[51.35,28.04],[54.65,26.39],[56.79,26.97],[57.25,25.79],[60.48,25.3],[61.99,29.62],[64.19,32.87],[65.53,34.84],[64.68,36.53]]]},"properties":{"NAME":"Safavid Empire","SUBJECTO":"Safavid Empire","BORDERPRECISION":1}},
{"type":"Feature","geometry":{"type":"Polygon","coordinates":[[[64.19,32.87],[67.38,32.31],[70.24,33.49],[70.24,31.14],[68.57,29.1],[69.65,28.11],[72.94,28.95],[75.3,28.95],[75.75,25.81],[77.77,25.64],[78.95,23.96],[83.84,25.98],[83.7,29.18],[80.17,31.57],[79.33,35.63],[75.25,38.03],[71.57,36.91],[69.9,37.78],[66.34,36.31],[64.68,36.53],[65.53,34.84],[64.19,32.87]]]},"properties":{"NAME":"Mughal Empire","SUBJECTO":"Mughal Empire","BORDERPRECISION":1}},
{"type":"Feature","geometry":{"type":"Polygon","coordinates":[[[69.65,28.11],[69.01,24.63],[72.72,23.45],[75.75,25.81],[75.3,28.95],[72.94,28.95],[69.65,28.11]]]},"properties":{"NAME":"Rajputana","SUBJECTO":"Rajputana","BORDERPRECISION":1}},
{"type":"Feature","geometry":{"type":"Polygon","coordinates":[[[73.49,16.29],[76.7,8.71],[77.9,8.26],[79.83,10.36],[80.46,15.77],[77.92,16.25],[73.49,16.29]]]},"properties":{"NAME":"Vijayanagara","SUBJECTO":"Vijayanagara","BORDERPRECISION":1}},
{"type":"Feature","geometry":{"type":"Polygon","coordinates":[[[84.68,20.21],[81.49,17.21],[82.32,17],[85.38,19.61],[84.68,20.21]]]},"properties":{"NAME":"Orissa","SUBJECTO":"Orissa","BORDERPRECISION":1}},
{"type":"Feature","geometry":{"type":"Polygon","coordinates":[[[85.38,19.61],[90,22.96],[89.92,24.87],[87.18,24.87],[86.43,21.54],[84.68,20.21],[85.38,19.61]]]},"properties":{"NAME":"Bengal","SUBJECTO":"Bengal","BORDERPRECISION":1}},
{"type":"Feature","geometry":{"type":"Polygon","coordinates":[[[83.7,29.18],[87.21,27.84],[88.84,28.44],[91.41,27.94],[91.55,26.29],[94.32,26.88],[95.48,27.91],[98.22,27.55],[100.68,28.69],[102.41,33.72],[101.69,36.31],[99.24,38.75],[89.62,36.88],[84.47,36.88],[80.13,36.88],[79.33,35.63],[80.17,31.57],[83.7,29.18]]]},"properties":{"NAME":"Tibet","SUBJECTO":"Tibet","BORDERPRECISION":1}},
{"type":"Feature","geometry":{"type":"Polygon","coordinates":[[[60.48,25.3],[61.34,25.03],[66.62,25.32],[69.13,21.97],[72.85,19.24],[74.27,21.91],[73.71,22.95],[76.93,23.9],[76.09,21.05],[78.57,20.44],[78.53,19.12],[79.96,17.6],[81.49,17.21],[84.68,20.21],[86.43,21.54],[87.18,24.87],[89.92,24.87],[90,22.96],[91.41,22.72],[92.83,20.42],[94.22,21.36],[94.16,24.27],[91.55,26.29],[91.41,27.94],[88.84,28.44],[87.21,27.84],[83.7,29.18],[83.84,25.98],[78.95,23.96],[77.77,25.64],[75.75,25.81],[72.72,23.45],[69.01,24.63],[69.65,28.11],[68.57,29.1],[70.24,31.14],[70.24,33.49],[67.38,32.31],[64.19,32.87],[61.99,29.62],[60.48,25.3]]]},"properties":{"NAME":"Islamic and Hindu states","SUBJECTO":"Islamic and Hindu states","BORDERPRECISION":1}},
{"type":"Feature","geometry":{"type":"Polygon","coordinates":[[[92.83,20.42],[94.46,17.26],[94.95,18.51],[97.37,18.45],[97.89,20.96],[96.04,22.15],[94.22,21.36],[92.83,20.42]]]},"properties":{"NAME":"Burmese kingdoms","SUBJECTO":"Burmese kingdoms","BORDERPRECISION":1}},
{"type":"Feature","geometry":{"type":"Polygon","coordinates":[[[94.46,17.26],[95.33,15.68],[97.57,16.45],[98.4,13.27],[97.37,18.45],[94.95,18.51],[94.46,17.26]]]},"properties":{"NAME":"Pegu","SUBJECTO":"Pegu","BORDERPRECISION":1}},
{"type":"Feature","geometry":{"type":"Polygon","coordinates":[[[101.97,22.53],[98.98,23.15],[98.56,21.12],[103.46,19.05],[104,19.7],[101.97,22.53]]]},"properties":{"NAME":"Laos","SUBJECTO":"Laos","BORDERPRECISION":1}},
{"type":"Feature","geometry":{"type":"Polygon","coordinates":[[[91.55,26.29],[94.16,24.27],[94.22,21.36],[96.04,22.15],[97.89,20.96],[98.56,21.12],[98.98,23.15],[97.98,26.15],[98.22,27.55],[95.48,27.91],[94.32,26.88],[91.55,26.29]]]},"properties":{"NAME":"Shan states","SUBJECTO":"Shan states","BORDERPRECISION":1}},
{"type":"Feature","geometry":{"type":"Polygon","coordinates":[[[107.88,21.46],[110.08,20.87],[113.72,22.48],[116.34,22.91],[118.81,24.85],[119.43,26.59],[121.36,28.39],[121.61,31.83],[119.02,34.69],[120.14,36.19],[117.59,38.28],[121.01,40.85],[124.13,39.84],[126.47,41.65],[130.44,42.28],[134.14,42.99],[137.72,46],[140.08,48.5],[141.12,53.05],[137.24,53.46],[132.02,52.43],[130.39,56.05],[127.58,56.62],[120.39,46.42],[107.71,43.25],[103.56,39.9],[100.54,40.33],[99.24,38.75],[101.69,36.31],[102.41,33.72],[100.68,28.69],[98.22,27.55],[97.98,26.15],[98.98,23.15],[101.97,22.53],[105.31,23.3],[107.88,21.46]]]},"properties":{"NAME":"Ming Chinese Empire","SUBJECTO":"Ming Chinese Empire","BORDERPRECISION":1}},
{"type":"Feature","geometry":{"type":"Polygon","coordinates":[[[55.42,73.55],[60.89,75.25],[59.02,75.8],[55.42,73.55]]]},"properties":{"NAME":"central Asian khanates","SUBJECTO":"central Asian khanates","BORDERPRECISION":1}},
{"type":"Feature","geometry":{"type":"Polygon","coordinates":[[[80.56,5.93],[81.87,7.08],[80.66,9.3],[79.67,8.8],[80.56,5.93]]]},"properties":{"NAME":"Saylan","SUBJECTO":"Saylan","BORDERPRECISION":1}},
{"type":"Feature","geometry":{"type":"Polygon","coordinates":[[[96.6,5.08],[95.46,5.57],[95.56,4.53],[96.12,3.95],[96.6,5.08]]]},"properties":{"NAME":"Aceh","SUBJECTO":"Aceh","BORDERPRECISION":1}},
{"type":"Feature","geometry":{"type":"Polygon","coordinates":[[[103.31,-0.82],[101.06,2.08],[98.63,3.66],[101.14,-1.37],[103.31,-0.82]]]},"properties":{"NAME":"Malacca","SUBJECTO":"Malacca","BORDERPRECISION":1}},
{"type":"Feature","geometry":{"type":"Polygon","coordinates":[[[-1.95,55.56],[-2.15,57.57],[-5.76,57.62],[-5.63,55.94],[-3.19,54.85],[-1.95,55.56]]]},"properties":{"NAME":"Scotland","SUBJECTO":"Scotland","BORDERPRECISION":1}},
{"type":"Feature","geometry":{"type":"Polygon","coordinates":[[[-5.7,55.33],[-5.48,55.44],[-5.52,55.67],[-5.69,55.63],[-5.7,55.33]]]},"properties":{"NAME":"England and Ireland","SUBJECTO":"England and Ireland","BORDERPRECISION":1}},
{"type":"Feature","geometry":{"type":"Polygon","coordinates":[[[5.54,52.25],[1.8,50.92],[5.7,49.39],[5.54,52.25]]]},"properties":{"NAME":"Habsburg Netherlands","SUBJECTO":"Habsburg Netherlands","BORDERPRECISION":1}},
{"type":"Feature","geometry":{"type":"MultiPolygon","coordinates":[[[[-3.19,54.85],[-4.32,53.09],[-3.52,50.62],[0.19,50.73],[1.69,52.31],[-1.95,55.56],[-3.19,54.85]]],[[[-7.43,55.06],[-9.89,52.19],[-6.41,52.21],[-7.43,55.06]]]]},"properties":{"NAME":"England and Ireland","SUBJECTO":"England and Ireland","BORDERPRECISION":1}},
{"type":"Feature","geometry":{"type":"Polygon","coordinates":[[[21.01,55.82],[18.67,54.26],[20.33,52.97],[22.82,53.56],[21.01,55.82]]]},"properties":{"NAME":"Prussia","SUBJECTO":"Prussia","BORDERPRECISION":1}},
{"type":"Feature","geometry":{"type":"Polygon","coordinates":[[[-11,28.65],[-9.53,28.14],[-4.37,30.63],[-3.76,31.73],[-1.07,32.45],[-2.19,35.05],[-5.93,35.73],[-7,33.87],[-9.22,32.58],[-9.66,29.95],[-11,28.65]]]},"properties":{"NAME":"Watassid Morocco","SUBJECTO":"Watassid Morocco","BORDERPRECISION":1}},
{"type":"Feature","geometry":{"type":"Polygon","coordinates":[[[9.43,42.79],[8.61,42.49],[8.73,41.56],[9.45,42.05],[9.43,42.79]]]},"properties":{"NAME":"Holy Roman Empire","SUBJECTO":"Holy Roman Empire","BORDERPRECISION":1}},
{"type":"Feature","geometry":{"type":"Polygon","coordinates":[[[11.17,45.07],[10.51,45.37],[9.7,44.46],[9.98,44.05],[11.96,42.01],[11.17,45.07]]]},"properties":{"NAME":"Florence","SUBJECTO":"Florence","BORDERPRECISION":1}},
{"type":"Feature","geometry":{"type":"Polygon","coordinates":[[[9.7,44.46],[8.22,44.67],[7.47,43.81],[9.98,44.05],[9.7,44.46]]]},"properties":{"NAME":"Genoa","SUBJECTO":"Genoa","BORDERPRECISION":1}},
{"type":"Feature","geometry":{"type":"Polygon","coordinates":[[[-106.38,37.18],[-108.03,36.61],[-110.34,37.17],[-110.46,36.24],[-111.19,35.45],[-110.97,34.97],[-110.79,34.71],[-110.06,34.47],[-109.35,34.68],[-109.35,34.72],[-109.38,35.05],[-109.08,35.3],[-108.88,35.37],[-108.44,35.3],[-106.38,37.18]]]},"properties":{"NAME":"Navaho","SUBJECTO":"Navaho","BORDERPRECISION":1}},
{"type":"Feature","geometry":{"type":"Polygon","coordinates":[[[-87.78,38.36],[-88.37,37.09],[-86.69,35.11],[-86.67,35.1],[-83.25,36.67],[-81.88,37.36],[-83.1,38.96],[-86.08,39.2],[-87.78,38.36]]]},"properties":{"NAME":"Shawnee","SUBJECTO":"Shawnee","BORDERPRECISION":1}},
{"type":"Feature","geometry":{"type":"Polygon","coordinates":[[[-92.02,29.82],[-89.52,29.98],[-91.98,30.23],[-92.02,29.82]]]},"properties":{"NAME":"Chtimacha","SUBJECTO":"Chtimacha","BORDERPRECISION":1}},
{"type":"Feature","geometry":{"type":"Polygon","coordinates":[[[-75.37,42.06],[-75.94,39.65],[-75.86,39.44],[-75.05,38.54],[-74.22,40.51],[-74.23,40.54],[-73.78,40.88],[-73.74,41.5],[-74.6,42.64],[-75.37,42.06]]]},"properties":{"NAME":"Delaware","SUBJECTO":"Delaware","BORDERPRECISION":1}},
{"type":"Feature","geometry":{"type":"Polygon","coordinates":[[[-98.42,29.69],[-97.48,31.1],[-99.45,32.24],[-99.69,33.94],[-101.27,35.95],[-101.68,37.62],[-102.87,36.38],[-103.3,35.92],[-104.17,35.39],[-103.83,34.22],[-103.37,32.39],[-100.3,31.12],[-100.11,31.04],[-98.42,29.69]]]},"properties":{"NAME":"Comanche","SUBJECTO":"Comanche","BORDERPRECISION":1}},
{"type":"Feature","geometry":{"type":"Polygon","coordinates":[[[-101.06,42.42],[-101.39,41.72],[-100.71,41.02],[-99.52,38.77],[-97.81,38.78],[-97.04,40.25],[-96.72,41.19],[-98.29,42.32],[-100.86,42.76],[-100.87,42.76],[-101.06,42.42]]]},"properties":{"NAME":"Pawnee","SUBJECTO":"Pawnee","BORDERPRECISION":1}},
{"type":"Feature","geometry":{"type":"Polygon","coordinates":[[[-103.48,42.61],[-102.23,44.17],[-103.22,45.19],[-103.7,45.3],[-104.55,45.07],[-105.98,43.31],[-104.16,41.97],[-103.48,42.61]]]},"properties":{"NAME":"Cheyenne","SUBJECTO":"Cheyenne","BORDERPRECISION":1}},
{"type":"Feature","geometry":{"type":"Polygon","coordinates":[[[-87.32,31.87],[-86.67,31.86],[-85.82,31.86],[-86.11,32.91],[-87.16,32.95],[-87.32,31.87]]]},"properties":{"NAME":"Alabama","SUBJECTO":"Alabama","BORDERPRECISION":1}},
{"type":"Feature","geometry":{"type":"Polygon","coordinates":[[[-89.95,32.96],[-90.76,32.97],[-91.63,32.96],[-90.41,32.05],[-89.97,32.58],[-89.95,32.96]]]},"properties":{"NAME":"Tunica","SUBJECTO":"Tunica","BORDERPRECISION":1}},
{"type":"Feature","geometry":{"type":"Polygon","coordinates":[[[-83.74,30.38],[-85.06,30.34],[-85.08,30.31],[-85.3,29.66],[-83.85,30.01],[-83.74,30.38]]]},"properties":{"NAME":"Apalachee","SUBJECTO":"Apalachee","BORDERPRECISION":1}},
{"type":"Feature","geometry":{"type":"Polygon","coordinates":[[[-104.55,45.07],[-104.54,47.13],[-105.01,47.76],[-106.19,47.91],[-110.18,46.78],[-111.55,45.51],[-107.31,43.98],[-107.18,43.96],[-106.82,43.71],[-105.98,43.31],[-104.55,45.07]]]},"properties":{"NAME":"Crow","SUBJECTO":"Crow","BORDERPRECISION":1}},
{"type":"Feature","geometry":{"type":"Polygon","coordinates":[[[-97.48,31.1],[-96.83,32.35],[-96.15,33.32],[-95.39,33.61],[-95.35,34.05],[-97.51,34.88],[-99.69,33.94],[-99.45,32.24],[-97.48,31.1]]]},"properties":{"NAME":"Wichita","SUBJECTO":"Wichita","BORDERPRECISION":1}},
{"type":"Feature","geometry":{"type":"Polygon","coordinates":[[[-87.78,38.36],[-87.74,40.34],[-87.38,41.64],[-87.79,42.83],[-89.1,42.89],[-91.04,43.84],[-91.14,43.93],[-92.45,42.69],[-91.37,42.11],[-91.33,41.54],[-92.04,40.87],[-92.8,40.34],[-91.63,38.47],[-90.81,37.18],[-89.1,36.95],[-88.37,37.09],[-87.78,38.36]]]},"properties":{"NAME":"Illinnois","SUBJECTO":"Illinnois","BORDERPRECISION":1}},
{"type":"Feature","geometry":{"type":"Polygon","coordinates":[[[-75.86,39.44],[-76.26,39.2],[-75.43,37.99],[-75.05,38.54],[-75.86,39.44]]]},"properties":{"NAME":"Ninticoy","SUBJECTO":"Ninticoy","BORDERPRECISION":1}},
{"type":"Feature","geometry":{"type":"Polygon","coordinates":[[[-73.78,40.88],[-72.49,41.91],[-73.08,42.18],[-73.74,41.5],[-73.78,40.88]]]},"properties":{"NAME":"Wappynger","SUBJECTO":"Wappynger","BORDERPRECISION":1}},
{"type":"Feature","geometry":{"type":"Polygon","coordinates":[[[-73.74,41.5],[-73.08,42.18],[-72.52,43.58],[-72.66,43.7],[-73.11,44.66],[-74.6,42.64],[-73.74,41.5]]]},"properties":{"NAME":"Mahicacn","SUBJECTO":"Mahicacn","BORDERPRECISION":1}},
{"type":"Feature","geometry":{"type":"Polygon","coordinates":[[[-72.49,41.91],[-72.34,42.21],[-72.1,42.9],[-72.52,43.58],[-73.08,42.18],[-72.49,41.91]]]},"properties":{"NAME":"Pocumtuk","SUBJECTO":"Pocumtuk","BORDERPRECISION":1}},
{"type":"Feature","geometry":{"type":"Polygon","coordinates":[[[-71.23,45.33],[-70.54,43.4],[-67.09,44.97],[-69.22,47.47],[-71.23,45.33]]]},"properties":{"NAME":"Abnaki","SUBJECTO":"Abnaki","BORDERPRECISION":1}},
{"type":"Feature","geometry":{"type":"Polygon","coordinates":[[[-71.74,41.95],[-70.53,42.02],[-71.27,42.58],[-71.74,41.95]]]},"properties":{"NAME":"Masachuset","SUBJECTO":"Masachuset","BORDERPRECISION":1}},
{"type":"Feature","geometry":{"type":"Polygon","coordinates":[[[-75.37,42.06],[-78.13,42.4],[-77.8,39.94],[-76.34,39.45],[-75.94,39.65],[-75.37,42.06]]]},"properties":{"NAME":"Susquehanna","SUBJECTO":"Susquehanna","BORDERPRECISION":1}},
{"type":"Feature","geometry":{"type":"Polygon","coordinates":[[[-100.71,41.02],[-103.2,41.61],[-104.16,41.97],[-105.98,43.31],[-106.82,43.71],[-106.53,42.12],[-105.12,40.86],[-104.16,37.78],[-102.87,37.6],[-102.87,36.38],[-101.68,37.62],[-99.52,38.77],[-100.71,41.02]]]},"properties":{"NAME":"Arapaho","SUBJECTO":"Arapaho","BORDERPRECISION":1}},
{"type":"Feature","geometry":{"type":"Polygon","coordinates":[[[-99.69,33.94],[-97.51,34.88],[-96.59,37.25],[-97.16,38.29],[-97.81,38.78],[-99.52,38.77],[-101.68,37.62],[-101.27,35.95],[-99.69,33.94]]]},"properties":{"NAME":"Kiowa","SUBJECTO":"Kiowa","BORDERPRECISION":1}},
{"type":"Feature","geometry":{"type":"Polygon","coordinates":[[[-95.47,31.22],[-95.56,31.67],[-95.23,32.28],[-95.39,33.61],[-96.15,33.32],[-96.83,32.35],[-97.48,31.1],[-98.42,29.69],[-97.54,28.69],[-97.53,28.68],[-95.82,29.64],[-95.47,31.22]]]},"properties":{"NAME":"Tonkawa","SUBJECTO":"Tonkawa","BORDERPRECISION":1}},
{"type":"Feature","geometry":{"type":"Polygon","coordinates":[[[-110.46,36.24],[-111.18,35.48],[-111.19,35.45],[-110.46,36.24]]]},"properties":{"NAME":"Hopie","SUBJECTO":"Hopie","BORDERPRECISION":1}},
{"type":"Feature","geometry":{"type":"Polygon","coordinates":[[[-114.14,34.83],[-113.94,34.35],[-114.33,33.19],[-113.83,32.95],[-112.77,33.14],[-111.77,33.49],[-111.23,33.55],[-111.29,33.91],[-111.54,34.4],[-111.88,35.11],[-112.82,35.16],[-114.14,34.83]]]},"properties":{"NAME":"Yavapai","SUBJECTO":"Yavapai","BORDERPRECISION":1}},
{"type":"Feature","geometry":{"type":"Polygon","coordinates":[[[-115.24,34.01],[-116.58,35.75],[-117.51,35.11],[-118.4,35.46],[-119.04,35.22],[-118.6,34.6],[-117.38,34.38],[-116.88,34.16],[-115.24,34.01]]]},"properties":{"NAME":"Serano","SUBJECTO":"Serano","BORDERPRECISION":1}},
{"type":"Feature","geometry":{"type":"Polygon","coordinates":[[[-107.13,33.22],[-107.08,34.45],[-107.37,33.51],[-107.13,33.22]]]},"properties":{"NAME":"Riro","SUBJECTO":"Riro","BORDERPRECISION":1}},
{"type":"Feature","geometry":{"type":"Polygon","coordinates":[[[-101.14,44.72],[-99.98,44.79],[-100.21,46.35],[-101.27,46.35],[-101.14,44.72]]]},"properties":{"NAME":"Arikara","SUBJECTO":"Arikara","BORDERPRECISION":1}},
{"type":"Feature","geometry":{"type":"Polygon","coordinates":[[[-121.94,38.18],[-121.82,37.88],[-119.7,37.62],[-119.61,37.64],[-119.37,37.97],[-119.48,38.32],[-120.11,38.87],[-120.95,38.89],[-121.94,38.18]]]},"properties":{"NAME":"Miwok","SUBJECTO":"Miwok","BORDERPRECISION":1}},
{"type":"Feature","geometry":{"type":"Polygon","coordinates":[[[-98.01,42.76],[-96.1,41.94],[-94.03,42.63],[-95.83,44.51],[-99.82,44.52],[-99.86,44.33],[-98.01,42.76]]]},"properties":{"NAME":"Yankton","SUBJECTO":"Yankton","BORDERPRECISION":1}},
{"type":"Feature","geometry":{"type":"Polygon","coordinates":[[[-125.46,49.17],[-125.72,50.41],[-126.96,50.06],[-125.46,49.17]]]},"properties":{"NAME":"Kwakwaka'wakw","SUBJECTO":"Kwakwaka'wakw","BORDERPRECISION":1}},
{"type":"Feature","geometry":{"type":"MultiPolygon","coordinates":[[[[-94.74,59.86],[-93.42,61.86],[-87.44,64.57],[-86.49,67.38],[-93.27,71.56],[-96.7,70.84],[-92.96,69.08],[-96.21,68.07],[-101.91,67.71],[-105.64,68.35],[-112.5,67.69],[-115.29,68.89],[-123.08,69.84],[-107.51,58.9],[-94.74,59.86]]],[[[-71.88,63.8],[-66.5,63.08],[-64.47,63.74],[-61.21,66.64],[-68.67,68.72],[-71.25,71.35],[-81.53,73.69],[-88.1,73.64],[-90,71.54],[-87.95,70.38],[-78.71,70.01],[-72.3,67.26],[-75.79,65.2],[-71.88,63.8]]]]},"properties":{"NAME":"T'atsaot'ine","SUBJECTO":"T'atsaot'ine","BORDERPRECISION":1}},
{"type":"Feature","geometry":{"type":"Polygon","coordinates":[[[-76.47,56.55],[-61.41,57.05],[-64.67,60.18],[-65.86,58.8],[-69.21,58.75],[-70.03,60.88],[-73.39,62.35],[-77.36,62.52],[-78.34,58.55],[-76.47,56.55]]]},"properties":{"NAME":"Naskapi Innu","SUBJECTO":"Naskapi Innu","BORDERPRECISION":1}},
{"type":"Feature","geometry":{"type":"Polygon","coordinates":[[[-82.71,28.52],[-81.1,25.13],[-80.05,26.55],[-80.6,28.52],[-82.71,28.52]]]},"properties":{"NAME":"Caloosahatchee culture","SUBJECTO":"Caloosahatchee culture","BORDERPRECISION":1}},
{"type":"Feature","geometry":{"type":"Polygon","coordinates":[[[-107.51,58.9],[-112.45,58.52],[-111.98,58.29],[-102.59,53.56],[-98.49,52.35],[-92.14,52.53],[-81.99,52.8],[-82.34,52.98],[-82.33,54.14],[-82.4,54.27],[-82.2,54.97],[-87.47,55.91],[-89.73,56.93],[-91.34,57.16],[-92.18,56.97],[-94.74,59.86],[-107.51,58.9]]]},"properties":{"NAME":"Cree","SUBJECTO":"Cree","BORDERPRECISION":1}},
{"type":"Feature","geometry":{"type":"Polygon","coordinates":[[[-14.51,28.05],[-13.88,28.2],[-14.15,28.39],[-14.51,28.05]]]},"properties":{"NAME":"Guanches","SUBJECTO":"Guanches","BORDERPRECISION":1}},
{"type":"Feature","geometry":{"type":"Polygon","coordinates":[[[142.41,-3.31],[137.85,-1.61],[135.25,-3.54],[133.91,-1.01],[131.21,-1.02],[134.04,-3.95],[137.82,-5.43],[139.16,-7.73],[140.95,-9.27],[142.61,-9.38],[144.38,-7.76],[145.82,-8.1],[147.87,-10.18],[148.59,-9.16],[146.91,-6.89],[147.38,-6.12],[142.41,-3.31]]]},"properties":{"NAME":"Papous","SUBJECTO":"Papous","BORDERPRECISION":1}},
{"type":"Feature","geometry":{"type":"Polygon","coordinates":[[[-91.63,31.94],[-92.46,30.58],[-91.54,30.8],[-90.26,31.32],[-90.23,32.02],[-90.41,32.05],[-91.63,31.94]]]},"properties":{"NAME":"Natchez","SUBJECTO":"Natchez","BORDERPRECISION":1}},
{"type":"Feature","geometry":{"type":"Polygon","coordinates":[[[-100.3,31.12],[-101.27,29.67],[-100.82,29.3],[-100.33,28.72],[-97.65,28.56],[-97.53,28.68],[-97.54,28.69],[-100.11,31.04],[-100.3,31.12]]]},"properties":{"NAME":"Lipan","SUBJECTO":"Lipan","BORDERPRECISION":1}},
{"type":"Feature","geometry":{"type":"Polygon","coordinates":[[[-92.46,30.58],[-91.63,31.94],[-91.63,32.96],[-92.85,34.66],[-95.35,34.05],[-95.39,33.61],[-95.23,32.28],[-95.56,31.67],[-94.71,30.75],[-92.46,30.58]]]},"properties":{"NAME":"Caddo","SUBJECTO":"Caddo","BORDERPRECISION":1}},
{"type":"Feature","geometry":{"type":"Polygon","coordinates":[[[-72.52,43.58],[-72.1,42.9],[-71.99,42.63],[-71.27,42.58],[-70.54,43.4],[-71.23,45.33],[-71.69,45.32],[-72.66,43.7],[-72.52,43.58]]]},"properties":{"NAME":"Pennacook","SUBJECTO":"Pennacook","BORDERPRECISION":1}},
{"type":"Feature","geometry":{"type":"Polygon","coordinates":[[[-116.58,35.75],[-116.7,35.99],[-116.88,36.75],[-117.91,35.78],[-118.61,35.63],[-118.4,35.46],[-117.51,35.11],[-116.58,35.75]]]},"properties":{"NAME":"Kawahsu","SUBJECTO":"Kawahsu","BORDERPRECISION":1}},
{"type":"Feature","geometry":{"type":"Polygon","coordinates":[[[-118.4,35.46],[-118.61,35.63],[-118.64,36.81],[-119.57,37.65],[-119.61,37.64],[-119.7,37.62],[-121.82,37.88],[-120.9,36.58],[-119.74,35.57],[-119.4,35.28],[-119.04,35.22],[-118.4,35.46]]]},"properties":{"NAME":"Yokuts","SUBJECTO":"Yokuts","BORDERPRECISION":1}},
{"type":"Feature","geometry":{"type":"Polygon","coordinates":[[[-107.31,43.98],[-107.75,44.04],[-111.55,45.51],[-113.43,45.36],[-114.21,45.53],[-116.12,44.71],[-118.01,36.62],[-117.91,35.78],[-116.88,36.75],[-115.96,36.47],[-115.39,38.27],[-113.52,38.89],[-111.87,40.57],[-105.12,40.86],[-106.53,42.12],[-107.18,43.96],[-107.31,43.98]]]},"properties":{"NAME":"Shoshoni","SUBJECTO":"Shoshoni","BORDERPRECISION":1}},
{"type":"Feature","geometry":{"type":"Polygon","coordinates":[[[-123.93,39.82],[-123.25,38.55],[-122.72,38.69],[-122.72,38.99],[-122.78,39.53],[-122.82,39.53],[-123.93,39.82]]]},"properties":{"NAME":"Pomo","SUBJECTO":"Pomo","BORDERPRECISION":1}},
{"type":"Feature","geometry":{"type":"Polygon","coordinates":[[[-88.29,30.77],[-88.75,30.39],[-88.21,30.35],[-88.29,30.77]]]},"properties":{"NAME":"Biloxi","SUBJECTO":"Biloxi","BORDERPRECISION":1}},
{"type":"Feature","geometry":{"type":"Polygon","coordinates":[[[-117.71,45.64],[-117.57,46.02],[-117.85,46.35],[-118.95,46.03],[-119,44.93],[-117.39,44.79],[-117.71,45.64]]]},"properties":{"NAME":"Cayuse","SUBJECTO":"Cayuse","BORDERPRECISION":1}},
{"type":"Feature","geometry":{"type":"Polygon","coordinates":[[[-53.11,48.52],[-57.36,50.6],[-59.16,47.67],[-53.11,48.52]]]},"properties":{"NAME":"Beothuk","SUBJECTO":"Beothuk","BORDERPRECISION":1}},
{"type":"Feature","geometry":{"type":"Polygon","coordinates":[[[-65.24,50.35],[-60.14,50.41],[-55.66,52.19],[-55.88,53.35],[-61.79,56.19],[-62.95,54.22],[-65.24,50.35]]]},"properties":{"NAME":"Montagnais Innu","SUBJECTO":"Montagnais Innu","BORDERPRECISION":1}},
{"type":"Feature","geometry":{"type":"Polygon","coordinates":[[[-92.8,40.34],[-95.02,40.68],[-95.26,39.96],[-94.47,38.79],[-91.63,38.47],[-92.8,40.34]]]},"properties":{"NAME":"Missouri","SUBJECTO":"Missouri","BORDERPRECISION":1}},
{"type":"Feature","geometry":{"type":"Polygon","coordinates":[[[-97.81,38.78],[-97.16,38.29],[-94.47,38.79],[-95.26,39.96],[-97.04,40.25],[-97.81,38.78]]]},"properties":{"NAME":"Kansa","SUBJECTO":"Kansa","BORDERPRECISION":1}},
{"type":"Feature","geometry":{"type":"Polygon","coordinates":[[[-95.35,34.05],[-92.85,34.66],[-90.81,37.18],[-91.63,38.47],[-94.47,38.79],[-97.16,38.29],[-96.59,37.25],[-97.51,34.88],[-95.35,34.05]]]},"properties":{"NAME":"Osage","SUBJECTO":"Osage","BORDERPRECISION":1}},
{"type":"Feature","geometry":{"type":"Polygon","coordinates":[[[-90.76,32.97],[-90.71,33.38],[-90.48,33.88],[-89.1,36.95],[-90.81,37.18],[-92.85,34.66],[-91.63,32.96],[-90.76,32.97]]]},"properties":{"NAME":"Quapaw","SUBJECTO":"Quapaw","BORDERPRECISION":1}},
{"type":"Feature","geometry":{"type":"Polygon","coordinates":[[[-112.14,32.83],[-112.71,32.71],[-113.73,32.57],[-114.72,31.76],[-112.72,30.07],[-112.05,30.23],[-112.14,32.83]]]},"properties":{"NAME":"Papago","SUBJECTO":"Papago","BORDERPRECISION":1}},
{"type":"Feature","geometry":{"type":"Polygon","coordinates":[[[-117.38,34.38],[-117.97,33.71],[-117.38,33.11],[-116.44,33.27],[-116.83,33.62],[-116.88,34.16],[-117.38,34.38]]]},"properties":{"NAME":"Luiseno","SUBJECTO":"Luiseno","BORDERPRECISION":1}},
{"type":"Feature","geometry":{"type":"Polygon","coordinates":[[[-91.54,30.8],[-90.37,30.76],[-90.26,31.32],[-91.54,30.8]]]},"properties":{"NAME":"Houma","SUBJECTO":"Houma","BORDERPRECISION":1}},
{"type":"Feature","geometry":{"type":"Polygon","coordinates":[[[-71.74,41.95],[-71.79,41.64],[-70.53,42.02],[-71.74,41.95]]]},"properties":{"NAME":"Cusabo","SUBJECTO":"Cusabo","BORDERPRECISION":1}},
{"type":"Feature","geometry":{"type":"Polygon","coordinates":[[[-86.67,35.1],[-85.05,34.97],[-83.25,36.67],[-86.67,35.1]]]},"properties":{"NAME":"Yuchi","SUBJECTO":"Yuchi","BORDERPRECISION":1}},
{"type":"Feature","geometry":{"type":"Polygon","coordinates":[[[-83.25,36.67],[-85.05,34.97],[-85.04,34.97],[-85.09,34.19],[-85.01,33.92],[-82.49,35],[-80.58,36.87],[-80.22,37.64],[-81.88,37.36],[-83.25,36.67]]]},"properties":{"NAME":"Cherokee","SUBJECTO":"Cherokee","BORDERPRECISION":1}},
{"type":"Feature","geometry":{"type":"Polygon","coordinates":[[[-109.35,34.72],[-109.34,34.7],[-109.29,34.64],[-108.37,34.48],[-108.33,34.88],[-108.44,35.3],[-108.88,35.37],[-109.08,35.3],[-109.38,35.05],[-109.35,34.72]]]},"properties":{"NAME":"Zuni","SUBJECTO":"Zuni","BORDERPRECISION":1}},
{"type":"Feature","geometry":{"type":"Polygon","coordinates":[[[-104.17,35.39],[-105.36,35.83],[-105.43,35.27],[-105.79,34.77],[-106.06,34.48],[-107.13,33.22],[-107.32,33.16],[-106.45,31.76],[-103.74,29.23],[-101.27,29.67],[-100.3,31.12],[-103.37,32.39],[-103.83,34.22],[-104.17,35.39]]]},"properties":{"NAME":"Mescalero","SUBJECTO":"Mescalero","BORDERPRECISION":1}},
{"type":"Feature","geometry":{"type":"Polygon","coordinates":[[[-102.87,36.38],[-102.87,37.6],[-104.63,36.97],[-105.27,36.45],[-105.36,35.83],[-104.17,35.39],[-103.3,35.92],[-102.87,36.38]]]},"properties":{"NAME":"Jicarilla","SUBJECTO":"Jicarilla","BORDERPRECISION":1}},
{"type":"Feature","geometry":{"type":"Polygon","coordinates":[[[-116.88,34.16],[-116.83,33.62],[-116.44,33.27],[-116.35,33.29],[-115.12,33.5],[-115.06,33.51],[-114.93,33.89],[-115.24,34.01],[-116.88,34.16]]]},"properties":{"NAME":"Cahulia","SUBJECTO":"Cahulia","BORDERPRECISION":1}},
{"type":"Feature","geometry":{"type":"Polygon","coordinates":[[[-112.82,35.16],[-113.37,35.89],[-114.73,35.74],[-114.14,34.83],[-112.82,35.16]]]},"properties":{"NAME":"Walapai","SUBJECTO":"Walapai","BORDERPRECISION":1}},
{"type":"Feature","geometry":{"type":"Polygon","coordinates":[[[-105.43,35.27],[-106.14,35.54],[-106.27,35.27],[-106.49,35.12],[-105.79,34.77],[-105.43,35.27]]]},"properties":{"NAME":"Tano","SUBJECTO":"Tano","BORDERPRECISION":1}},
{"type":"Feature","geometry":{"type":"Polygon","coordinates":[[[-105.36,35.83],[-105.84,35.96],[-106.69,35.98],[-106.46,35.69],[-106.14,35.54],[-105.43,35.27],[-105.36,35.83]]]},"properties":{"NAME":"Pewa","SUBJECTO":"Pewa","BORDERPRECISION":1}},
{"type":"Feature","geometry":{"type":"Polygon","coordinates":[[[-106.38,37.18],[-104.63,36.97],[-104.16,37.78],[-105.12,40.86],[-111.87,40.57],[-113.52,38.89],[-110.34,37.17],[-108.03,36.61],[-106.38,37.18]]]},"properties":{"NAME":"Ute","SUBJECTO":"Ute","BORDERPRECISION":1}},
{"type":"Feature","geometry":{"type":"Polygon","coordinates":[[[-106.77,24.44],[-107.34,24.22],[-105.54,22.28],[-105.51,20.1],[-103.75,20.61],[-103.61,21.01],[-103.53,21.92],[-103.7,21.91],[-105.29,23.1],[-106.77,24.44]]]},"properties":{"NAME":"Nayarit","SUBJECTO":"Nayarit","BORDERPRECISION":1}},
{"type":"Feature","geometry":{"type":"Polygon","coordinates":[[[-83.85,30.01],[-82.71,28.52],[-80.6,28.52],[-81.42,30.98],[-81.89,30.98],[-82.2,30.99],[-83.74,30.38],[-83.85,30.01]]]},"properties":{"NAME":"Timucua","SUBJECTO":"Timucua","BORDERPRECISION":1}},
{"type":"Feature","geometry":{"type":"Polygon","coordinates":[[[-82.49,35],[-82.05,34.25],[-81.06,33.95],[-80.48,33.66],[-80.3,33.42],[-79.89,33.22],[-79.43,33.04],[-79.2,33.46],[-78.62,33.81],[-77.96,33.93],[-77.2,34.68],[-77.47,35.2],[-78.06,36.5],[-80.58,36.87],[-82.49,35]]]},"properties":{"NAME":"Catawba","SUBJECTO":"Catawba","BORDERPRECISION":1}},
{"type":"Feature","geometry":{"type":"Polygon","coordinates":[[[-77.8,39.94],[-78.41,39.02],[-77.73,38.7],[-77.25,38.68],[-76.34,39.45],[-77.8,39.94]]]},"properties":{"NAME":"Conoy","SUBJECTO":"Conoy","BORDERPRECISION":1}},
{"type":"Feature","geometry":{"type":"Polygon","coordinates":[[[-105.01,47.76],[-103.99,47.64],[-101.91,47.16],[-100.47,47.69],[-98.72,48.28],[-98.49,52.35],[-102.59,53.56],[-106.28,51.52],[-108.64,50.2],[-106.19,47.91],[-105.01,47.76]]]},"properties":{"NAME":"Assiniboin","SUBJECTO":"Assiniboin","BORDERPRECISION":1}},
{"type":"Feature","geometry":{"type":"MultiPolygon","coordinates":[[[[-111.55,45.51],[-107.75,44.04],[-107.31,43.98],[-111.55,45.51]]],[[[-110.18,46.78],[-109.64,49.65],[-114.03,49.62],[-113.68,48.5],[-112.59,46.67],[-113.43,45.36],[-111.55,45.51],[-110.18,46.78]]]]},"properties":{"NAME":"Blackfoot","SUBJECTO":"Blackfoot","BORDERPRECISION":1}},
{"type":"Feature","geometry":{"type":"Polygon","coordinates":[[[-106.19,47.91],[-108.64,50.2],[-109.64,49.65],[-110.18,46.78],[-106.19,47.91]]]},"properties":{"NAME":"Aaniiih","SUBJECTO":"Gros Ventre","BORDERPRECISION":1}},
{"type":"Feature","geometry":{"type":"Polygon","coordinates":[[[-97.04,40.25],[-95.26,39.96],[-95.02,40.68],[-95.49,40.82],[-96.52,41.21],[-96.72,41.19],[-97.04,40.25]]]},"properties":{"NAME":"Oto","SUBJECTO":"Oto","BORDERPRECISION":1}},
{"type":"Feature","geometry":{"type":"Polygon","coordinates":[[[-92.45,42.69],[-94.03,42.63],[-96.1,41.94],[-96.52,41.21],[-95.49,40.82],[-95.02,40.68],[-92.8,40.34],[-92.04,40.87],[-91.33,41.54],[-91.37,42.11],[-92.45,42.69]]]},"properties":{"NAME":"Iowa","SUBJECTO":"Iowa","BORDERPRECISION":1}},
{"type":"Feature","geometry":{"type":"Polygon","coordinates":[[[-96.72,41.19],[-96.52,41.21],[-96.1,41.94],[-98.01,42.76],[-98.29,42.32],[-96.72,41.19]]]},"properties":{"NAME":"Omaha","SUBJECTO":"Omaha","BORDERPRECISION":1}},
{"type":"Feature","geometry":{"type":"Polygon","coordinates":[[[-98.29,42.32],[-98.01,42.76],[-99.86,44.33],[-100.45,44.15],[-100.86,42.76],[-98.29,42.32]]]},"properties":{"NAME":"Ponca","SUBJECTO":"Ponca","BORDERPRECISION":1}},
{"type":"Feature","geometry":{"type":"Polygon","coordinates":[[[-91.14,43.93],[-91.13,43.93],[-93.53,46.1],[-96.8,47.17],[-96.51,46.64],[-97.24,45.34],[-95.91,44.63],[-95.83,44.51],[-94.03,42.63],[-92.45,42.69],[-91.14,43.93]]]},"properties":{"NAME":"Santee","SUBJECTO":"Santee","BORDERPRECISION":1}},
{"type":"Feature","geometry":{"type":"Polygon","coordinates":[[[-100.86,42.76],[-100.45,44.15],[-99.86,44.33],[-99.82,44.52],[-99.98,44.79],[-101.14,44.72],[-101.27,46.35],[-101.58,46.82],[-101.91,47.16],[-103.99,47.64],[-104.54,47.13],[-104.55,45.07],[-103.7,45.3],[-103.22,45.19],[-102.23,44.17],[-103.48,42.61],[-103.2,41.61],[-101.39,41.72],[-101.06,42.42],[-100.87,42.76],[-100.86,42.76]]]},"properties":{"NAME":"Teton","SUBJECTO":"Teton","BORDERPRECISION":1}},
{"type":"Feature","geometry":{"type":"Polygon","coordinates":[[[-101.58,46.82],[-101.27,46.35],[-100.29,46.62],[-100.31,46.9],[-101.58,46.82]]]},"properties":{"NAME":"Mandan","SUBJECTO":"Mandan","BORDERPRECISION":1}},
{"type":"Feature","geometry":{"type":"Polygon","coordinates":[[[-99.98,44.79],[-95.91,44.63],[-97.24,45.34],[-96.51,46.64],[-98.13,47.6],[-98.72,48.28],[-100.47,47.69],[-100.31,46.9],[-100.29,46.62],[-100.21,46.35],[-99.98,44.79]]]},"properties":{"NAME":"Yankontai","SUBJECTO":"Yankontai","BORDERPRECISION":1}},
{"type":"Feature","geometry":{"type":"Polygon","coordinates":[[[-88.14,44.05],[-87.92,44.35],[-87.97,44.37],[-89.32,44.91],[-90.02,45.33],[-90.44,44.4],[-90.7,44.08],[-88.14,44.05]]]},"properties":{"NAME":"Fox","SUBJECTO":"Fox","BORDERPRECISION":1}},
{"type":"Feature","geometry":{"type":"Polygon","coordinates":[[[-98.49,52.35],[-98.72,48.28],[-98.13,47.6],[-96.8,47.17],[-93.53,46.1],[-91.13,43.93],[-90.7,44.08],[-90.44,44.4],[-90.02,45.33],[-91.41,46.8],[-87.72,48.91],[-81.51,52.14],[-81.75,52.17],[-81.85,52.71],[-81.99,52.8],[-92.14,52.53],[-98.49,52.35]]]},"properties":{"NAME":"Obiwa","SUBJECTO":"Obiwa","BORDERPRECISION":1}},
{"type":"Feature","geometry":{"type":"Polygon","coordinates":[[[-87.79,42.83],[-87.85,44.61],[-87.97,44.37],[-87.92,44.35],[-88.14,44.05],[-89.1,42.89],[-87.79,42.83]]]},"properties":{"NAME":"Winebago","SUBJECTO":"Winebago","BORDERPRECISION":1}},
{"type":"Feature","geometry":{"type":"Polygon","coordinates":[[[-78.13,42.4],[-79.01,42.61],[-79.61,42.36],[-83.13,42.05],[-82.37,43.04],[-82.37,43.05],[-85.44,41.67],[-85.17,40.64],[-79.92,40.42],[-79.14,38.6],[-78.41,39.02],[-77.8,39.94],[-78.13,42.4]]]},"properties":{"NAME":"Erie","SUBJECTO":"Erie","BORDERPRECISION":1}},
{"type":"Feature","geometry":{"type":"Polygon","coordinates":[[[-83.27,45.04],[-84.74,45.86],[-84.8,45.86],[-86,44.92],[-86.25,42.52],[-85.44,41.67],[-82.37,43.05],[-83.29,45.03],[-83.27,45.04]]]},"properties":{"NAME":"Potawatomi","SUBJECTO":"Potawatomi","BORDERPRECISION":1}},
{"type":"Feature","geometry":{"type":"Polygon","coordinates":[[[-87.74,40.34],[-85.17,40.64],[-85.44,41.67],[-86.25,42.52],[-87.38,41.64],[-87.74,40.34]]]},"properties":{"NAME":"Miami","SUBJECTO":"Miami","BORDERPRECISION":1}},
{"type":"Feature","geometry":{"type":"Polygon","coordinates":[[[-87.87,44.88],[-87.64,45],[-87.62,45.03],[-84.8,45.86],[-84.74,45.86],[-83.74,46.26],[-84.56,46.54],[-87.51,46.69],[-87.87,44.88]]]},"properties":{"NAME":"Menomini","SUBJECTO":"Menomini","BORDERPRECISION":1}},
{"type":"Feature","geometry":{"type":"Polygon","coordinates":[[[-74.6,42.64],[-73.11,44.66],[-76.02,44.32],[-77.76,43.32],[-79.01,42.61],[-78.13,42.4],[-75.37,42.06],[-74.6,42.64]]]},"properties":{"NAME":"Iroquois","SUBJECTO":"Iroquois","BORDERPRECISION":1}},
{"type":"Feature","geometry":{"type":"Polygon","coordinates":[[[-83.74,30.38],[-82.2,30.99],[-82.55,32.92],[-84.34,32.75],[-85.06,30.34],[-83.74,30.38]]]},"properties":{"NAME":"Hitchiti","SUBJECTO":"Hitchiti","BORDERPRECISION":1}},
{"type":"Feature","geometry":{"type":"Polygon","coordinates":[[[-91.98,30.23],[-89.52,29.98],[-88.75,30.39],[-88.29,30.77],[-87.32,31.87],[-87.16,32.95],[-87.11,33.26],[-89.95,32.96],[-89.97,32.58],[-90.23,32.02],[-90.26,31.32],[-90.37,30.76],[-91.54,30.8],[-92.46,30.58],[-91.98,30.23]]]},"properties":{"NAME":"Choctaw","SUBJECTO":"Choctaw","BORDERPRECISION":1}},
{"type":"Feature","geometry":{"type":"Polygon","coordinates":[[[-88.37,37.09],[-89.1,36.95],[-90.48,33.88],[-90.71,33.38],[-90.76,32.97],[-89.95,32.96],[-87.11,33.26],[-86.67,35.1],[-86.69,35.11],[-88.37,37.09]]]},"properties":{"NAME":"Chicaksaw","SUBJECTO":"Chicaksaw","BORDERPRECISION":1}},
{"type":"Feature","geometry":{"type":"Polygon","coordinates":[[[-88.29,30.77],[-87.77,30.26],[-86.62,30.41],[-86.67,31.86],[-87.32,31.87],[-88.29,30.77]]]},"properties":{"NAME":"Naniaho","SUBJECTO":"Naniaho","BORDERPRECISION":1}},
{"type":"Feature","geometry":{"type":"Polygon","coordinates":[[[-86.11,32.91],[-85.01,33.92],[-85.09,34.19],[-85.04,34.97],[-85.05,34.97],[-86.23,34.97],[-86.67,35.1],[-87.11,33.26],[-87.16,32.95],[-86.11,32.91]]]},"properties":{"NAME":"Knucati","SUBJECTO":"Knucati","BORDERPRECISION":1}},
{"type":"Feature","geometry":{"type":"Polygon","coordinates":[[[-119.04,35.22],[-119.4,35.28],[-119.74,35.57],[-120.95,35.49],[-118.67,34.1],[-118.6,34.6],[-119.04,35.22]]]},"properties":{"NAME":"Chumash","SUBJECTO":"Chumash","BORDERPRECISION":1}},
{"type":"Feature","geometry":{"type":"Polygon","coordinates":[[[-123.55,44.73],[-123.43,44.27],[-123.14,43.51],[-122.84,43.5],[-122,43.51],[-122.01,44.34],[-122.11,44.35],[-122.82,45.08],[-123,45.63],[-123.35,45.54],[-123.49,45.02],[-123.55,44.73]]]},"properties":{"NAME":"Kalapuya","SUBJECTO":"Kalapuya","BORDERPRECISION":1}},
{"type":"Feature","geometry":{"type":"Polygon","coordinates":[[[-117.39,44.79],[-116.12,44.71],[-114.21,45.53],[-116.43,46.8],[-117.1,46.78],[-117.85,46.35],[-117.57,46.02],[-117.71,45.64],[-117.39,44.79]]]},"properties":{"NAME":"Nez Perce","SUBJECTO":"Nez Perce","BORDERPRECISION":1}},
{"type":"Feature","geometry":{"type":"Polygon","coordinates":[[[-117.36,47.9],[-116.15,47.83],[-115.63,48.3],[-117.29,48.9],[-117.99,48.37],[-117.89,48.28],[-117.36,47.9]]]},"properties":{"NAME":"Kalispel","SUBJECTO":"Kalispel","BORDERPRECISION":1}},
{"type":"Feature","geometry":{"type":"Polygon","coordinates":[[[-113.43,45.36],[-112.59,46.67],[-113.68,48.5],[-115.63,48.3],[-116.15,47.83],[-116.43,46.8],[-114.21,45.53],[-113.43,45.36]]]},"properties":{"NAME":"Flathead","SUBJECTO":"Flathead","BORDERPRECISION":1}},
{"type":"Feature","geometry":{"type":"Polygon","coordinates":[[[-120.41,46.96],[-121.38,47.01],[-121.51,46.75],[-120.6,45.71],[-120.59,45.72],[-120.17,45.8],[-118.95,46.03],[-119.05,46.75],[-120.07,46.94],[-120.41,46.96]]]},"properties":{"NAME":"Yakima","SUBJECTO":"Yakima","BORDERPRECISION":1}},
{"type":"Feature","geometry":{"type":"Polygon","coordinates":[[[-118.95,46.03],[-120.17,45.8],[-119.47,44.77],[-119,44.93],[-118.95,46.03]]]},"properties":{"NAME":"Umatilla","SUBJECTO":"Umatilla","BORDERPRECISION":1}},
{"type":"Feature","geometry":{"type":"Polygon","coordinates":[[[-122.01,44.34],[-119.47,44.77],[-120.17,45.8],[-120.59,45.72],[-121,45.63],[-121.11,45.31],[-121.87,45.1],[-122.11,44.35],[-122.01,44.34]]]},"properties":{"NAME":"Tenimo","SUBJECTO":"Tenimo","BORDERPRECISION":1}},
{"type":"Feature","geometry":{"type":"Polygon","coordinates":[[[-120.39,42.09],[-121.38,42.33],[-122.17,42.02],[-122.19,42],[-121.97,41.4],[-121.3,41.58],[-120.5,41.81],[-120.39,42.09]]]},"properties":{"NAME":"Modoc","SUBJECTO":"Modoc","BORDERPRECISION":1}},
{"type":"Feature","geometry":{"type":"Polygon","coordinates":[[[-121.18,40.61],[-121.41,40.58],[-121.98,40.06],[-121.99,39.6],[-121.04,39.59],[-120.39,39.66],[-120.19,40.1],[-120.5,40.67],[-121.18,40.61]]]},"properties":{"NAME":"Maiou","SUBJECTO":"Maiou","BORDERPRECISION":1}},
{"type":"Feature","geometry":{"type":"Polygon","coordinates":[[[-121.51,46.75],[-121.78,46.65],[-121.99,46.36],[-122.38,45.58],[-121.9,45.68],[-121.88,45.69],[-121,45.63],[-120.59,45.72],[-120.6,45.71],[-121.51,46.75]]]},"properties":{"NAME":"Kijkitat","SUBJECTO":"Kijkitat","BORDERPRECISION":1}},
{"type":"Feature","geometry":{"type":"Polygon","coordinates":[[[-117.89,48.28],[-118.78,47.58],[-118.85,46.72],[-117.43,47.01],[-117.36,47.9],[-117.89,48.28]]]},"properties":{"NAME":"Spokane","SUBJECTO":"Spokane","BORDERPRECISION":1}},
{"type":"Feature","geometry":{"type":"Polygon","coordinates":[[[-119.37,37.97],[-118.34,37.24],[-118.01,36.62],[-116.12,44.71],[-117.39,44.79],[-119,44.93],[-119.47,44.77],[-122.01,44.34],[-122,43.51],[-121.89,43.31],[-121.29,43.17],[-120.39,42.09],[-120.5,41.81],[-120.43,40.97],[-120.5,40.67],[-120.19,40.1],[-119.48,38.32],[-119.37,37.97]]]},"properties":{"NAME":"Northern Paiute","SUBJECTO":"Northern Paiute","BORDERPRECISION":1}},
{"type":"Feature","geometry":{"type":"Polygon","coordinates":[[[-110.34,37.17],[-113.52,38.89],[-115.39,38.27],[-115.96,36.47],[-114.93,35.56],[-114.73,35.74],[-113.37,35.89],[-111.2,35.47],[-111.18,35.48],[-110.46,36.24],[-110.34,37.17]]]},"properties":{"NAME":"Southern Paiute","SUBJECTO":"Southern Paiute","BORDERPRECISION":1}},
{"type":"Feature","geometry":{"type":"Polygon","coordinates":[[[-111.88,35.11],[-111.2,35.47],[-113.37,35.89],[-112.82,35.16],[-111.88,35.11]]]},"properties":{"NAME":"Havasupai","SUBJECTO":"Havasupai","BORDERPRECISION":1}},
{"type":"Feature","geometry":{"type":"Polygon","coordinates":[[[-114.1,28.07],[-114.48,27.24],[-112.41,26.19],[-112.17,25.01],[-110.8,24.88],[-112.76,27.88],[-114.1,28.07]]]},"properties":{"NAME":"Cochimà","SUBJECTO":"CochimÃ­","BORDERPRECISION":1}},
{"type":"Feature","geometry":{"type":"Polygon","coordinates":[[[-111.77,33.49],[-112.14,32.83],[-112.05,30.23],[-110.37,30.61],[-110.44,32.13],[-111.23,33.55],[-111.77,33.49]]]},"properties":{"NAME":"Pima","SUBJECTO":"Pima","BORDERPRECISION":1}},
{"type":"Feature","geometry":{"type":"Polygon","coordinates":[[[-109.35,34.68],[-109.96,32.39],[-110.44,32.13],[-110.37,30.61],[-106.45,31.76],[-107.32,33.16],[-107.37,33.51],[-107.08,34.45],[-108.37,34.48],[-109.29,34.64],[-109.34,34.7],[-109.35,34.72],[-109.35,34.68]]]},"properties":{"NAME":"Chiricahua","SUBJECTO":"Chiricahua","BORDERPRECISION":1}},
{"type":"Feature","geometry":{"type":"Polygon","coordinates":[[[-77.2,34.68],[-77.06,35.21],[-77.13,35.32],[-77.47,35.2],[-77.2,34.68]]]},"properties":{"NAME":"Catawba","SUBJECTO":"Catawba","BORDERPRECISION":1}},
{"type":"Feature","geometry":{"type":"Polygon","coordinates":[[[-80.58,36.87],[-78.06,36.5],[-78.05,36.93],[-77.52,37.18],[-77.73,38.7],[-78.41,39.02],[-79.14,38.6],[-80.22,37.64],[-80.58,36.87]]]},"properties":{"NAME":"Tutelo","SUBJECTO":"Tutelo","BORDERPRECISION":1}},
{"type":"Feature","geometry":{"type":"Polygon","coordinates":[[[-79.89,33.22],[-81.06,32.43],[-80.88,32.06],[-79.43,33.04],[-79.89,33.22]]]},"properties":{"NAME":"Cusabo","SUBJECTO":"Cusabo","BORDERPRECISION":1}},
{"type":"Feature","geometry":{"type":"Polygon","coordinates":[[[-112.76,27.88],[-114.68,30.14],[-114.9,31.61],[-115.4,31.91],[-116.26,32.43],[-116.62,31.88],[-115.6,29.69],[-114.1,28.07],[-112.76,27.88]]]},"properties":{"NAME":"Guachimis","SUBJECTO":"Guachimis","BORDERPRECISION":1}},
{"type":"Feature","geometry":{"type":"Polygon","coordinates":[[[-116.35,33.29],[-116.26,32.43],[-115.4,31.91],[-115.12,33.5],[-116.35,33.29]]]},"properties":{"NAME":"Kamia","SUBJECTO":"Kamia","BORDERPRECISION":1}},
{"type":"Feature","geometry":{"type":"Polygon","coordinates":[[[-114.33,33.19],[-115.06,33.51],[-115.12,33.5],[-115.4,31.91],[-114.9,31.61],[-114.72,31.76],[-113.73,32.57],[-113.83,32.95],[-114.33,33.19]]]},"properties":{"NAME":"Yuma","SUBJECTO":"Yuma","BORDERPRECISION":1}},
{"type":"Feature","geometry":{"type":"Polygon","coordinates":[[[-120.9,36.58],[-121.34,36.46],[-121.65,36.1],[-120.95,35.49],[-119.74,35.57],[-120.9,36.58]]]},"properties":{"NAME":"Saunan","SUBJECTO":"Saunan","BORDERPRECISION":1}},
{"type":"Feature","geometry":{"type":"Polygon","coordinates":[[[-121.94,38.18],[-122.31,38.22],[-122.49,38.16],[-121.98,36.53],[-121.34,36.46],[-120.9,36.58],[-121.82,37.88],[-121.94,38.18]]]},"properties":{"NAME":"Costanoan","SUBJECTO":"Costanoan","BORDERPRECISION":1}},
{"type":"Feature","geometry":{"type":"Polygon","coordinates":[[[-120.95,38.89],[-121.04,39.59],[-121.99,39.6],[-122.79,39.57],[-122.78,39.53],[-122.72,38.99],[-122.35,38.52],[-122.31,38.22],[-121.94,38.18],[-120.95,38.89]]]},"properties":{"NAME":"Patwin","SUBJECTO":"Patwin","BORDERPRECISION":1}},
{"type":"Feature","geometry":{"type":"Polygon","coordinates":[[[-156.03,20.2],[-156.03,19.11],[-154.95,19.48],[-156.03,20.2]]]},"properties":{"NAME":"Polynesians","SUBJECTO":"Polynesians","BORDERPRECISION":1}},
{"type":"Feature","geometry":{"type":"Polygon","coordinates":[[[-153.17,59.74],[-161,63.63],[-165.43,62.43],[-165.9,61.27],[-162,58.83],[-157.15,58.69],[-154.1,59.41],[-153.17,59.74]]]},"properties":{"NAME":"Yup'ik & Cup'ik","SUBJECTO":"Yup'ik & Cup'ik","BORDERPRECISION":1}},
{"type":"Feature","geometry":{"type":"Polygon","coordinates":[[[-157.15,58.69],[-154.65,58.08],[-154.1,59.41],[-157.15,58.69]]]},"properties":{"NAME":"Suspiaq","SUBJECTO":"Suspiaq","BORDERPRECISION":1}},
{"type":"Feature","geometry":{"type":"Polygon","coordinates":[[[-77.93,-3.1],[-77.9,-3.11],[-77.85,-1.67],[-77.94,-1.72],[-78.56,-2.13],[-78.39,-2.91],[-77.93,-3.1]]]},"properties":{"NAME":"Shuar","SUBJECTO":"Shuar","BORDERPRECISION":1}},
{"type":"Feature","geometry":{"type":"Polygon","coordinates":[[[-160.93,63.95],[-157.18,64.01],[-138.3,69.14],[-156.9,71.35],[-164.07,69.06],[-163.74,67.22],[-168.18,65.69],[-166.59,64.73],[-160.93,63.95]]]},"properties":{"NAME":"Inupiaq","SUBJECTO":"Inupiaq","BORDERPRECISION":1}},
{"type":"Feature","geometry":{"type":"Polygon","coordinates":[[[-130.08,57.57],[-132.05,59.85],[-134.8,60.55],[-145.51,62.58],[-147.07,60.91],[-144.41,60.09],[-139.57,59.9],[-137.58,58.6],[-134.12,58.24],[-129.97,53.91],[-128.43,55.67],[-130.08,57.57]]]},"properties":{"NAME":"Eyaq","SUBJECTO":"Eyaq","BORDERPRECISION":1}},
{"type":"Feature","geometry":{"type":"Polygon","coordinates":[[[-103.75,20.61],[-102.76,20.46],[-101.94,20.9],[-102.37,21.58],[-103.61,21.01],[-103.75,20.61]]]},"properties":{"NAME":"Tecuexe","SUBJECTO":"Tecuexe","BORDERPRECISION":1}},
{"type":"Feature","geometry":{"type":"Polygon","coordinates":[[[-103.53,21.92],[-102.8,22.03],[-102.12,22.68],[-102.79,24.97],[-103.51,25.7],[-103.76,26.38],[-104.69,26.44],[-104.6,23.49],[-103.7,21.91],[-103.53,21.92]]]},"properties":{"NAME":"Zacatecs","SUBJECTO":"Zacatecs","BORDERPRECISION":1}},
{"type":"Feature","geometry":{"type":"Polygon","coordinates":[[[-103.61,21.01],[-102.37,21.58],[-102.8,22.03],[-103.53,21.92],[-103.61,21.01]]]},"properties":{"NAME":"Caxcane","SUBJECTO":"Caxcane","BORDERPRECISION":1}},
{"type":"Feature","geometry":{"type":"Polygon","coordinates":[[[-102.12,22.68],[-100.48,21.6],[-100.18,21.94],[-99.85,23.31],[-99.95,23.59],[-100.63,24.19],[-99.66,24.46],[-99.75,24.71],[-101.65,25.76],[-102.79,24.97],[-102.12,22.68]]]},"properties":{"NAME":"Guachichiles","SUBJECTO":"Guachichiles","BORDERPRECISION":1}},
{"type":"Feature","geometry":{"type":"Polygon","coordinates":[[[-101.94,20.9],[-101.23,20.78],[-100.33,21.09],[-100.48,21.6],[-102.12,22.68],[-102.8,22.03],[-102.37,21.58],[-101.94,20.9]]]},"properties":{"NAME":"Guamar / Pecchichitane","SUBJECTO":"Guamar / Pecchichitane","BORDERPRECISION":1}},
{"type":"Feature","geometry":{"type":"Polygon","coordinates":[[[-103.7,21.91],[-104.6,23.49],[-105.21,23.57],[-105.29,23.1],[-103.7,21.91]]]},"properties":{"NAME":"Xecora","SUBJECTO":"Xecora","BORDERPRECISION":1}},
{"type":"Feature","geometry":{"type":"Polygon","coordinates":[[[-70.68,8.56],[-69.81,8.49],[-69.23,9.79],[-64.91,9.29],[-62.3,9.72],[-67.98,10.54],[-69.87,11.76],[-69.85,11.71],[-69.79,11.69],[-71.1,11.12],[-71.46,10.88],[-71.5,10.77],[-71.5,10.65],[-71.44,10.47],[-71.09,9.92],[-71.1,9.33],[-72.38,11.81],[-75.45,10.63],[-76.76,8.69],[-79.5,9.64],[-82.23,9.05],[-83.91,11.25],[-83.31,14.77],[-84.65,15.93],[-88.66,15.73],[-88.3,17.64],[-90,19.38],[-94.24,18.24],[-96.01,18.93],[-97.88,22.48],[-99.08,22.39],[-99.51,21.8],[-100.33,21.09],[-101.23,20.78],[-102.76,20.46],[-103.75,20.61],[-105.51,20.1],[-103.49,18.35],[-97.88,16.05],[-94.08,16.11],[-91.52,14.06],[-87.95,13.17],[-86.01,11.37],[-85.78,10.14],[-81.66,8.16],[-80.81,7.27],[-79.07,9.03],[-77.4,6.67],[-75.25,7.89],[-73.24,10.2],[-70.68,8.56]]]},"properties":{"NAME":"Vice Royalty of New Spain","SUBJECTO":"Vice Royalty of New Spain","BORDERPRECISION":1}},
{"type":"Feature","geometry":{"type":"Polygon","coordinates":[[[-97.88,22.48],[-97.26,25.81],[-97.64,26.84],[-99.14,24.92],[-98.97,24.3],[-98.87,23.67],[-98.91,23.22],[-99.08,22.39],[-97.88,22.48]]]},"properties":{"NAME":"Tamalipueca","SUBJECTO":"Tamalipueca","BORDERPRECISION":1}},
{"type":"Feature","geometry":{"type":"Polygon","coordinates":[[[-101.27,29.67],[-103.74,29.23],[-106.45,31.76],[-110.37,30.61],[-112.05,30.23],[-112.72,30.07],[-111.24,28.09],[-108.76,28.15],[-107.84,26.48],[-105.23,27.2],[-103.43,27.7],[-102.05,28.08],[-101.23,28.3],[-100.82,29.3],[-101.27,29.67]]]},"properties":{"NAME":"Apache","SUBJECTO":"Apache","BORDERPRECISION":1}},
{"type":"Feature","geometry":{"type":"Polygon","coordinates":[[[-111.24,28.09],[-108.04,25.02],[-107.7,26.26],[-107.84,26.48],[-108.76,28.15],[-111.24,28.09]]]},"properties":{"NAME":"Cahitas","SUBJECTO":"Cahitas","BORDERPRECISION":1}},
{"type":"Feature","geometry":{"type":"Polygon","coordinates":[[[-104.69,26.44],[-105.23,27.2],[-107.84,26.48],[-107.7,26.26],[-106,24.71],[-105.21,23.57],[-104.6,23.49],[-104.69,26.44]]]},"properties":{"NAME":"Tepehuane","SUBJECTO":"Tepehuane","BORDERPRECISION":1}},
{"type":"Feature","geometry":{"type":"Polygon","coordinates":[[[-106.77,24.44],[-106,24.71],[-107.7,26.26],[-108.04,25.02],[-107.34,24.22],[-106.77,24.44]]]},"properties":{"NAME":"Acaxea","SUBJECTO":"Acaxea","BORDERPRECISION":1}},
{"type":"Feature","geometry":{"type":"Polygon","coordinates":[[[-103.76,26.38],[-103.14,26.66],[-103.43,27.7],[-105.23,27.2],[-104.69,26.44],[-103.76,26.38]]]},"properties":{"NAME":"Chisos","SUBJECTO":"Chisos","BORDERPRECISION":1}},
{"type":"Feature","geometry":{"type":"Polygon","coordinates":[[[-100.48,21.6],[-100.33,21.09],[-99.51,21.8],[-100.18,21.94],[-100.48,21.6]]]},"properties":{"NAME":"Otomies","SUBJECTO":"Otomies","BORDERPRECISION":1}},
{"type":"Feature","geometry":{"type":"Polygon","coordinates":[[[-102.79,24.97],[-101.65,25.76],[-101.84,26.5],[-101.86,26.5],[-103.51,25.7],[-102.79,24.97]]]},"properties":{"NAME":"Irritilas","SUBJECTO":"Irritilas","BORDERPRECISION":1}},
{"type":"Feature","geometry":{"type":"Polygon","coordinates":[[[-103.43,27.7],[-103.14,26.66],[-101.86,26.5],[-101.84,26.5],[-101.85,26.51],[-102.05,28.08],[-103.43,27.7]]]},"properties":{"NAME":"Toboso","SUBJECTO":"Toboso","BORDERPRECISION":1}},
{"type":"Feature","geometry":{"type":"Polygon","coordinates":[[[-103.51,25.7],[-101.86,26.5],[-103.14,26.66],[-103.76,26.38],[-103.51,25.7]]]},"properties":{"NAME":"Lagunero","SUBJECTO":"Lagunero","BORDERPRECISION":1}},
{"type":"Feature","geometry":{"type":"Polygon","coordinates":[[[-98.17,28.25],[-100.33,28.72],[-100.82,29.3],[-101.23,28.3],[-102.05,28.08],[-101.85,26.51],[-101.84,26.5],[-101.65,25.76],[-99.75,24.71],[-99.14,24.92],[-97.64,26.84],[-97.55,27.92],[-98.17,28.25]]]},"properties":{"NAME":"Caohuiltecs","SUBJECTO":"Caohuiltecs","BORDERPRECISION":1}},
{"type":"Feature","geometry":{"type":"Polygon","coordinates":[[[-99.66,24.46],[-98.97,24.3],[-99.14,24.92],[-99.75,24.71],[-99.66,24.46]]]},"properties":{"NAME":"Tancalba","SUBJECTO":"Tancalba","BORDERPRECISION":1}},
{"type":"Feature","geometry":{"type":"Polygon","coordinates":[[[-99.85,23.31],[-98.91,23.22],[-98.87,23.67],[-99.25,23.93],[-99.31,23.68],[-99.89,23.86],[-99.95,23.59],[-99.85,23.31]]]},"properties":{"NAME":"Pisones","SUBJECTO":"Pisones","BORDERPRECISION":1}},
{"type":"Feature","geometry":{"type":"Polygon","coordinates":[[[-99.95,23.59],[-99.89,23.86],[-99.25,23.93],[-98.87,23.67],[-98.97,24.3],[-99.66,24.46],[-100.63,24.19],[-99.95,23.59]]]},"properties":{"NAME":"Janabres","SUBJECTO":"Janabres","BORDERPRECISION":1}},
{"type":"Feature","geometry":{"type":"Polygon","coordinates":[[[-99.25,23.93],[-99.89,23.86],[-99.31,23.68],[-99.25,23.93]]]},"properties":{"NAME":"Maratines","SUBJECTO":"Maratines","BORDERPRECISION":1}},
{"type":"Feature","geometry":{"type":"Polygon","coordinates":[[[-85.82,31.86],[-85.42,31.49],[-85.26,30.63],[-85.08,30.31],[-85.06,30.34],[-84.34,32.75],[-82.55,32.92],[-82.2,30.99],[-81.89,30.98],[-81.06,32.43],[-79.89,33.22],[-80.3,33.42],[-80.48,33.66],[-81.06,33.95],[-82.05,34.25],[-82.49,35],[-85.01,33.92],[-86.11,32.91],[-85.82,31.86]]]},"properties":{"NAME":"Muskogee","SUBJECTO":"Muskogee","BORDERPRECISION":1}},
{"type":"Feature","geometry":{"type":"Polygon","coordinates":[[[140.01,41.38],[143.21,41.93],[145.06,43.79],[141.88,45.44],[140.01,41.38]]]},"properties":{"NAME":"Ainu","SUBJECTO":"Ainu","BORDERPRECISION":1}},
{"type":"Feature","geometry":{"type":"MultiPolygon","coordinates":[[[[130.58,30.91],[131.67,33.31],[129.34,33.15],[130.58,30.91]]],[[[136.81,37.31],[134.43,34.63],[140.32,35.03],[140.87,37.92],[136.81,37.31]]]]},"properties":{"NAME":"Japan (Warring States)","SUBJECTO":"Japan (Warring States)","BORDERPRECISION":1}},
{"type":"Feature","geometry":{"type":"Polygon","coordinates":[[[9.57,46.04],[8.31,46.4],[8.29,46.38],[8.24,46.36],[8.13,46.29],[8.09,46.27],[8.09,46.26],[8.15,46.15],[7.87,45.92],[8.22,44.67],[9.7,44.46],[10.51,45.37],[9.57,46.04]]]},"properties":{"NAME":"Milan","SUBJECTO":"Milan","BORDERPRECISION":1}},
{"type":"Feature","geometry":{"type":"MultiPolygon","coordinates":[[[[13.37,45.69],[14.35,45.32],[16.12,45.58],[18.93,49.62],[15.76,52.27],[17.66,54.69],[14.47,53.88],[10.14,54.34],[8.88,54.23],[5.54,52.25],[5.7,49.39],[5.33,46.4],[6.18,46.3],[6.59,46.52],[6.92,46.4],[7.47,47.48],[7.57,47.58],[7.73,47.6],[7.73,47.52],[8.51,47.6],[8.94,47.66],[9.62,47.5],[9.52,47.07],[9.81,47.08],[10.56,46.5],[13.37,45.69]]],[[[6.86,46.29],[6.81,46.39],[6.24,46.29],[6.82,46.17],[6.86,46.29]]]]},"properties":{"NAME":"Holy Roman Empire","SUBJECTO":"Holy Roman Empire","BORDERPRECISION":1}},
{"type":"Feature","geometry":{"type":"Polygon","coordinates":[[[8.22,44.67],[7.87,45.92],[7.83,45.93],[7.34,45.91],[7.2,45.86],[7.18,45.87],[7.05,45.92],[6.89,46.04],[6.87,46.06],[6.9,46.12],[6.85,46.13],[6.8,46.14],[6.82,46.17],[6.24,46.29],[6.18,46.3],[5.33,46.4],[7.4,43.76],[7.47,43.81],[8.22,44.67]]]},"properties":{"NAME":"Savoy","SUBJECTO":"Savoy","BORDERPRECISION":1}},
{"type":"Feature","geometry":{"type":"MultiPolygon","coordinates":[[[[10.56,46.5],[9.81,47.08],[9.52,47.07],[9.62,47.5],[8.94,47.66],[8.51,47.6],[7.73,47.52],[7.73,47.6],[7.57,47.58],[7.47,47.48],[6.92,46.4],[6.87,46.4],[6.87,46.39],[6.88,46.39],[6.94,46.31],[6.96,46.28],[7.03,46.18],[8.18,46.47],[8.31,46.4],[9.57,46.04],[10.56,46.5]]],[[[7.83,45.93],[7.58,45.99],[7.34,45.91],[7.83,45.93]]],[[[6.89,46.04],[6.88,46.05],[6.9,46.13],[6.85,46.13],[6.9,46.12],[6.87,46.06],[6.89,46.04]]]]},"properties":{"NAME":"Swiss Confederation","SUBJECTO":"Swiss Confederation","BORDERPRECISION":1}},
{"type":"Feature","geometry":{"type":"Polygon","coordinates":[[[-72.26,41.13],[-73.59,40.92],[-73.56,40.65],[-72.54,40.83],[-72.26,41.13]]]},"properties":{"NAME":"Montana","SUBJECTO":"Montana","BORDERPRECISION":1}},
{"type":"Feature","geometry":{"type":"Polygon","coordinates":[[[-85.08,30.31],[-85.26,30.63],[-85.42,31.49],[-85.82,31.86],[-86.67,31.86],[-86.62,30.41],[-85.3,29.66],[-85.08,30.31]]]},"properties":{"NAME":"Chatot","SUBJECTO":"Chatot","BORDERPRECISION":1}},
{"type":"Feature","geometry":{"type":"Polygon","coordinates":[[[-121.19,48.59],[-121.05,48.77],[-121.18,49.02],[-121.67,48.98],[-121.64,48.64],[-121.19,48.59]]]},"properties":{"NAME":"Thompson","SUBJECTO":"Thompson","BORDERPRECISION":1}},
{"type":"Feature","geometry":{"type":"Polygon","coordinates":[[[8.09,46.26],[8.09,46.27],[8.13,46.29],[8.24,46.36],[8.29,46.38],[8.31,46.4],[8.18,46.47],[7.03,46.18],[6.96,46.28],[6.94,46.31],[6.88,46.39],[6.87,46.39],[6.87,46.4],[6.86,46.4],[6.86,46.39],[6.81,46.39],[6.86,46.29],[6.82,46.17],[6.8,46.14],[6.85,46.13],[6.9,46.13],[6.88,46.05],[6.89,46.04],[7.05,45.92],[7.18,45.87],[7.2,45.86],[7.34,45.91],[7.58,45.99],[7.83,45.93],[7.87,45.92],[8.15,46.15],[8.09,46.26]]]},"properties":{"NAME":"Republic of the Seven Zenden","SUBJECTO":"Republic of the Seven Zenden","BORDERPRECISION":1}},
{"type":"Feature","geometry":{"type":"Polygon","coordinates":[[[142.34,-10.92],[141.68,-12.47],[141.71,-15.23],[140.8,-17.56],[139.25,-17.43],[135.39,-14.9],[136.66,-12.62],[133.56,-11.95],[130.46,-12.76],[129.2,-14.99],[126.85,-13.78],[122.74,-16.58],[120.87,-19.68],[116.42,-20.84],[113.63,-22.57],[113.43,-26.57],[115.75,-32.21],[115.05,-34.42],[118.21,-35.09],[119.77,-34.12],[123.62,-33.92],[126.06,-32.43],[131.28,-31.63],[133.84,-32.34],[135.53,-35.05],[137.46,-33.31],[139.37,-35.61],[140.01,-37.64],[143.36,-38.97],[149.5,-37.93],[151.36,-33.52],[152.97,-31.42],[153.49,-28.84],[153.07,-26.23],[150.75,-22.81],[149.1,-21.06],[146.32,-19.08],[145.18,-15.05],[143.74,-14.47],[142.34,-10.92]]]},"properties":{"NAME":"Australian aboriginal hunter-gatherers","SUBJECTO":"Australian aboriginal hunter-gatherers","BORDERPRECISION":1}},
{"type":"Feature","geometry":{"type":"Polygon","coordinates":[[[146.71,-43.72],[148.27,-41.09],[144.78,-40.84],[146.71,-43.72]]]},"properties":{"NAME":"Tasmanian hunter-gatherers","SUBJECTO":"Tasmanian hunter-gatherers","BORDERPRECISION":1}},
{"type":"Feature","geometry":{"type":"MultiPolygon","coordinates":[[[[-111.98,58.29],[-122.49,54.24],[-114.47,52],[-106.28,51.52],[-102.59,53.56],[-111.98,58.29]]],[[[-81.99,52.8],[-81.85,52.71],[-82.07,52.86],[-82.34,52.98],[-81.99,52.8]]],[[[-81.51,52.14],[-80.36,51.3],[-79.34,50.84],[-80.36,51.3],[-80.88,51.91],[-81.31,52.12],[-81.75,52.17],[-81.51,52.14]]]]},"properties":{"NAME":"Subarctic forest hunter-gatherers","SUBJECTO":"Subarctic forest hunter-gatherers","BORDERPRECISION":1}},
{"type":"Feature","geometry":{"type":"Polygon","coordinates":[[[-112.45,58.52],[-118.2,62.71],[-124.94,64.83],[-132.3,62.54],[-133.48,62.93],[-129.76,69.66],[-138.3,69.14],[-157.18,64.01],[-160.93,63.95],[-161,63.63],[-153.17,59.74],[-151.78,59.96],[-148.76,60.68],[-147.07,60.91],[-145.51,62.58],[-134.8,60.55],[-133.46,61.54],[-128.7,60.74],[-130.08,57.57],[-128.43,55.67],[-129.97,53.91],[-128.81,53.76],[-128.43,52.94],[-128.08,52.94],[-127.87,52.41],[-125.76,53.13],[-122.49,54.24],[-111.98,58.29],[-112.45,58.52]]]},"properties":{"NAME":"Athabaskan","SUBJECTO":"Athabaskan","BORDERPRECISION":1}},
{"type":"Feature","geometry":{"type":"Polygon","coordinates":[[[-61.12,9.17],[-62.3,9.72],[-64.91,9.29],[-69.23,9.79],[-69.81,8.49],[-65.97,8.18],[-63.07,8.33],[-61.12,9.17]]]},"properties":{"NAME":"Caribbean hunter-gatherers","SUBJECTO":"Caribbean hunter-gatherers","BORDERPRECISION":1}},
{"type":"Feature","geometry":{"type":"Polygon","coordinates":[[[-64.19,-14.69],[-60.27,-13.81],[-53.12,-14.28],[-46.28,-3.55],[-49.07,-4.74],[-56.33,-4.33],[-58.44,-2.29],[-57.97,-0.59],[-55.86,1.7],[-58.56,3.98],[-62.66,4.15],[-66.41,3.04],[-70.16,-5.74],[-69.05,-8.24],[-64.19,-14.69]]]},"properties":{"NAME":"Amazon hunter-gatherers","SUBJECTO":"Amazon hunter-gatherers","BORDERPRECISION":1}},
{"type":"Feature","geometry":{"type":"Polygon","coordinates":[[[-65.78,-47.71],[-67.47,-46.27],[-65.66,-44.94],[-65.63,-44.72],[-64.7,-43.2],[-65.09,-42.78],[-64.17,-42.65],[-64,-42.85],[-63.62,-42.57],[-64.12,-42.38],[-64.99,-42.19],[-64.92,-41.73],[-65.13,-41.24],[-62.26,-40.8],[-62.47,-40.37],[-62.11,-39.69],[-62.35,-39.33],[-57.81,-38.39],[-56.7,-36.94],[-57.37,-36.15],[-57.24,-35.58],[-58.52,-34.59],[-54.07,-34.65],[-52.14,-31.74],[-57.35,-29.68],[-63.56,-30.04],[-67.48,-31.66],[-67.65,-33.58],[-69.44,-37.16],[-72.07,-40.55],[-70.58,-40.58],[-72.19,-45.99],[-71.17,-51.56],[-69.11,-51.35],[-69.04,-50.56],[-67.83,-49.97],[-67.58,-49.06],[-65.78,-47.71]]]},"properties":{"NAME":"Pampas cultures","SUBJECTO":"Pampas cultures","BORDERPRECISION":1}},
{"type":"Feature","geometry":{"type":"Polygon","coordinates":[[[-53.12,-14.28],[-60.27,-13.81],[-64.19,-14.69],[-65.49,-19.14],[-67.15,-25.22],[-68.26,-28.54],[-68.41,-30.48],[-67.48,-31.66],[-63.56,-30.04],[-57.35,-29.68],[-52.14,-31.74],[-50.61,-30.3],[-51.12,-31.47],[-49.94,-29.63],[-48.8,-28.48],[-49.84,-26.8],[-49.49,-24.55],[-48.47,-23.75],[-53.12,-14.28]]]},"properties":{"NAME":"Savanna hunter-gatherers","SUBJECTO":"Savanna hunter-gatherers","BORDERPRECISION":1}},
{"type":"Feature","geometry":{"type":"Polygon","coordinates":[[[-71.52,-32.18],[-71.62,-33.71],[-72.63,-35.65],[-73.44,-37.9],[-73.67,-41.48],[-73.46,-41.79],[-72.73,-41.55],[-72.07,-40.55],[-69.44,-37.16],[-67.65,-33.58],[-67.48,-31.66],[-68.41,-30.48],[-69.37,-34.44],[-71.03,-37.21],[-73.14,-37.16],[-72.63,-35.65],[-71.62,-33.71],[-71.41,-32.73],[-71.52,-32.18]]]},"properties":{"NAME":"Andean hunter-gatherers","SUBJECTO":"Andean hunter-gatherers","BORDERPRECISION":1}},
{"type":"Feature","geometry":{"type":"MultiPolygon","coordinates":[[[[-65.26,-54.82],[-68.71,-53.23],[-68.31,-52.94],[-70.33,-53.47],[-69.44,-53.41],[-70.04,-53.99],[-69.06,-54.6],[-70.5,-54.92],[-65.26,-54.82]]],[[[-73.46,-42.26],[-74.17,-42.35],[-74.24,-43.37],[-73.7,-43.39],[-73.83,-42.56],[-73.46,-42.26]]],[[[-72.84,-52.65],[-73.24,-52.57],[-73.08,-53.03],[-72.84,-52.65]]],[[[-72.59,-41.62],[-72.61,-42],[-72.47,-42.03],[-72.53,-43.06],[-72.76,-44.37],[-72.58,-44.44],[-73.14,-45.34],[-73.05,-45.38],[-73.97,-46.71],[-74,-46.49],[-74.43,-46.53],[-74.04,-46.09],[-75.44,-46.63],[-75.02,-46.55],[-74.86,-46.82],[-73.98,-47.03],[-74.38,-47.42],[-74.3,-47.76],[-73.36,-47.97],[-73.96,-49.24],[-73.93,-49.99],[-73.93,-50.51],[-73.53,-50.43],[-74.21,-51.02],[-73.68,-51.23],[-73.78,-51.61],[-73.26,-51.71],[-73.11,-52.1],[-72.45,-52.16],[-72.21,-52.57],[-71.68,-52.64],[-72.75,-53.14],[-71.15,-52.96],[-71.44,-53.88],[-68.46,-52.42],[-69.08,-51.5],[-69.11,-51.35],[-71.17,-51.56],[-72.19,-45.99],[-70.58,-40.58],[-72.07,-40.55],[-72.73,-41.55],[-72.59,-41.62]]]]},"properties":{"NAME":"Patagonian shellfish and marine mammal hunters","SUBJECTO":"Patagonian shellfish and marine mammal hunters","BORDERPRECISION":1}},
{"type":"Feature","geometry":{"type":"MultiPolygon","coordinates":[[[[-120.41,46.96],[-120.07,46.94],[-120.41,47.13],[-120.41,46.96]]],[[[-119.12,49.2],[-117.34,49.35],[-114.27,49.6],[-114.47,52],[-122.49,54.24],[-125.76,53.13],[-120.61,49.07],[-119.12,49.2]]]]},"properties":{"NAME":"Plateau fichers and hunter gatherers","SUBJECTO":"Plateau fichers and hunter gatherers","BORDERPRECISION":1}},
{"type":"Feature","geometry":{"type":"Polygon","coordinates":[[[14.35,45.32],[16.64,43.39],[19.61,41.76],[19.37,40.26],[21.23,37.9],[23.56,38.35],[22.6,40.4],[28.83,40.91],[27.5,42.52],[30.83,46.58],[32.33,46.15],[33.33,48.05],[29.32,48.29],[18.93,49.62],[16.12,45.58],[14.35,45.32]]]},"properties":{"NAME":"Ottoman Empire","SUBJECTO":"Ottoman Empire","BORDERPRECISION":1}},
{"type":"Feature","geometry":{"type":"Polygon","coordinates":[[[19.46,13.26],[17.16,13.47],[16.48,13.37],[14.73,13.1],[14.6,12.99],[14.81,12.53],[14.99,12.1],[16.63,11.1],[20.21,12.05],[20.02,12.64],[19.85,13.22],[19.46,13.26]]]},"properties":{"NAME":"Bagirmi","SUBJECTO":"Bagirmi","BORDERPRECISION":1}},
{"type":"Feature","geometry":{"type":"Polygon","coordinates":[[[10.73,11.29],[11.91,11.07],[14.81,12.53],[14.6,12.99],[14.73,13.1],[16.48,13.37],[17.01,15.5],[13.31,20.97],[11.61,20.6],[11.39,15.5],[10.21,13.73],[10.73,11.29]]]},"properties":{"NAME":"Bornu-Kanem","SUBJECTO":"Bornu-Kanem","BORDERPRECISION":1}},
{"type":"Feature","geometry":{"type":"Polygon","coordinates":[[[18.67,54.26],[17.66,54.69],[15.76,52.27],[18.93,49.62],[29.32,48.29],[33.33,48.05],[36.4,49.04],[31.34,50.92],[31.51,56.49],[28.09,56.75],[27.59,58.31],[27.67,58.98],[27.7,59.3],[23.42,59.12],[23.3,56.94],[20.95,56.07],[21.01,55.82],[22.82,53.56],[20.33,52.97],[18.67,54.26]]]},"properties":{"NAME":"Poland-Llituania","SUBJECTO":"Poland-Llituania","BORDERPRECISION":1}},
{"type":"Feature","geometry":{"type":"Polygon","coordinates":[[[124.13,39.84],[124.74,38.28],[126.36,37.72],[126.53,37.68],[126.54,37.68],[128.26,38.41],[127.67,39.87],[129.48,40.68],[130.44,42.28],[126.47,41.65],[124.13,39.84]]]},"properties":{"NAME":"Korea","SUBJECTO":"Korea","BORDERPRECISION":1}},
{"type":"Feature","geometry":{"type":"Polygon","coordinates":[[[156.69,57.11],[155.47,54.92],[156.7,50.96],[161.98,55.96],[156.69,57.11]]]},"properties":{"NAME":"Itelmen","SUBJECTO":"Itelmen","BORDERPRECISION":1}},
{"type":"Feature","geometry":{"type":"Polygon","coordinates":[[[161.98,55.96],[161.8,58.1],[163.39,59.81],[170.34,60.28],[173.3,61.52],[165.25,62.31],[163.33,60.69],[156.69,57.11],[161.98,55.96]]]},"properties":{"NAME":"Koryaks","SUBJECTO":"Koryaks","BORDERPRECISION":1}},
{"type":"Feature","geometry":{"type":"Polygon","coordinates":[[[82.44,72.05],[83.39,70.34],[82.9,68.54],[92.3,69.82],[90.67,72.41],[82.44,72.05]]]},"properties":{"NAME":"Enets","SUBJECTO":"Enets","BORDERPRECISION":1}},
{"type":"Feature","geometry":{"type":"Polygon","coordinates":[[[83.39,70.34],[79.22,72.27],[73.22,71.46],[74.74,67.69],[72.84,67.65],[72.71,72.77],[66.82,71.11],[67.65,68.45],[66.8,66.65],[68.6,65.48],[73.54,65.57],[80.83,65.7],[82.9,68.54],[83.39,70.34]]]},"properties":{"NAME":"Nenets","SUBJECTO":"Nenets","BORDERPRECISION":1}},
{"type":"Feature","geometry":{"type":"Polygon","coordinates":[[[105.36,72.75],[113.63,75.27],[106.87,76.43],[97.98,74.36],[92.43,73.38],[99.92,71.36],[105.36,72.75]]]},"properties":{"NAME":"Nganasan","SUBJECTO":"Nganasan","BORDERPRECISION":1}},
{"type":"Feature","geometry":{"type":"Polygon","coordinates":[[[66.8,66.65],[66.97,65.5],[64.04,60.76],[66.24,60.06],[68.81,62.58],[71.8,63.46],[73.54,65.57],[68.6,65.48],[66.8,66.65]]]},"properties":{"NAME":"Komi","SUBJECTO":"Komi","BORDERPRECISION":1}},
{"type":"Feature","geometry":{"type":"Polygon","coordinates":[[[73.54,65.57],[71.8,63.46],[74.37,63.08],[75.5,59.94],[80.76,60.15],[83.49,64.36],[80.83,65.7],[73.54,65.57]]]},"properties":{"NAME":"Khanty","SUBJECTO":"Khanty","BORDERPRECISION":1}},
{"type":"Feature","geometry":{"type":"Polygon","coordinates":[[[66.24,60.06],[64.23,57.66],[64.68,55.97],[67.77,54.64],[68.59,54.28],[76.88,54.37],[79.3,54.4],[82.54,57.08],[75.5,59.94],[74.37,63.08],[71.8,63.46],[68.81,62.58],[66.24,60.06]]]},"properties":{"NAME":"Khanate of Sibir","SUBJECTO":"Khanate of Sibir","BORDERPRECISION":1}},
{"type":"Feature","geometry":{"type":"Polygon","coordinates":[[[64.68,36.53],[66.34,36.31],[69.9,37.78],[68.78,40.94],[60.61,45.43],[53.15,45.98],[51.17,43.72],[52.52,42.07],[53.94,38.16],[56.43,38.21],[58.62,39.05],[62.66,39.22],[64.68,36.53]]]},"properties":{"NAME":"Khiva Khanate","SUBJECTO":"Khiva Khanate","BORDERPRECISION":1}},
{"type":"Feature","geometry":{"type":"Polygon","coordinates":[[[161.92,68.15],[162.62,69.54],[158.41,70.81],[152.32,70.67],[151.75,69.72],[161.92,68.15]]]},"properties":{"NAME":"Yukagir","SUBJECTO":"Yukagir","BORDERPRECISION":1}},
{"type":"Feature","geometry":{"type":"Polygon","coordinates":[[[28.09,56.75],[29.52,58.08],[34.86,56.13],[35.13,54.39],[40.75,54.39],[43.96,54.79],[45.96,57.73],[52.39,58.01],[62.02,58.8],[64.04,60.76],[66.97,65.5],[66.8,66.65],[67.65,68.45],[62.28,69.71],[57.02,68.45],[53.89,68.79],[39.95,65.58],[35.08,64.29],[32.64,67.05],[26.79,66.21],[29.71,65.63],[29.41,62.52],[29.52,61.77],[29.69,60.13],[27.7,59.3],[27.67,58.98],[27.59,58.31],[28.09,56.75]]]},"properties":{"NAME":"Tsardom of Muscovy","SUBJECTO":"Tsardom of Muscovy","BORDERPRECISION":1}},
{"type":"Feature","geometry":{"type":"Polygon","coordinates":[[[32.64,67.05],[39.19,66.04],[40.83,67.66],[29.73,69.7],[24.57,70.74],[19.82,69.37],[18.77,67.94],[22.53,67.72],[26.79,66.21],[32.64,67.05]]]},"properties":{"NAME":"Sámi","SUBJECTO":"Sámi","BORDERPRECISION":1}},
{"type":"Feature","geometry":{"type":"Polygon","coordinates":[[[26.79,66.21],[22.53,67.72],[18.77,67.94],[14.7,66.12],[17.33,64.83],[13.15,62.02],[11.17,59.06],[11.88,57.33],[16.06,56.4],[16.74,58.31],[19.04,59.86],[17.15,60.95],[22.65,65.93],[25.25,65.42],[21.03,62.48],[21.56,60.51],[23.66,59.84],[29.69,60.13],[29.52,61.77],[29.41,62.52],[29.71,65.63],[26.79,66.21]]]},"properties":{"NAME":"Sweden","SUBJECTO":"","BORDERPRECISION":1}},
{"type":"Feature","geometry":{"type":"MultiPolygon","coordinates":[[[[173.3,61.52],[179.29,62.82],[180,64.95],[180,65.05],[180,65.31],[180,65.38],[180,65.96],[180,66.96],[180,67.96],[180,68.92],[170.45,70.02],[169.39,68.72],[162.62,69.54],[161.92,68.15],[158.76,61.78],[160.64,60.72],[165.25,62.31],[173.3,61.52]]],[[[-180,66.96],[-180,65.96],[-180,65.38],[-180,65.31],[-180,65.26],[-178.12,65.48],[-173.08,64.38],[-170.61,66.04],[-180,68.92],[-180,67.96],[-180,66.96]]]]},"properties":{"NAME":"Chukchi","SUBJECTO":"Chukchi","BORDERPRECISION":1}},
{"type":"Feature","geometry":{"type":"MultiPolygon","coordinates":[[[[19.82,69.37],[17.41,68.77],[9.83,63.68],[5.15,61.74],[5.62,58.46],[8.15,58.09],[11.17,59.06],[13.15,62.02],[17.33,64.83],[14.7,66.12],[18.77,67.94],[19.82,69.37]]],[[[11.88,57.33],[13.3,55.3],[16.06,56.4],[11.88,57.33]]],[[[-24.22,65.53],[-22.37,63.77],[-18.64,63.32],[-14.82,64.2],[-16.92,65.98],[-24.22,65.53]]]]},"properties":{"NAME":"Denmark-Norway","SUBJECTO":"Denmark-Norway","BORDERPRECISION":1}},
{"type":"Feature","geometry":{"type":"Polygon","coordinates":[[[-66.44,45.13],[-65.71,43.56],[-61.03,45.38],[-64.53,46.27],[-65.21,48.12],[-67.35,48.85],[-66.44,45.13]]]},"properties":{"NAME":"Mi'kma'ki","SUBJECTO":"Mi'kma'ki","BORDERPRECISION":1}},
{"type":"Feature","geometry":{"type":"Polygon","coordinates":[[[46.87,44.68],[51.37,47.09],[53.15,45.98],[60.61,45.43],[57.92,49.92],[52.39,58.01],[45.96,57.73],[43.96,54.79],[40.75,54.39],[35.13,54.39],[34.86,56.13],[29.52,58.08],[28.09,56.75],[31.51,56.49],[31.34,50.92],[36.4,49.04],[37.88,49.19],[40.63,46.69],[43.38,46.19],[44.75,44.44],[46.87,44.68]]]},"properties":{"NAME":"Nogai Horde","SUBJECTO":"Nogai Horde","BORDERPRECISION":1}},
{"type":"Feature","geometry":{"type":"Polygon","coordinates":[[[64.04,60.76],[62.02,58.8],[52.39,58.01],[57.92,49.92],[67.77,54.64],[64.68,55.97],[64.23,57.66],[66.24,60.06],[64.04,60.76]]]},"properties":{"NAME":"Kazan Khanate","SUBJECTO":"Kazan Khanate","BORDERPRECISION":1}},
{"type":"Feature","geometry":{"type":"Polygon","coordinates":[[[67.77,54.64],[57.92,49.92],[60.61,45.43],[68.78,40.94],[78.71,42.52],[80.32,42.78],[87.09,49.56],[76.88,54.37],[68.59,54.28],[67.77,54.64]]]},"properties":{"NAME":"Quazaq Khanate","SUBJECTO":"Quazaq Khanate","BORDERPRECISION":1}},
{"type":"Feature","geometry":{"type":"Polygon","coordinates":[[[79.33,35.63],[80.13,36.88],[84.47,36.88],[78.71,42.52],[68.78,40.94],[69.9,37.78],[71.57,36.91],[75.25,38.03],[79.33,35.63]]]},"properties":{"NAME":"Bukara Khanate","SUBJECTO":"Bukara Khanate","BORDERPRECISION":1}},
{"type":"Feature","geometry":{"type":"Polygon","coordinates":[[[-2.58,47.32],[-1.08,46.01],[-1.91,43.31],[1.73,42.5],[3.04,42.87],[7.4,43.76],[5.33,46.4],[5.7,49.39],[1.8,50.92],[-2,48.68],[-2.58,47.32]]]},"properties":{"NAME":"France","SUBJECTO":"France","BORDERPRECISION":1}},
{"type":"Feature","geometry":{"type":"Polygon","coordinates":[[[-7.49,37.21],[-5.66,36.01],[-2.24,36.73],[0.17,38.74],[0.88,41.02],[3.04,42.87],[1.73,42.5],[-1.91,43.31],[-7.64,43.72],[-8.81,41.89],[-6.71,41.96],[-7.49,37.21]]]},"properties":{"NAME":"Spain","SUBJECTO":"Spain","BORDERPRECISION":1}},
{"type":"Feature","geometry":{"type":"Polygon","coordinates":[[[78,16.47],[78.17,19.01],[77.39,18.77],[78,16.47]]]},"properties":{"NAME":"Bidar","SUBJECTO":"Bidar","BORDERPRECISION":1}},
{"type":"Feature","geometry":{"type":"Polygon","coordinates":[[[77.92,16.25],[78,16.47],[77.39,18.77],[75.41,18.5],[73.4,16.62],[73.41,16.56],[73.49,16.29],[77.92,16.25]]]},"properties":{"NAME":"Bijapur","SUBJECTO":"Bijapur","BORDERPRECISION":1}},
{"type":"Feature","geometry":{"type":"Polygon","coordinates":[[[72.85,19.24],[73.18,17.52],[73.4,16.62],[75.41,18.5],[77.39,18.77],[78.17,19.01],[78.53,19.12],[78.57,20.44],[76.09,21.05],[76.93,23.9],[73.71,22.95],[74.27,21.91],[72.85,19.24]]]},"properties":{"NAME":"Ahmadnagar","SUBJECTO":"Ahmadnagar","BORDERPRECISION":1}},
{"type":"Feature","geometry":{"type":"Polygon","coordinates":[[[80.46,15.77],[82.32,17],[81.49,17.21],[79.96,17.6],[78.53,19.12],[78.17,19.01],[78,16.47],[77.92,16.25],[80.46,15.77]]]},"properties":{"NAME":"Golkonda","SUBJECTO":"Golkonda","BORDERPRECISION":1}},
{"type":"Feature","geometry":{"type":"Polygon","coordinates":[[[104,19.7],[103.46,19.05],[98.56,21.12],[97.89,20.96],[97.37,18.45],[98.4,13.27],[98.74,11.44],[98.18,8.6],[100.14,6.18],[101.26,3.23],[103.33,3.39],[103.34,4.81],[100.61,6.98],[99.07,9.9],[99.9,12.08],[102.67,12.04],[105.02,13.41],[107.48,13.26],[107.46,15],[104,19.7]]]},"properties":{"NAME":"Ayutthaya","SUBJECTO":"Ayutthaya","BORDERPRECISION":1}},
{"type":"Feature","geometry":{"type":"Polygon","coordinates":[[[178.18,-18.24],[178.17,-17.34],[177.51,-17.51],[177.33,-18.12],[178.18,-18.24]]]},"properties":{"NAME":"Tuʻi Tonga Empire","SUBJECTO":"Tuʻi Tonga Empire","BORDERPRECISION":1}},
{"type":"Feature","geometry":{"type":"Polygon","coordinates":[[[-109.24,-27.13],[-109.37,-27.06],[-109.43,-27.2],[-109.24,-27.13]]]},"properties":{"NAME":"Polynesians","SUBJECTO":"Polynesians","BORDERPRECISION":1}},
{"type":"Feature","geometry":{"type":"Polygon","coordinates":[[[40.63,46.69],[37.88,49.19],[36.4,49.04],[33.33,48.05],[32.33,46.15],[33.64,45.93],[37.42,47.08],[37.47,44.69],[40.63,46.69]]]},"properties":{"NAME":"Crimean Khanate","SUBJECTO":"Ottoman Empire","BORDERPRECISION":1}},
{"type":"Feature","geometry":{"type":"MultiPolygon","coordinates":[[[[41.48,41.44],[40.36,40.96],[36.38,41.24],[33.56,41.98],[26.13,39.88],[27.16,37.36],[30.47,36.19],[35.71,36.21],[35.87,34.42],[33.56,30.97],[31,31.47],[29.25,30.75],[23.15,32.14],[20.37,32.3],[18.92,30.2],[15.84,31.29],[15.01,32.36],[12.56,32.74],[10.02,34.08],[11.13,35.24],[10.13,37.1],[1.06,36.46],[-2.19,35.05],[-1.07,32.45],[0.87,31.99],[6.27,31.87],[8.02,33.02],[13.08,31.83],[13.88,31.06],[13.67,26.14],[9.46,25.18],[9.67,24.22],[15.14,25.1],[15.63,30.52],[19.97,29.72],[22.43,31.26],[26.17,30.32],[29.43,22.66],[29.47,19.17],[31.67,15.86],[31.67,11.58],[33.14,11.58],[34,13.66],[33.63,15.74],[34.61,18.07],[32.66,21],[36.8,21.91],[35.75,22.91],[33.93,26.56],[34.89,28.36],[39.1,22.4],[42.76,16.65],[43.84,12.66],[46.88,13.47],[46.34,14.1],[44.51,14.1],[43.49,16.62],[43.07,18.65],[41.07,22.26],[40.65,24.15],[38.81,24.84],[36.59,29.79],[37.21,33.57],[40.03,34.39],[44.08,30.34],[46.91,29.44],[49.7,24.41],[50.97,24.44],[48.86,27.52],[47.91,29.89],[49.45,30.08],[49.56,34.26],[50.25,36.89],[48.84,37.51],[49.81,40.58],[47.49,43.58],[41.48,41.44]]],[[[38.53,18.16],[37.4,18.92],[37.17,20.76],[35.96,19.42],[36.45,18.07],[38.53,18.16]]]]},"properties":{"NAME":"Ottoman Empire","SUBJECTO":"Ottoman Empire","BORDERPRECISION":1}}
]}