{"type":"FeatureCollection", "features": [
{"type":"Feature","geometry":{"type":"Polygon","coordinates":[[[106.93,11.84],[106.77,10.64],[109.07,11.64],[108.79,15.09],[107.38,16.69],[106.45,16.19],[107.27,15.12],[106.93,11.84]]]},"properties":{"NAME":"Champa","SUBJECTO":"Champa","BORDERPRECISION":1}},
{"type":"Feature","geometry":{"type":"Polygon","coordinates":[[[-71.61,-17.22],[-70.21,-19.07],[-70.4,-25.25],[-68.19,-25.49],[-67.36,-19.19],[-67.94,-15.43],[-69.87,-14.38],[-71.61,-17.22]]]},"properties":{"NAME":"Tiahuanaco Empire","SUBJECTO":"Tiahuanaco Empire","BORDERPRECISION":1}},
{"type":"Feature","geometry":{"type":"Polygon","coordinates":[[[80.56,5.93],[81.87,7.08],[80.66,9.3],[79.67,8.8],[80.56,5.93]]]},"properties":{"NAME":"Simhala","SUBJECTO":"Simhala","BORDERPRECISION":1}},
{"type":"Feature","geometry":{"type":"Polygon","coordinates":[[[-100.49,20.9],[-100.75,19.59],[-99.14,18.92],[-99.11,20.59],[-100.49,20.9]]]},"properties":{"NAME":"Teotihuacàn","SUBJECTO":"Teotihuacàn","BORDERPRECISION":1}},
{"type":"Feature","geometry":{"type":"Polygon","coordinates":[[[-96.21,17.89],[-98.59,17.99],[-99.02,16.82],[-96.44,16.22],[-96.19,17.88],[-96.21,17.89]]]},"properties":{"NAME":"Monte Alb?n","SUBJECTO":"Monte Alb?n","BORDERPRECISION":1}},
{"type":"Feature","geometry":{"type":"Polygon","coordinates":[[[-87.57,15.91],[-88.66,15.73],[-87.2,21.53],[-90,21.16],[-90,19.38],[-92.94,18.59],[-93.14,16.98],[-93.59,15.74],[-91.24,13.95],[-90,13.75],[-87.57,15.91]]]},"properties":{"NAME":"Maya states","SUBJECTO":"Maya states","BORDERPRECISION":1}},
{"type":"Feature","geometry":{"type":"Polygon","coordinates":[[[-79.49,-7.62],[-79.06,-5.97],[-80.67,-6.35],[-79.49,-7.62]]]},"properties":{"NAME":"Moche","SUBJECTO":"Moche","BORDERPRECISION":1}},
{"type":"Feature","geometry":{"type":"Polygon","coordinates":[[[-96.19,17.88],[-93.14,16.98],[-92.94,18.59],[-96.01,18.93],[-97.53,21.25],[-98.45,19.79],[-96.21,17.89],[-96.19,17.88]]]},"properties":{"NAME":"Veracruz civilization","SUBJECTO":"Veracruz civilization","BORDERPRECISION":1}},
{"type":"Feature","geometry":{"type":"Polygon","coordinates":[[[34.7,12.66],[35.47,14.28],[35.27,16.39],[30.53,15.82],[31.28,13.06],[32.88,12.47],[34.22,12.55],[34.7,12.66]]]},"properties":{"NAME":"Alwa","SUBJECTO":"Alwa","BORDERPRECISION":1}},
{"type":"Feature","geometry":{"type":"Polygon","coordinates":[[[35.27,16.39],[35.15,18.23],[34.53,20.17],[34.42,20.51],[29.85,20.12],[29.66,18.64],[30.53,15.82],[35.27,16.39]]]},"properties":{"NAME":"Makkura","SUBJECTO":"Makkura","BORDERPRECISION":1}},
{"type":"Feature","geometry":{"type":"Polygon","coordinates":[[[34.42,20.51],[33.66,24.02],[30.81,23.86],[29.85,20.12],[34.42,20.51]]]},"properties":{"NAME":"Nobatia","SUBJECTO":"Nobatia","BORDERPRECISION":1}},
{"type":"Feature","geometry":{"type":"Polygon","coordinates":[[[-6.71,38.28],[-2.82,37.72],[-0.33,39.43],[0.88,41.02],[3.13,41.86],[3.81,43.47],[1.52,42.53],[-0.87,43.3],[-3.81,43.43],[-7.64,43.72],[-8.64,42.42],[-9.52,38.69],[-6.71,38.28]]]},"properties":{"NAME":"Visigothic Kingdom","SUBJECTO":"Visigothic Kingdom","BORDERPRECISION":1}},
{"type":"Feature","geometry":{"type":"Polygon","coordinates":[[[-2.61,47.57],[-2.79,48.59],[-3.95,47.9],[-2.61,47.57]]]},"properties":{"NAME":"Broërec","SUBJECTO":"Broërec","BORDERPRECISION":1}},
{"type":"Feature","geometry":{"type":"Polygon","coordinates":[[[100.68,24.13],[100.12,23.85],[100.7,19.48],[103.23,20.12],[103.83,20.14],[106.43,24.87],[103.68,26.06],[100.68,24.13]]]},"properties":{"NAME":"Thai Kingdoms","SUBJECTO":"Thai Kingdoms","BORDERPRECISION":1}},
{"type":"Feature","geometry":{"type":"Polygon","coordinates":[[[106.45,16.19],[104.11,15.51],[104.39,11.98],[106.93,11.84],[107.27,15.12],[106.45,16.19]]]},"properties":{"NAME":"Chen-La","SUBJECTO":"Chen-La","BORDERPRECISION":1}},
{"type":"Feature","geometry":{"type":"Polygon","coordinates":[[[88.33,28.01],[85.65,28.58],[80.74,30.9],[78.34,32.59],[76.92,29.39],[78.54,27.63],[80.46,25.71],[83.98,24.78],[85.1,25.8],[87.6,25.06],[88.34,26.45],[88.33,28.01]]]},"properties":{"NAME":"Kanauj","SUBJECTO":"Kanauj","BORDERPRECISION":1}},
{"type":"Feature","geometry":{"type":"Polygon","coordinates":[[[88.34,26.45],[91.59,25.52],[91.57,22.54],[92.04,23.12],[92.13,22.97],[94.56,25.71],[93.91,26.82],[88.33,28.01],[88.34,26.45]]]},"properties":{"NAME":"Kamarupa","SUBJECTO":"Kamarupa","BORDERPRECISION":1}},
{"type":"Feature","geometry":{"type":"Polygon","coordinates":[[[78.54,27.63],[74.12,26.54],[72.63,28.37],[76.92,29.39],[78.34,32.59],[75.22,34.8],[73.83,36.75],[67.15,34.6],[67.24,32.02],[66.43,25.49],[69.13,21.97],[71.02,20.66],[72.93,20.95],[79.44,22.18],[80.27,19.87],[82.35,17.09],[85.38,19.61],[84.73,20.89],[84.82,23.85],[83.98,24.78],[80.46,25.71],[78.54,27.63]]]},"properties":{"NAME":"Hindu kingdoms","SUBJECTO":"Hindu kingdoms","BORDERPRECISION":1}},
{"type":"Feature","geometry":{"type":"Polygon","coordinates":[[[83.98,24.78],[84.82,23.85],[84.73,20.89],[85.38,19.61],[87.64,21.56],[91.57,22.54],[91.59,25.52],[88.34,26.45],[87.6,25.06],[85.1,25.8],[83.98,24.78]]]},"properties":{"NAME":"Shaskanka","SUBJECTO":"Shaskanka","BORDERPRECISION":1}},
{"type":"Feature","geometry":{"type":"Polygon","coordinates":[[[79.71,11.42],[77.12,11.24],[76.47,13.74],[75.08,14.39],[74.52,14.16],[76.7,8.71],[77.9,8.26],[79.83,10.36],[79.71,11.42]]]},"properties":{"NAME":"Hindu kingdoms","SUBJECTO":"Hindu kingdoms","BORDERPRECISION":1}},
{"type":"Feature","geometry":{"type":"Polygon","coordinates":[[[79.71,11.42],[80.09,14.95],[79.07,15.23],[78.05,17.45],[75.08,14.39],[76.47,13.74],[77.12,11.24],[79.71,11.42]]]},"properties":{"NAME":"Pallavas","SUBJECTO":"Pallavas","BORDERPRECISION":1}},
{"type":"Feature","geometry":{"type":"Polygon","coordinates":[[[72.93,20.95],[73.06,18.03],[74.52,14.16],[75.08,14.39],[78.05,17.45],[79.07,15.23],[80.09,14.95],[82.35,17.09],[80.27,19.87],[79.44,22.18],[72.93,20.95]]]},"properties":{"NAME":"Chalukyas","SUBJECTO":"Chalukyas","BORDERPRECISION":1}},
{"type":"Feature","geometry":{"type":"Polygon","coordinates":[[[127.4,39.08],[131.06,42.75],[132.83,42.86],[132.12,44.63],[129.95,45.29],[127.3,43.24],[124.7,42.31],[122.08,40.49],[125.29,38.69],[127.4,39.08]]]},"properties":{"NAME":"Koguryo","SUBJECTO":"Koguryo","BORDERPRECISION":1}},
{"type":"Feature","geometry":{"type":"Polygon","coordinates":[[[128.16,34.8],[128.04,36.56],[127.67,37.21],[126.67,37.53],[126.39,37.61],[126.23,35.16],[126.41,34.27],[126.5,34.33],[126.62,34.41],[126.67,34.41],[126.82,34.43],[126.83,34.44],[126.99,34.55],[127.23,34.71],[127.36,34.8],[128.16,34.8]]]},"properties":{"NAME":"Paekche","SUBJECTO":"Paekche","BORDERPRECISION":1}},
{"type":"Feature","geometry":{"type":"Polygon","coordinates":[[[125.29,38.69],[126.39,37.61],[126.67,37.53],[127.67,37.21],[128.04,36.56],[128.16,34.8],[129.06,35.17],[129.25,37.01],[128.45,38.26],[128.27,38.42],[128.14,38.53],[127.96,38.69],[127.4,39.08],[125.29,38.69]]]},"properties":{"NAME":"Silla","SUBJECTO":"Silla","BORDERPRECISION":1}},
{"type":"Feature","geometry":{"type":"Polygon","coordinates":[[[139.48,38.33],[135.16,35.65],[140.32,35.03],[140.87,37.92],[139.48,38.33]]]},"properties":{"NAME":"Yamato","SUBJECTO":"Yamato","BORDERPRECISION":1}},
{"type":"Feature","geometry":{"type":"Polygon","coordinates":[[[112.68,-7.72],[107.54,-7.13],[105.79,-6.29],[106.48,-7.5],[112.41,-8.49],[112.68,-7.72]]]},"properties":{"NAME":"Mataram","SUBJECTO":"Mataram","BORDERPRECISION":1}},
{"type":"Feature","geometry":{"type":"Polygon","coordinates":[[[100.3,7.89],[99.12,7.64],[100.14,6.18],[101.34,2.78],[103.43,1.38],[103.34,4.81],[100.3,7.89]]]},"properties":{"NAME":"minor states under Indian influence","SUBJECTO":"minor states under Indian influence","BORDERPRECISION":1}},
{"type":"Feature","geometry":{"type":"MultiPolygon","coordinates":[[[[112.68,-7.72],[112.27,-7.03],[108.56,-6.92],[105.79,-6.29],[107.54,-7.13],[112.68,-7.72]]],[[[105.19,-5.54],[105.94,-3.21],[103.24,-0.66],[102.7,0.57],[102.72,-1.37],[105.19,-5.54]]],[[[109.78,-1.31],[110.1,-3.08],[114.22,-3.43],[113.05,-2.27],[109.78,-1.31]]]]},"properties":{"NAME":"minor states under Indian influence","SUBJECTO":"minor states under Indian influence","BORDERPRECISION":1}},
{"type":"Feature","geometry":{"type":"Polygon","coordinates":[[[67.15,34.6],[66.78,38.04],[62.7,39.99],[61.96,41.29],[56.86,39.44],[54.03,38.99],[53.8,36.68],[51.8,36.43],[48.84,37.51],[49.81,40.58],[48.25,42.25],[44.39,41.88],[38.38,33.53],[39.49,33.36],[47.61,29.27],[50.13,30.07],[51.35,28.04],[54.65,26.39],[61.34,25.03],[66.43,25.49],[67.24,32.02],[67.15,34.6]]]},"properties":{"NAME":"Sasanian Empire","SUBJECTO":"Sasanian Empire","BORDERPRECISION":1}},
{"type":"Feature","geometry":{"type":"Polygon","coordinates":[[[57.36,23.86],[57.93,20.4],[59.84,22.28],[57.36,23.86]]]},"properties":{"NAME":"Mazun","SUBJECTO":"Mazun","BORDERPRECISION":1}},
{"type":"Feature","geometry":{"type":"Polygon","coordinates":[[[43.47,19.18],[41.2,18.9],[42.76,16.65],[43.84,12.66],[46.6,13.4],[51.31,15.25],[52.36,16.23],[50.77,16.79],[46.68,15.8],[45.48,16],[43.47,19.18]]]},"properties":{"NAME":"Sasanian dependencies","SUBJECTO":"Sasanian dependencies","BORDERPRECISION":1}},
{"type":"Feature","geometry":{"type":"Polygon","coordinates":[[[36.31,26.42],[38.33,23.83],[39.17,21.22],[41.2,18.9],[43.47,19.18],[38.79,26.58],[36.31,26.42]]]},"properties":{"NAME":"Hejaz","SUBJECTO":"Hejaz","BORDERPRECISION":1}},
{"type":"Feature","geometry":{"type":"Polygon","coordinates":[[[38.24,46.7],[38.81,44.26],[39.78,45.8],[38.24,46.7]]]},"properties":{"NAME":"Bulgars","SUBJECTO":"Bulgars","BORDERPRECISION":1}},
{"type":"Feature","geometry":{"type":"Polygon","coordinates":[[[18.21,56.91],[18.71,57.24],[18.81,57.7],[18.11,57.52],[18.21,56.91]]]},"properties":{"NAME":"Guta","SUBJECTO":"Guta","BORDERPRECISION":1}},
{"type":"Feature","geometry":{"type":"Polygon","coordinates":[[[-2.82,51.62],[-3.27,51.18],[-2.96,50.72],[0.19,50.73],[1.69,52.31],[-0.3,53.63],[-2.82,51.62]]]},"properties":{"NAME":"Cantia","SUBJECTO":"Cantia","BORDERPRECISION":1}},
{"type":"Feature","geometry":{"type":"Polygon","coordinates":[[[-3.27,51.18],[-4.28,51.19],[-4.54,50.36],[-2.96,50.72],[-3.27,51.18]]]},"properties":{"NAME":"Dumnonia","SUBJECTO":"Dumnonia","BORDERPRECISION":1}},
{"type":"Feature","geometry":{"type":"Polygon","coordinates":[[[-0.87,43.3],[-1.4,44.2],[-3.81,43.43],[-0.87,43.3]]]},"properties":{"NAME":"Vasconia","SUBJECTO":"Frankish Kingdom","BORDERPRECISION":1}},
{"type":"Feature","geometry":{"type":"Polygon","coordinates":[[[-2.61,47.57],[-2.11,46.84],[-1.2,46.56],[4.89,50.94],[2.52,51.09],[0.03,49.33],[-2.79,48.59],[-2.61,47.57]]]},"properties":{"NAME":"Neustria","SUBJECTO":"Frankish Kingdom","BORDERPRECISION":1}},
{"type":"Feature","geometry":{"type":"Polygon","coordinates":[[[15.41,46.14],[18.63,44.86],[22.95,44.65],[25.26,43.82],[28.22,45.48],[21.78,47.48],[16.66,48.31],[14.84,47.2],[15.41,46.14]]]},"properties":{"NAME":"Avars","SUBJECTO":"Avars","BORDERPRECISION":1}},
{"type":"Feature","geometry":{"type":"Polygon","coordinates":[[[5.77,51.4],[7.62,51.31],[7.51,53.61],[3.98,51.87],[5.77,51.4]]]},"properties":{"NAME":"Frisians","SUBJECTO":"Frisians","BORDERPRECISION":1}},
{"type":"Feature","geometry":{"type":"Polygon","coordinates":[[[12.85,56.48],[13.3,55.3],[14.4,55.97],[12.85,56.48]]]},"properties":{"NAME":"Danes","SUBJECTO":"Danes","BORDERPRECISION":1}},
{"type":"Feature","geometry":{"type":"Polygon","coordinates":[[[42.03,48.1],[40.26,47.24],[43.61,45.54],[47.05,46.29],[47.93,47.37],[42.03,48.1]]]},"properties":{"NAME":"Khazars","SUBJECTO":"Khazars","BORDERPRECISION":1}},
{"type":"Feature","geometry":{"type":"Polygon","coordinates":[[[8.22,53.49],[8.22,53.34],[8.86,53.87],[8.22,53.53],[8.22,53.49]]]},"properties":{"NAME":"Saxons","SUBJECTO":"Saxons","BORDERPRECISION":1}},
{"type":"Feature","geometry":{"type":"Polygon","coordinates":[[[3.81,43.47],[7.47,43.81],[7.51,43.84],[7.55,43.87],[8.05,44.02],[9,46.96],[12.45,47.11],[12.88,47.06],[12.87,47.18],[12.75,48.93],[12.7,49.73],[9.09,49.83],[7.62,51.31],[5.77,51.4],[4.89,50.94],[-1.2,46.56],[-2.11,46.84],[-1.4,44.2],[-0.87,43.3],[1.52,42.53],[3.81,43.47]]]},"properties":{"NAME":"Frankish Kingdom","SUBJECTO":"Frankish Kingdom","BORDERPRECISION":1}},
{"type":"Feature","geometry":{"type":"Polygon","coordinates":[[[14.84,47.2],[12.87,47.18],[12.88,47.06],[13.67,45.71],[14.54,45.26],[15.41,46.14],[14.84,47.2]]]},"properties":{"NAME":"Slavs","SUBJECTO":"Eastern Roman Empire","BORDERPRECISION":1}},
{"type":"Feature","geometry":{"type":"Polygon","coordinates":[[[-130.48,54.97],[-129.85,55],[-128.59,55.06],[-125.7,55.19],[-114.47,52],[-105.19,51.45],[-98.92,50.23],[-95.57,50],[-87.79,49.93],[-81.93,48.9],[-72.32,46.3],[-71.03,46.75],[-66.37,50.31],[-60.14,50.41],[-55.66,52.19],[-56.13,53.47],[-60.17,53.3],[-60.22,53.32],[-65.64,55.26],[-71.03,55.2],[-74.2,52.93],[-78.74,52.74],[-82.34,52.98],[-82.2,54.97],[-87.47,55.91],[-89.73,56.93],[-90.44,57.14],[-92.4,56.98],[-102.14,57.21],[-111.28,58.55],[-118.2,62.71],[-124.94,64.83],[-132.43,62.5],[-139.52,62.42],[-150.13,63.32],[-160.94,63.98],[-165.43,62.43],[-165.9,61.27],[-162,58.83],[-158.29,58.73],[-149.33,60.03],[-139.57,59.9],[-137.58,58.6],[-134.12,58.24],[-130.66,54.96],[-130.48,54.97]]]},"properties":{"NAME":"Subarctic forest hunter-gatherers","SUBJECTO":"Subarctic forest hunter-gatherers","BORDERPRECISION":1}},
{"type":"Feature","geometry":{"type":"Polygon","coordinates":[[[142.34,-10.92],[141.68,-12.47],[141.71,-15.23],[140.8,-17.56],[139.25,-17.43],[135.39,-14.9],[136.66,-12.62],[133.56,-11.95],[130.46,-12.76],[129.2,-14.99],[126.85,-13.78],[122.74,-16.58],[120.87,-19.68],[116.42,-20.84],[113.63,-22.57],[113.43,-26.57],[115.75,-32.21],[115.05,-34.42],[118.21,-35.09],[119.77,-34.12],[123.62,-33.92],[126.06,-32.43],[131.28,-31.63],[133.84,-32.34],[135.53,-35.05],[137.46,-33.31],[139.37,-35.61],[140.01,-37.64],[143.36,-38.97],[149.5,-37.93],[151.36,-33.52],[152.97,-31.42],[153.49,-28.84],[153.07,-26.23],[150.75,-22.81],[149.1,-21.06],[146.32,-19.08],[145.18,-15.05],[143.74,-14.47],[142.34,-10.92]]]},"properties":{"NAME":"Australian aboriginal hunter-gatherers","SUBJECTO":"Australian aboriginal hunter-gatherers","BORDERPRECISION":1}},
{"type":"Feature","geometry":{"type":"Polygon","coordinates":[[[146.71,-43.72],[148.27,-41.09],[144.78,-40.84],[146.71,-43.72]]]},"properties":{"NAME":"Tasmanian hunter-gatherers","SUBJECTO":"Tasmanian hunter-gatherers","BORDERPRECISION":1}},
{"type":"Feature","geometry":{"type":"Polygon","coordinates":[[[140.01,41.38],[143.21,41.93],[145.06,43.79],[141.88,45.44],[140.01,41.38]]]},"properties":{"NAME":"Ainu","SUBJECTO":"Ainu","BORDERPRECISION":1}},
{"type":"Feature","geometry":{"type":"Polygon","coordinates":[[[105.4,72.75],[98.46,69.79],[75.86,61.43],[62.81,56.96],[59.09,56.43],[65.31,55.05],[78.36,56.41],[93.7,56.48],[99.49,55.66],[107.96,59.82],[114.02,59.55],[116.71,54.66],[119.94,51.26],[125.05,50.37],[127.65,50.26],[134.87,52.01],[141.05,52.69],[140.1,53.8],[134.99,54.85],[142.85,59.27],[148.42,59.1],[154.32,59.98],[157.1,61.63],[160.64,60.72],[156.78,57.58],[155.47,54.92],[156.7,50.96],[161.5,55.29],[161.8,58.1],[163.39,59.81],[170.34,60.28],[172.44,63.08],[171.77,65.86],[168.14,67.46],[155.89,68.17],[130.87,69.9],[124.54,71.59],[123.5,73.5],[123.41,73.48],[111.76,73.66],[105.6,72.74],[105.4,72.75]]]},"properties":{"NAME":"Paleo-Siberian hunter-gatherers","SUBJECTO":"Paleo-Siberian hunter-gatherers","BORDERPRECISION":1}},
{"type":"Feature","geometry":{"type":"Polygon","coordinates":[[[25.2,65.27],[34.73,65.78],[34.73,65.8],[39.19,66.04],[40.83,67.66],[29.73,69.7],[28.31,70.95],[20.16,69.75],[10.16,64.1],[11.53,61.9],[17.94,62.55],[25.25,65.42],[25.2,65.27]]]},"properties":{"NAME":"Saami","SUBJECTO":"Saami","BORDERPRECISION":1}},
{"type":"Feature","geometry":{"type":"Polygon","coordinates":[[[105.4,72.75],[105.28,72.75],[113.63,75.27],[103.39,77.56],[99.47,75.97],[91.63,75.65],[89.8,75.52],[87.69,73.9],[72.71,72.77],[62.28,69.71],[57.02,68.45],[53.89,68.79],[39.95,65.58],[34.73,65.61],[34.73,65.78],[25.2,65.27],[25.19,65.24],[21.2,62.44],[32.52,60.93],[46.11,57.71],[53.98,57.71],[59.09,56.43],[62.81,56.96],[75.86,61.43],[98.46,69.79],[105.4,72.75]]]},"properties":{"NAME":"Finno-Ugric taiga hunter-gatherers","SUBJECTO":"Finno-Ugric taiga hunter-gatherers","BORDERPRECISION":1}},
{"type":"Feature","geometry":{"type":"MultiPolygon","coordinates":[[[[-43.58,59.94],[-39.69,65.19],[-42.79,65.4],[-44.26,61.87],[-43.58,59.94]]],[[[-49.47,67.03],[-50.54,67.49],[-50.94,67.53],[-53.1,65.87],[-48.92,61.42],[-46.16,60.94],[-49.06,64.79],[-49.47,67.03]]],[[[-62.81,81.16],[-65.48,79.16],[-72.38,78.53],[-67.04,75.94],[-62.45,76.34],[-62.81,81.16]]],[[[-91.17,69.65],[-96.21,68.07],[-101.91,67.71],[-105.64,68.35],[-112.5,67.69],[-115.29,68.89],[-127.35,70.38],[-131.67,69.28],[-137.73,69.02],[-156.9,71.35],[-164.07,69.06],[-163.74,67.22],[-168.18,65.69],[-166.59,64.73],[-160.94,63.98],[-150.13,63.32],[-139.52,62.42],[-132.43,62.5],[-124.94,64.83],[-118.2,62.71],[-111.28,58.55],[-102.14,57.21],[-92.4,56.98],[-94.75,59.95],[-91.42,62.85],[-91.03,63.39],[-89.87,63.58],[-89.86,63.65],[-89.99,64.03],[-89.69,65.67],[-89.78,65.98],[-83.14,66.37],[-90.01,68.37],[-91.17,69.65]]],[[[-117.22,72.86],[-117.57,69.99],[-113.15,68.6],[-101.06,70.03],[-104.62,71.09],[-110.35,71.2],[-117.22,72.86]]],[[[-123.49,74.45],[-125.62,71.99],[-120.84,71.53],[-117.69,73.22],[-123.49,74.45]]],[[[-91.13,76.63],[-91.87,74.79],[-80.35,74.62],[-81.7,75.87],[-89.8,75.92],[-90.65,75.95],[-91.16,75.97],[-89.81,76.37],[-91.13,76.63]]],[[[-78.32,80.97],[-83.62,80.21],[-87.27,76.5],[-78.21,76.55],[-78.37,78.03],[-71.45,79.85],[-62.43,82.63],[-75.92,82.52],[-78.32,80.97]]],[[[-60.22,53.32],[-57.52,54.47],[-61.93,56.27],[-62.89,58.66],[-69.21,58.75],[-70.03,60.88],[-73.39,62.35],[-77.36,62.52],[-78.34,58.55],[-76.44,56.81],[-79.55,54.69],[-78.74,52.74],[-74.2,52.93],[-71.03,55.2],[-65.64,55.26],[-60.22,53.32]]],[[[170.34,60.28],[170.52,60.34],[179.29,62.82],[180,64.95],[180,65.05],[180,65.31],[180,65.38],[180,65.96],[180,66.96],[180,67.96],[180,68.92],[175.61,69.78],[167.32,69.66],[159.44,69.76],[152.13,70.66],[141.29,72.79],[137.63,71.08],[126.22,72.38],[124.22,73.7],[123.5,73.5],[124.54,71.59],[130.87,69.9],[155.89,68.17],[168.14,67.46],[171.77,65.86],[172.44,63.08],[170.34,60.28]]],[[[-75.62,69.1],[-72.3,67.26],[-75.79,65.2],[-71.32,63.06],[-64.47,63.74],[-61.21,66.64],[-68.67,68.72],[-71.25,71.35],[-81.53,73.69],[-88.1,73.64],[-90,71.54],[-87.95,70.38],[-78.71,70.01],[-75.62,69.1]]],[[[-170.47,66.29],[-180,68.92],[-180,67.96],[-180,66.96],[-180,65.96],[-180,65.38],[-180,65.31],[-180,65.26],[-178.12,65.48],[-173.08,64.38],[-170.47,66.29]]]]},"properties":{"NAME":"Arctic marine mammal hunters","SUBJECTO":"Arctic marine mammal hunters","BORDERPRECISION":1}},
{"type":"Feature","geometry":{"type":"Polygon","coordinates":[[[-70.4,-25.25],[-71.43,-29.1],[-71.62,-33.71],[-73.67,-37.5],[-72.73,-41.55],[-72.07,-40.55],[-69.44,-37.16],[-67.65,-33.58],[-67.48,-31.66],[-69.32,-29.3],[-68.62,-26.67],[-67.12,-25.03],[-65.91,-18.31],[-67.36,-19.19],[-68.19,-25.49],[-70.4,-25.25]]]},"properties":{"NAME":"Andean hunter-gatherers","SUBJECTO":"Andean hunter-gatherers","BORDERPRECISION":1}},
{"type":"Feature","geometry":{"type":"Polygon","coordinates":[[[-69.17,-51.15],[-65.78,-47.23],[-64.94,-40.83],[-62.96,-41.14],[-61.36,-39.03],[-57.81,-38.39],[-56.34,-35],[-54.07,-34.65],[-52.14,-31.75],[-52.14,-31.74],[-57.35,-29.68],[-63.56,-30.04],[-67.48,-31.66],[-67.65,-33.58],[-69.44,-37.16],[-72.07,-40.55],[-70.58,-40.58],[-72.19,-45.99],[-71.17,-51.56],[-69.11,-51.35],[-69.17,-51.15]]]},"properties":{"NAME":"Pampas cultures","SUBJECTO":"Pampas cultures","BORDERPRECISION":1}},
{"type":"Feature","geometry":{"type":"Polygon","coordinates":[[[-61.7,8.61],[-61.53,9.85],[-67.98,10.54],[-69.75,11.53],[-71.5,10.65],[-71.1,9.33],[-70.68,8.56],[-65.97,8.18],[-61.7,8.61]]]},"properties":{"NAME":"Caribbean hunter-gatherers","SUBJECTO":"Caribbean hunter-gatherers","BORDERPRECISION":1}},
{"type":"Feature","geometry":{"type":"Polygon","coordinates":[[[-69.11,-51.35],[-71.17,-51.56],[-72.19,-45.99],[-70.58,-40.58],[-72.07,-40.55],[-72.73,-41.55],[-74.31,-48.75],[-73.41,-52.02],[-71.87,-53.7],[-69.08,-51.5],[-69.11,-51.35]]]},"properties":{"NAME":"Patagonian shellfish and marine mammal hunters","SUBJECTO":"Patagonian shellfish and marine mammal hunters","BORDERPRECISION":1}},
{"type":"Feature","geometry":{"type":"Polygon","coordinates":[[[-48.73,-28.37],[-48.72,-25.43],[-44.56,-22.99],[-43.24,-23.03],[-43.28,-21.59],[-45.94,-21.75],[-49.49,-24.55],[-49.84,-26.8],[-48.8,-28.48],[-48.73,-28.37]]]},"properties":{"NAME":"Shellfish gatherers","SUBJECTO":"Shellfish gatherers","BORDERPRECISION":1}},
{"type":"Feature","geometry":{"type":"Polygon","coordinates":[[[-65.91,-18.31],[-67.12,-25.03],[-68.62,-26.67],[-69.32,-29.3],[-67.48,-31.66],[-63.56,-30.04],[-57.35,-29.68],[-52.14,-31.74],[-52.04,-31.56],[-48.85,-28.56],[-48.8,-28.48],[-49.84,-26.8],[-49.49,-24.55],[-45.94,-21.75],[-43.28,-21.59],[-43.24,-23.03],[-41.96,-22.92],[-39.69,-19.41],[-38.95,-16],[-39.13,-14.32],[-37.19,-10.84],[-35.6,-9.63],[-34.89,-7.61],[-35.46,-5.27],[-37.89,-4.39],[-39.94,-8.29],[-48.32,-13.92],[-51.54,-14.38],[-60.27,-13.81],[-64.19,-14.69],[-64.66,-16.8],[-65.91,-18.31]]]},"properties":{"NAME":"Savanna hunter-gatherers","SUBJECTO":"Savanna hunter-gatherers","BORDERPRECISION":1}},
{"type":"Feature","geometry":{"type":"Polygon","coordinates":[[[-64.19,-14.69],[-60.27,-13.81],[-51.54,-14.38],[-48.32,-13.92],[-39.94,-8.29],[-37.89,-4.39],[-40.23,-2.85],[-43.33,-2.43],[-44.55,-3.1],[-49.07,-4.74],[-56.33,-4.33],[-58.44,-2.29],[-57.97,-0.59],[-55.86,1.7],[-58.56,3.98],[-62.66,4.15],[-66.41,3.04],[-70.16,-5.74],[-69.05,-8.24],[-64.19,-14.69]]]},"properties":{"NAME":"Amazon hunter-gatherers","SUBJECTO":"Amazon hunter-gatherers","BORDERPRECISION":1}},
{"type":"Feature","geometry":{"type":"Polygon","coordinates":[[[-96.83,28.16],[-94.12,29.69],[-94.12,31.93],[-97.14,34.47],[-96.41,35.65],[-94.12,35.88],[-94.12,39.73],[-94.23,46.72],[-95.57,50],[-98.92,50.23],[-105.19,51.45],[-114.47,52],[-114.13,47.95],[-111.67,41.94],[-104.52,33.87],[-98.19,29.18],[-97.21,28.07],[-97.12,28.11],[-96.83,28.16]]]},"properties":{"NAME":"Plain bison hunters","SUBJECTO":"Plain bison hunters","BORDERPRECISION":1}},
{"type":"Feature","geometry":{"type":"Polygon","coordinates":[[[-97.82,24.14],[-97.45,27.99],[-97.21,28.07],[-98.19,29.18],[-104.52,33.87],[-111.67,41.94],[-120.47,43.57],[-121.36,39.69],[-120.13,34.52],[-119.78,34.46],[-117.5,33.33],[-115.6,29.69],[-113.05,31.14],[-111.69,28.5],[-110.6,27.86],[-107.56,27.76],[-104.22,25.12],[-100.36,23.97],[-97.82,24.14]]]},"properties":{"NAME":"Desert hunter-gatherers","SUBJECTO":"Desert hunter-gatherers","BORDERPRECISION":1}},
{"type":"Feature","geometry":{"type":"Polygon","coordinates":[[[-128.59,55.06],[-120.48,48.96],[-120.47,43.57],[-111.67,41.94],[-114.13,47.95],[-114.47,52],[-125.7,55.19],[-128.59,55.06]]]},"properties":{"NAME":"Plateau fichers and hunter gatherers","SUBJECTO":"Plateau fichers and hunter gatherers","BORDERPRECISION":1}},
{"type":"Feature","geometry":{"type":"Polygon","coordinates":[[[-120.13,34.52],[-121.36,39.69],[-120.47,43.57],[-120.48,48.96],[-128.59,55.06],[-129.85,55],[-130,53.94],[-124.68,48.39],[-124.14,44.79],[-124.23,44.45],[-124.63,43.01],[-123.8,39.03],[-120.2,34.53],[-120.13,34.52]]]},"properties":{"NAME":"North American Pacifi foraging, hunting and fishing peoples","SUBJECTO":"North American Pacifi foraging, hunting and fishing peoples","BORDERPRECISION":1}},
{"type":"Feature","geometry":{"type":"Polygon","coordinates":[[[44.14,1.15],[40.86,0.32],[40.45,-1.36],[38.77,-2.27],[36.02,1.3],[33.93,2.84],[22.22,6.2],[12.6,7.73],[5.36,5.37],[5.35,5.36],[6.84,4.29],[8.87,4.62],[9.92,2.82],[9.2,-0.63],[9.66,-2.42],[11.77,-4.54],[13.39,-8.16],[13.65,-12.2],[12.59,-13.46],[11.77,-17.6],[14.42,-22.27],[15.45,-27.62],[18.18,-31.81],[18.49,-34.4],[26.66,-33.85],[28.92,-32.3],[32.23,-28.74],[33.35,-25.3],[34.88,-24.72],[35.26,-22.27],[34.73,-19.86],[37.28,-17.71],[39.47,-16.72],[40.6,-14.4],[40.31,-11.34],[38.92,-6.34],[40.23,-3.19],[43.72,0.8],[44.14,1.15]]]},"properties":{"NAME":"Khoiasan","SUBJECTO":"Khoiasan","BORDERPRECISION":1}},
{"type":"Feature","geometry":{"type":"Polygon","coordinates":[[[32.88,12.47],[30.6,11.12],[24.07,11.18],[17.75,12.83],[8.27,12.37],[2.35,13.29],[-6.26,13.35],[-8.91,12.64],[-10.18,14.21],[-13.4,14.92],[-16.87,14.36],[-16.77,12.6],[-13.68,9.92],[-12.26,7.35],[-7.53,4.34],[-5,5.24],[-2.03,4.7],[1.56,6.24],[3.95,6.58],[5.45,5.48],[5.36,5.37],[12.6,7.73],[22.22,6.2],[33.93,2.84],[36.02,1.3],[38.77,-2.27],[40.45,-1.36],[40.86,0.32],[44.14,1.15],[44.3,1.29],[46.36,2.67],[48.47,5.2],[50.78,9.37],[51.18,11.78],[44.28,10.4],[42.35,13.27],[38.3,13.22],[39.52,15.46],[42.36,13.47],[39.24,16.25],[35.83,14.22],[35.38,12.8],[34.7,12.66],[34.22,12.55],[32.88,12.47]],[[34.23,11.71],[37.13,11.64],[39.14,9.06],[38.61,6.6],[35.58,5.53],[33.02,6.86],[32.35,9.53],[34.23,11.71]]]},"properties":{"NAME":"West African cereal farmers","SUBJECTO":"West African cereal farmers","BORDERPRECISION":1}},
{"type":"Feature","geometry":{"type":"Polygon","coordinates":[[[44.67,-16.24],[43.97,-17.55],[44.47,-20.17],[43.5,-21.49],[43.67,-24.23],[45.58,-25.62],[47.26,-24.77],[49.34,-18.23],[50.5,-15.31],[49.82,-12.83],[46.92,-15.36],[44.67,-16.24]]]},"properties":{"NAME":"Vazimba","SUBJECTO":"Vazimba","BORDERPRECISION":1}},
{"type":"Feature","geometry":{"type":"Polygon","coordinates":[[[129.95,45.29],[127.65,50.26],[125.05,50.37],[110.7,50.98],[105.3,51.21],[93.94,51.1],[82.21,51.33],[80.72,46.44],[91.33,45.92],[90.96,43.55],[94.6,41.12],[98.97,41],[101.05,40.08],[104.84,41.23],[110.71,40.89],[116.24,41.58],[119.04,42.31],[123.98,42.96],[127.3,43.24],[129.95,45.29]]]},"properties":{"NAME":"Göktürks","SUBJECTO":"Göktürks","BORDERPRECISION":1}},
{"type":"Feature","geometry":{"type":"Polygon","coordinates":[[[34.53,20.17],[37.13,21.23],[35.19,24.4],[33.66,24.02],[34.42,20.51],[34.53,20.17]]]},"properties":{"NAME":"Blemmyes","SUBJECTO":"Blemmyes","BORDERPRECISION":1}},
{"type":"Feature","geometry":{"type":"Polygon","coordinates":[[[-90.16,30.39],[-83.89,30.05],[-82.43,27.83],[-80.59,28.49],[-81.51,30.73],[-80.58,32.5],[-76.62,34.76],[-75.67,37.9],[-73.74,40.98],[-70.3,41.76],[-70.22,43.8],[-67.17,44.71],[-65.71,43.56],[-61.03,45.38],[-64.53,46.27],[-66.03,49.17],[-71.03,46.75],[-72.32,46.3],[-81.93,48.9],[-87.79,49.93],[-95.57,50],[-94.23,46.72],[-94.12,39.73],[-94.12,35.88],[-96.41,35.65],[-97.14,34.47],[-94.12,31.93],[-94.12,29.69],[-90.65,29.24],[-90.44,29.33],[-90.09,29.22],[-90.08,29.5],[-90.11,30.04],[-90.16,30.39]],[[-84.75,45.85],[-80.81,45.95],[-81.81,43.32],[-84.75,45.85]],[[-92.27,46.65],[-88.09,49],[-85.03,47.94],[-87.27,46.51],[-92.27,46.65]]]},"properties":{"NAME":"Eastern North Amercian hunter-gatherers","SUBJECTO":"Eastern North Amercian hunter-gatherers","BORDERPRECISION":1}},
{"type":"Feature","geometry":{"type":"Polygon","coordinates":[[[-69.87,-14.38],[-72.23,-12.24],[-75.58,-10.61],[-76.72,-12.73],[-76.24,-14.11],[-74.05,-16.04],[-71.61,-17.22],[-69.87,-14.38]]]},"properties":{"NAME":"Huari Empire","SUBJECTO":"Huari Empire","BORDERPRECISION":1}},
{"type":"Feature","geometry":{"type":"Polygon","coordinates":[[[42.35,13.27],[42.36,13.47],[39.52,15.46],[38.3,13.22],[42.35,13.27]]]},"properties":{"NAME":"Axum","SUBJECTO":"Axum","BORDERPRECISION":1}},
{"type":"Feature","geometry":{"type":"Polygon","coordinates":[[[-82.43,27.83],[-81.1,25.13],[-80.05,26.55],[-80.59,28.49],[-82.43,27.83]]]},"properties":{"NAME":"Caloosahatchee cultureure","SUBJECTO":"Caloosahatchee cultureure","BORDERPRECISION":1}},
{"type":"Feature","geometry":{"type":"Polygon","coordinates":[[[-6.26,13.35],[-4.55,15.11],[-5.18,17.2],[-7.46,19.44],[-9.91,17.89],[-11.18,15.46],[-10.18,14.21],[-8.91,12.64],[-6.26,13.35]]]},"properties":{"NAME":"Empire of Ghana","SUBJECTO":"Empire of Ghana","BORDERPRECISION":1}},
{"type":"Feature","geometry":{"type":"Polygon","coordinates":[[[15.29,59.42],[17.74,59.11],[17.75,58.99],[18.27,59.29],[18.52,59.4],[16.41,59.45],[18.89,59.93],[15.29,59.42]]]},"properties":{"NAME":"Swedes","SUBJECTO":"Swedes","BORDERPRECISION":1}},
{"type":"Feature","geometry":{"type":"Polygon","coordinates":[[[106.93,11.84],[104.39,11.98],[101.63,13.73],[100.91,13.45],[103.04,10.9],[106.48,9.55],[106.77,10.64],[106.93,11.84]]]},"properties":{"NAME":"Funan","SUBJECTO":"Funan","BORDERPRECISION":1}},
{"type":"Feature","geometry":{"type":"Polygon","coordinates":[[[12.87,47.18],[14.84,47.2],[14.76,48.19],[12.75,48.93],[12.87,47.18]]]},"properties":{"NAME":"Ostrogoths","SUBJECTO":"","BORDERPRECISION":1}},
{"type":"Feature","geometry":{"type":"Polygon","coordinates":[[[14.24,45.06],[14.35,45.31],[13.53,45.45],[13.9,44.76],[14.24,45.06]]]},"properties":{"NAME":"Ostrogoths","SUBJECTO":"","BORDERPRECISION":1}},
{"type":"Feature","geometry":{"type":"MultiPolygon","coordinates":[[[[8.05,44.02],[10.74,42.85],[12.45,47.11],[9,46.96],[8.05,44.02]]],[[[15.87,41.5],[14.43,42.33],[13.33,41.31],[14.99,40.37],[15.87,41.5]]]]},"properties":{"NAME":"Lombard principalities","SUBJECTO":"Lombard principalities","BORDERPRECISION":1}},
{"type":"Feature","geometry":{"type":"MultiPolygon","coordinates":[[[[33.66,24.02],[35.19,24.4],[33.35,27.91],[35.11,28.07],[38.38,33.53],[44.39,41.88],[41.12,43.02],[40.36,40.96],[36.38,41.24],[33.56,41.98],[26.13,39.88],[27.16,37.36],[30.47,36.19],[35.71,36.21],[35.87,34.42],[33.56,30.97],[31,31.47],[29.25,30.75],[23.15,32.14],[21.67,32.82],[20.12,30.96],[19.12,30.2],[15.84,31.29],[15.01,32.36],[12.56,32.74],[10.02,34.08],[11.13,35.24],[10.13,37.1],[6.05,36.84],[7.99,35.5],[9.83,32.92],[18.61,29.41],[19.35,29.41],[21.29,29.96],[22.31,29.96],[26.74,28.57],[28.41,27.74],[30.81,23.86],[33.66,24.02]]],[[[-6.71,38.28],[-5.61,36.01],[-2.12,36.74],[-0.33,39.43],[-2.82,37.72],[-6.71,38.28]]],[[[15.41,46.14],[14.54,45.26],[15.41,43.93],[19.61,41.76],[19.37,40.26],[21.23,37.9],[23.56,38.35],[22.6,40.4],[28.83,40.91],[27.5,42.52],[29.62,45.41],[28.22,45.48],[25.26,43.82],[22.95,44.65],[18.63,44.86],[15.41,46.14]]],[[[12.45,47.11],[10.74,42.85],[13.33,41.31],[14.43,42.33],[12.35,44.3],[13.67,45.71],[12.88,47.06],[12.45,47.11]]]]},"properties":{"NAME":"Eastern Roman Empire","SUBJECTO":"Eastern Roman Empire","BORDERPRECISION":1}},
{"type":"Feature","geometry":{"type":"Polygon","coordinates":[[[76.92,29.39],[72.63,28.37],[74.12,26.54],[78.54,27.63],[76.92,29.39]]]},"properties":{"NAME":"Chauhans","SUBJECTO":"Chauhans","BORDERPRECISION":1}},
{"type":"Feature","geometry":{"type":"Polygon","coordinates":[[[107.38,16.69],[105.53,18.84],[107.9,21.48],[110.08,20.87],[113.72,22.48],[116.34,22.91],[118.81,24.85],[119.43,26.59],[121.36,28.39],[121.61,31.83],[119.02,34.69],[120.14,36.19],[117.59,38.28],[121.01,40.85],[122.08,40.49],[124.7,42.31],[123.98,42.96],[119.04,42.31],[118.21,40.83],[110.71,40.89],[104.84,41.23],[101.05,40.08],[96.6,39.71],[96.41,38.32],[99.38,37.58],[101.79,37.67],[100.68,32.85],[99.75,27.47],[100.68,24.13],[103.68,26.06],[106.43,24.87],[103.83,20.14],[103.23,20.12],[106.45,16.19],[107.38,16.69]]]},"properties":{"NAME":"Sui Empire","SUBJECTO":"Sui Empire","BORDERPRECISION":1}},
{"type":"Feature","geometry":{"type":"Polygon","coordinates":[[[91.57,22.54],[93.11,20.59],[92.9,21.61],[92.13,22.97],[92.04,23.12],[91.57,22.54]]]},"properties":{"NAME":"Arakan","SUBJECTO":"Arakan","BORDERPRECISION":1}},
{"type":"Feature","geometry":{"type":"Polygon","coordinates":[[[100.3,7.89],[99.07,9.9],[100.24,13.49],[100.91,13.45],[101.63,13.73],[101.61,15.32],[98.19,13.66],[98.74,11.44],[98.18,8.6],[99.12,7.64],[100.3,7.89]]]},"properties":{"NAME":"Dvaravati","SUBJECTO":"Dvaravati","BORDERPRECISION":1}},
{"type":"Feature","geometry":{"type":"Polygon","coordinates":[[[178.18,-18.24],[178.17,-17.34],[177.51,-17.51],[177.33,-18.12],[178.18,-18.24]]]},"properties":{"NAME":"Tuʻi Tonga Empire","SUBJECTO":"Tuʻi Tonga Empire","BORDERPRECISION":1}}
]}