{"type":"FeatureCollection", "features": [
{"type":"Feature","geometry":{"type":"MultiPolygon","coordinates":[[[[99.87,2.64],[98.6,1.71],[100.81,-2.34],[104.57,-6.07],[105.94,-3.21],[99.87,2.64]]],[[[111.12,1.27],[108.81,0.81],[110.1,-3.08],[115.57,-3.8],[117.53,0.61],[117.07,3.51],[119.04,5.17],[116.6,6.9],[111.12,1.27]]]]},"properties":{"NAME":"Austronesians","SUBJECTO":"Austronesians","BORDERPRECISION":1}},
{"type":"Feature","geometry":{"type":"Polygon","coordinates":[[[146.71,-43.72],[148.27,-41.09],[144.78,-40.84],[146.71,-43.72]]]},"properties":{"NAME":"Aboriginal Tasmanians","SUBJECTO":"Aboriginal Tasmanians","BORDERPRECISION":1}},
{"type":"Feature","geometry":{"type":"Polygon","coordinates":[[[137.89,37.02],[135.16,35.65],[139.54,35.29],[137.89,37.02]]]},"properties":{"NAME":"Jōmon","SUBJECTO":"Jōmon","BORDERPRECISION":1}},
{"type":"Feature","geometry":{"type":"Polygon","coordinates":[[[13.48,-8.49],[13.65,-12.2],[12.59,-13.46],[11.77,-17.6],[14.42,-22.27],[15.45,-27.62],[18.18,-31.81],[18.49,-34.4],[26.66,-33.85],[32.23,-28.74],[33.35,-25.3],[34.88,-24.72],[34.73,-19.86],[39.47,-16.72],[40.6,-14.4],[39.44,-7.92],[13.48,-8.49]]]},"properties":{"NAME":"Khoisan","SUBJECTO":"Khoisan","BORDERPRECISION":1}},
{"type":"Feature","geometry":{"type":"Polygon","coordinates":[[[44.67,-16.24],[43.67,-24.23],[47.26,-24.77],[50.5,-15.31],[49.82,-12.83],[44.67,-16.24]]]},"properties":{"NAME":"Hunters-gatherers","SUBJECTO":"Hunters-gatherers","BORDERPRECISION":1}},
{"type":"Feature","geometry":{"type":"MultiPolygon","coordinates":[[[[139.54,35.29],[139.81,35.01],[139.93,34.88],[142,39.67],[137.89,37.02],[139.54,35.29]]],[[[140.01,41.38],[143.21,41.93],[145.06,43.79],[141.88,45.44],[140.01,41.38]]]]},"properties":{"NAME":"Okhotsk culture","SUBJECTO":"Okhotsk culture","BORDERPRECISION":1}},
{"type":"Feature","geometry":{"type":"Polygon","coordinates":[[[142.34,-10.92],[140.8,-17.56],[135.39,-14.9],[136.66,-12.62],[133.56,-11.95],[130.46,-12.76],[129.2,-14.99],[126.85,-13.78],[122.74,-16.58],[120.87,-19.68],[116.42,-20.84],[113.63,-22.57],[113.43,-26.57],[115.75,-32.21],[115.05,-34.42],[118.21,-35.09],[123.62,-33.92],[126.06,-32.43],[131.28,-31.63],[133.84,-32.34],[135.53,-35.05],[137.46,-33.31],[140.01,-37.64],[143.36,-38.97],[149.5,-37.93],[152.97,-31.42],[153.07,-26.23],[150.75,-22.81],[146.32,-19.08],[145.18,-15.05],[143.74,-14.47],[142.34,-10.92]]]},"properties":{"NAME":"Aboriginal tribes","SUBJECTO":"Aboriginal tribes","BORDERPRECISION":1}},
{"type":"Feature","geometry":{"type":"Polygon","coordinates":[[[44.28,37.84],[46.21,36.37],[47.76,37.51],[45.67,38.86],[44.28,37.84]]]},"properties":{"NAME":"Steppe Mesolithic Hunter-Foragers","SUBJECTO":"Steppe Mesolithic Hunter-Foragers","BORDERPRECISION":1}},
{"type":"Feature","geometry":{"type":"Polygon","coordinates":[[[48.25,28.94],[48.93,30.35],[47.02,32.95],[44.58,31.6],[48.25,28.94]]]},"properties":{"NAME":"Alluvial Lowland Mesolithic Hunter-Foragers","SUBJECTO":"","BORDERPRECISION":1}},
{"type":"Feature","geometry":{"type":"Polygon","coordinates":[[[27.03,38.83],[27.49,37.24],[35.46,38.04],[34.89,39.49],[27.03,38.83]]]},"properties":{"NAME":"Steppe Mesolithic Hunter-Foragers","SUBJECTO":"Steppe Mesolithic Hunter-Foragers","BORDERPRECISION":1}},
{"type":"Feature","geometry":{"type":"Polygon","coordinates":[[[39.24,35.33],[36.06,32.09],[34.87,32.67],[34.42,31.52],[36.24,30.48],[39.24,35.33]]]},"properties":{"NAME":"Levantine Corridor (Neolithic Farmers)","SUBJECTO":"","BORDERPRECISION":1}},
{"type":"Feature","geometry":{"type":"Polygon","coordinates":[[[51.16,32.56],[50.28,34.35],[49.13,33.01],[51.16,32.56]]]},"properties":{"NAME":"HIghland Mesolithic Hunter-Foragers","SUBJECTO":"HIghland Mesolithic Hunter-Foragers","BORDERPRECISION":1}},
{"type":"Feature","geometry":{"type":"Polygon","coordinates":[[[39.24,35.33],[42.53,37.12],[40.65,37.83],[39.71,37.71],[38.09,37.43],[36.06,32.09],[39.24,35.33]]]},"properties":{"NAME":"Steppe Mesolithic Hunter-Foragers","SUBJECTO":"","BORDERPRECISION":1}},
{"type":"Feature","geometry":{"type":"Polygon","coordinates":[[[27.49,37.24],[30.47,36.19],[35.71,36.21],[34.87,32.67],[36.06,32.09],[38.09,37.43],[39.71,37.71],[39.79,38.47],[35.46,38.04],[27.49,37.24]]]},"properties":{"NAME":"Coastal and Woodland Mesolithic Hunter-Foragers","SUBJECTO":"Coastal and Woodland Mesolithic Hunter-Foragers","BORDERPRECISION":1}},
{"type":"Feature","geometry":{"type":"Polygon","coordinates":[[[40.65,37.83],[40.85,38.68],[39.79,38.47],[39.71,37.71],[40.65,37.83]]]},"properties":{"NAME":"Neolithic Farmers","SUBJECTO":"","BORDERPRECISION":1}},
{"type":"Feature","geometry":{"type":"Polygon","coordinates":[[[42.53,37.12],[40.85,38.68],[40.65,37.83],[42.53,37.12]]]},"properties":{"NAME":"Highland Mesolithic Hunter-Foragers","SUBJECTO":"","BORDERPRECISION":1}}
]}