{"type":"FeatureCollection", "features": [
{"type":"Feature","geometry":{"type":"Polygon","coordinates":[[[5.82,49.51],[6.43,49.45],[6.11,50.12],[5.82,49.51]]]},"properties":{"NAME":"Luxembourg","SUBJECTO":"Luxembourg","BORDERPRECISION":3}},
{"type":"Feature","geometry":{"type":"MultiPolygon","coordinates":[[[[137.31,37.43],[134.43,34.63],[135.76,33.34],[136.73,34.87],[138.15,34.53],[140.32,35.03],[140.87,37.92],[142,39.67],[141.15,40.87],[139.2,37.92],[137.31,37.43]]],[[[130.55,30.97],[131.67,33.31],[129.34,33.15],[130.55,30.97]]],[[[139.98,41.5],[141.93,42.5],[143.21,41.93],[145.06,43.79],[141.88,45.44],[141.3,43.19],[139.98,41.5]]]]},"properties":{"NAME":"Imperial Japan","SUBJECTO":"Imperial Japan","BORDERPRECISION":3}},
{"type":"Feature","geometry":{"type":"Polygon","coordinates":[[[91.61,27.64],[89.37,27.88],[88.8,27.18],[90,26.78],[91.61,27.64]]]},"properties":{"NAME":"Bhutan","SUBJECTO":"Bhutan","BORDERPRECISION":3}},
{"type":"Feature","geometry":{"type":"Polygon","coordinates":[[[-82.18,22.37],[-77.29,20.7],[-77.34,21.51],[-79.76,22.76],[-81.43,23.14],[-82.18,22.37]]]},"properties":{"NAME":"Spain","SUBJECTO":"Spain","BORDERPRECISION":3}},
{"type":"Feature","geometry":{"type":"Polygon","coordinates":[[[-71.78,19.77],[-72.75,18.51],[-71.68,18],[-71.78,19.77]]]},"properties":{"NAME":"Haiti","SUBJECTO":"Haiti","BORDERPRECISION":3}},
{"type":"Feature","geometry":{"type":"Polygon","coordinates":[[[-71.68,18],[-68.66,18.87],[-70.88,19.93],[-71.78,19.77],[-71.68,18]]]},"properties":{"NAME":"Dominican Republic","SUBJECTO":"Dominican Republic","BORDERPRECISION":3}},
{"type":"Feature","geometry":{"type":"MultiPolygon","coordinates":[[[[120.36,14.53],[122.4,17.11],[122.03,18.01],[120.39,18.04],[119.77,15.47],[120.36,14.53]]],[[[126.05,6.61],[125.93,9.17],[123.46,7.79],[124.22,6.09],[126.05,6.61]]]]},"properties":{"NAME":"Philippines","SUBJECTO":"Philippines","BORDERPRECISION":3}},
{"type":"Feature","geometry":{"type":"MultiPolygon","coordinates":[[[[-6.33,53.79],[-8.35,55.1],[-9.89,52.19],[-6.41,52.21],[-6.33,53.79]]],[[[0.27,53.13],[-2.74,55.96],[-2.15,57.57],[-5.76,57.62],[-5.63,55.94],[-3.58,54.92],[-4.32,53.09],[-3.52,50.62],[0.19,50.73],[1.69,52.31],[0.27,53.13]]]]},"properties":{"NAME":"United Kingdom of Great Britain and Ireland","SUBJECTO":"United Kingdom of Great Britain and Ireland","BORDERPRECISION":3}},
{"type":"Feature","geometry":{"type":"Polygon","coordinates":[[[-87.4,13.03],[-85.84,11.08],[-83.75,10.88],[-83.42,15],[-84.83,14.77],[-87.4,13.03]]]},"properties":{"NAME":"Nicaragua","SUBJECTO":"Nicaragua","BORDERPRECISION":3}},
{"type":"Feature","geometry":{"type":"Polygon","coordinates":[[[-85.84,11.08],[-85.78,10.14],[-83.61,9.15],[-82.96,8.05],[-82.56,9.58],[-83.75,10.88],[-85.84,11.08]]]},"properties":{"NAME":"Costa Rica","SUBJECTO":"Costa Rica","BORDERPRECISION":3}},
{"type":"Feature","geometry":{"type":"Polygon","coordinates":[[[80.56,5.93],[81.87,7.08],[80.66,9.3],[79.67,8.8],[79.85,7.06],[80.56,5.93]]]},"properties":{"NAME":"Ceylon","SUBJECTO":"Ceylon","BORDERPRECISION":3}},
{"type":"Feature","geometry":{"type":"MultiPolygon","coordinates":[[[[175.31,-37.32],[174.65,-38.98],[176.01,-41.26],[178.41,-38.77],[175.31,-37.32]]],[[[172.06,-43.92],[174.23,-42.01],[171.46,-41.99],[171.02,-42.89],[168.42,-44.22],[166.52,-46.23],[169.4,-46.71],[172.06,-43.92]]]]},"properties":{"NAME":"M?ori","SUBJECTO":"M?ori","BORDERPRECISION":3}},
{"type":"Feature","geometry":{"type":"Polygon","coordinates":[[[-68.46,-52.42],[-69.04,-50.56],[-65.78,-47.23],[-67.33,-46.53],[-65.44,-44.89],[-64.94,-40.83],[-62.96,-41.14],[-61.36,-39.03],[-57.81,-38.39],[-56.7,-36.94],[-58.34,-34.22],[-57.58,-30.4],[-53.62,-26.27],[-54.58,-25.74],[-55.73,-27.45],[-58.07,-27.19],[-57.71,-25.34],[-61.24,-23.62],[-62.61,-22.16],[-66.15,-21.92],[-68.39,-24.6],[-68.48,-25.94],[-69.95,-29.36],[-70.5,-31.69],[-69.84,-33.76],[-71.1,-36.81],[-70.84,-38.73],[-71.86,-40.75],[-71.79,-44.11],[-71.32,-44.81],[-72.46,-48.85],[-73.51,-49.76],[-71.79,-52.09],[-68.46,-52.42]]]},"properties":{"NAME":"Argentina","SUBJECTO":"Argentina","BORDERPRECISION":3}},
{"type":"Feature","geometry":{"type":"Polygon","coordinates":[[[-24.22,65.53],[-22.37,63.77],[-18.64,63.32],[-14.82,64.2],[-13.65,65.5],[-16.92,65.98],[-24.22,65.53]]]},"properties":{"NAME":"Iceland","SUBJECTO":"Iceland","BORDERPRECISION":3}},
{"type":"Feature","geometry":{"type":"Polygon","coordinates":[[[6.11,50.12],[6,50.74],[3.78,51.39],[2.52,51.09],[5.82,49.51],[6.11,50.12]]]},"properties":{"NAME":"Belgium","SUBJECTO":"Belgium","BORDERPRECISION":3}},
{"type":"Feature","geometry":{"type":"Polygon","coordinates":[[[-8.81,41.89],[-6.71,41.96],[-6.93,38.96],[-7.49,37.21],[-5.66,36.01],[-4.45,36.72],[-2.24,36.73],[0.17,38.74],[-0.39,39.43],[0.88,41.02],[3.09,42.37],[-0.61,42.73],[-1.91,43.31],[-7.64,43.72],[-9.27,43.05],[-8.81,41.89]]]},"properties":{"NAME":"Spain","SUBJECTO":"Spain","BORDERPRECISION":3}},
{"type":"Feature","geometry":{"type":"Polygon","coordinates":[[[-8.81,41.89],[-9.55,38.77],[-8.67,37.12],[-7.49,37.21],[-6.93,38.96],[-6.71,41.96],[-8.81,41.89]]]},"properties":{"NAME":"Portugal","SUBJECTO":"Portugal","BORDERPRECISION":3}},
{"type":"Feature","geometry":{"type":"Polygon","coordinates":[[[61.22,35.58],[60.54,32.99],[60.82,29.83],[62.37,29.38],[66.09,29.74],[66.47,30.84],[69.21,31.8],[71.66,35.13],[72.37,36.72],[74.52,37],[74.73,37.21],[72.71,37.19],[71.44,37.83],[67.86,36.85],[65.72,37.49],[62.68,35.27],[61.22,35.58]]]},"properties":{"NAME":"Afghanistan","SUBJECTO":"Afghanistan","BORDERPRECISION":3}},
{"type":"Feature","geometry":{"type":"Polygon","coordinates":[[[-88.94,15.9],[-88.32,18.49],[-89.15,17.83],[-88.94,15.9]]]},"properties":{"NAME":"Belize","SUBJECTO":"Belize","BORDERPRECISION":3}},
{"type":"Feature","geometry":{"type":"Polygon","coordinates":[[[-89.15,17.83],[-91.01,17.84],[-92.16,14.54],[-90,13.87],[-89.38,14.47],[-88.27,15.75],[-88.94,15.9],[-89.15,17.83]]]},"properties":{"NAME":"Guatemala","SUBJECTO":"Guatemala","BORDERPRECISION":3}},
{"type":"Feature","geometry":{"type":"Polygon","coordinates":[[[-83.42,15],[-84.65,15.93],[-88.27,15.75],[-89.38,14.47],[-87.77,13.5],[-87.4,13.03],[-84.83,14.77],[-83.42,15]]]},"properties":{"NAME":"Honduras","SUBJECTO":"Honduras","BORDERPRECISION":3}},
{"type":"Feature","geometry":{"type":"Polygon","coordinates":[[[-90,13.87],[-87.77,13.5],[-89.38,14.47],[-90,13.87]]]},"properties":{"NAME":"El Salvador","SUBJECTO":"El Salvador","BORDERPRECISION":3}},
{"type":"Feature","geometry":{"type":"MultiPolygon","coordinates":[[[[100.16,6.34],[100.66,3.9],[101.34,2.78],[103.43,1.38],[103.34,4.81],[102.07,6.15],[100.16,6.34]]],[[[114.07,4.46],[112.76,3.01],[111.37,2.6],[110.82,1.24],[109.52,1.82],[110.55,0.73],[112.4,1.43],[114.66,1.6],[115.71,4.16],[117.56,3.98],[119.04,5.17],[116.6,6.9],[114.96,4.88],[115.16,4.31],[114.43,4],[114.07,4.46]]]]},"properties":{"NAME":"Malaya","SUBJECTO":"Malaya","BORDERPRECISION":3}},
{"type":"Feature","geometry":{"type":"Polygon","coordinates":[[[-56.71,1.89],[-54.39,2.26],[-54.37,4.69],[-53.84,5.69],[-57.07,5.84],[-58,3.96],[-56.71,1.89]]]},"properties":{"NAME":"Dutch Guiana","SUBJECTO":"Dutch Guiana","BORDERPRECISION":3}},
{"type":"Feature","geometry":{"type":"Polygon","coordinates":[[[-54.39,2.26],[-52.85,2.09],[-51.62,4.22],[-53.84,5.69],[-54.37,4.69],[-54.39,2.26]]]},"properties":{"NAME":"French Guiana","SUBJECTO":"French Guiana","BORDERPRECISION":3}},
{"type":"Feature","geometry":{"type":"Polygon","coordinates":[[[140.95,-9.27],[142.61,-9.38],[144.38,-7.76],[145.82,-8.1],[147.87,-10.18],[148.59,-9.16],[146.91,-6.89],[147.38,-6.12],[143.45,-3.61],[140.87,-2.79],[140.95,-9.27]]]},"properties":{"NAME":"Papua New Guinea","SUBJECTO":"Papua New Guinea","BORDERPRECISION":3}},
{"type":"Feature","geometry":{"type":"Polygon","coordinates":[[[128.82,-24.94],[128.72,-31.92],[131.28,-31.63],[133.84,-32.34],[135.53,-35.05],[137.46,-33.31],[139.37,-35.61],[140.01,-37.64],[141.06,-38.38],[141.02,-34],[140.98,-28.86],[140.95,-25.87],[137.88,-25.92],[137.9,-24.94],[128.82,-24.94]]]},"properties":{"NAME":"South Australia (UK)","SUBJECTO":"United Kingdom of Great Britain and Ireland","BORDERPRECISION":3}},
{"type":"Feature","geometry":{"type":"Polygon","coordinates":[[[-58.34,-34.22],[-56.34,-35],[-54.62,-34.92],[-53.41,-33.88],[-53.89,-32.05],[-57.58,-30.4],[-58.34,-34.22]]]},"properties":{"NAME":"Uruguay","SUBJECTO":"Uruguay","BORDERPRECISION":3}},
{"type":"Feature","geometry":{"type":"Polygon","coordinates":[[[6,50.74],[7.16,53.16],[4.64,52.76],[3.78,51.39],[6,50.74]]]},"properties":{"NAME":"Netherlands","SUBJECTO":"Netherlands","BORDERPRECISION":3}},
{"type":"Feature","geometry":{"type":"Polygon","coordinates":[[[88.2,27.88],[85.14,28.34],[81.66,30.45],[81.02,30.25],[80.1,28.95],[82.81,27.54],[86.78,26.47],[88.09,26.44],[88.2,27.88]]]},"properties":{"NAME":"Nepal","SUBJECTO":"Nepal","BORDERPRECISION":3}},
{"type":"Feature","geometry":{"type":"Polygon","coordinates":[[[114.96,4.88],[114.07,4.46],[114.43,4],[115.16,4.31],[114.96,4.88]]]},"properties":{"NAME":"Brunei","SUBJECTO":"Brunei","BORDERPRECISION":3}},
{"type":"Feature","geometry":{"type":"MultiPolygon","coordinates":[[[[109.52,1.82],[108.81,0.81],[110.1,-3.08],[112.8,-2.97],[114.71,-4.21],[115.57,-3.8],[117.53,0.61],[118.52,1.17],[117.07,3.51],[117.56,3.98],[115.71,4.16],[114.66,1.6],[112.4,1.43],[110.55,0.73],[109.52,1.82]]],[[[140.87,-2.79],[137.85,-1.61],[135.25,-3.54],[134.28,-2.85],[133.91,-1.01],[132.25,-0.53],[131.21,-1.02],[132.72,-2.93],[134.04,-3.95],[137.82,-5.43],[139.16,-7.73],[140.95,-9.27],[140.87,-2.79]]],[[[103.71,-0.02],[101.06,2.08],[98.15,4.07],[96.72,3.7],[98.6,1.71],[100.81,-2.34],[104.57,-6.07],[105.73,-5.83],[105.94,-3.21],[103.24,-0.66],[103.71,-0.02]]],[[[105.18,-6.87],[106.48,-7.5],[109.04,-7.72],[110.78,-8.32],[113.07,-8.35],[112.27,-7.03],[108.56,-6.92],[106.95,-6.03],[105.18,-6.87]]],[[[119.69,-0.02],[118.68,-2.9],[120.14,-3.08],[121.87,-4.96],[122.26,-3.21],[120.51,-1.45],[119.69,-0.02]]]]},"properties":{"NAME":"Netherlands Indies","SUBJECTO":"Netherlands","BORDERPRECISION":3}},
{"type":"Feature","geometry":{"type":"Polygon","coordinates":[[[-26.79,71.56],[-20.33,73.42],[-18.25,77.3],[-20.88,78.82],[-14.2,81.21],[-32.51,83.58],[-49.65,82.48],[-67.14,80.56],[-65.48,79.16],[-72.38,78.53],[-67.04,75.94],[-58.64,75.79],[-54.73,73.04],[-51.72,71.59],[-50.48,67.48],[-52.3,66.91],[-51.37,63.73],[-48.92,61.42],[-43.14,59.82],[-42.27,62.19],[-40.52,63.78],[-39.99,65.53],[-35.97,65.85],[-32.96,67.64],[-26.96,68.5],[-22.73,69.77],[-28.38,70.46],[-26.79,71.56]]]},"properties":{"NAME":"Greenland","SUBJECTO":"Greenland","BORDERPRECISION":3}},
{"type":"Feature","geometry":{"type":"MultiPolygon","coordinates":[[[[-76.13,44.33],[-74.78,45.01],[-70.59,45.29],[-69.05,47.46],[-67.7,47.04],[-67.19,45.25],[-65.71,43.56],[-61.03,45.38],[-64.53,46.27],[-64.95,49.21],[-66.37,50.31],[-60.14,50.41],[-55.66,52.19],[-55.88,53.35],[-61.93,56.27],[-62.89,58.66],[-69.21,58.75],[-70.03,60.88],[-73.39,62.35],[-77.36,62.52],[-78.34,58.55],[-76.44,56.81],[-77.23,55.61],[-79.55,54.69],[-78.49,52.26],[-79.59,51.27],[-82.34,52.98],[-82.2,54.97],[-87.47,55.91],[-90,57.18],[-92.48,56.98],[-94.75,59.95],[-93.42,61.86],[-87.44,64.57],[-85.99,66.16],[-83.14,66.37],[-81.29,67.5],[-84.31,69.83],[-86.49,67.38],[-93.27,71.56],[-96.7,70.84],[-92.96,69.08],[-96.21,68.07],[-101.91,67.71],[-105.64,68.35],[-112.5,67.69],[-115.29,68.89],[-127.35,70.38],[-131.67,69.28],[-136.2,68.88],[-141.06,69.6],[-140.97,66.03],[-140.89,60.39],[-135.85,59.65],[-133.5,58.42],[-130,55.29],[-130,53.94],[-127.56,52.17],[-127.25,50.97],[-124.94,50.6],[-122.9,49.07],[-115.16,49.06],[-110.67,49.05],[-104.26,49.06],[-94.82,49.05],[-91.68,48.04],[-89.62,47.97],[-88.09,49],[-85.03,47.94],[-84.74,46.47],[-83.82,46.15],[-80.81,45.95],[-82.3,43.03],[-83.06,42.03],[-79.05,42.85],[-79.14,43.22],[-76.13,44.33]]],[[[-111.64,72.73],[-114.65,73.35],[-118.99,72.03],[-117.57,69.99],[-113.15,68.6],[-106.85,69.45],[-103.86,70.7],[-105.31,72.65],[-111.64,72.73]]],[[[-124.58,71.9],[-120.45,72.3],[-115.65,73.63],[-121.24,74.58],[-125.34,72.97],[-124.58,71.9]]],[[[-57.97,49.08],[-56.08,47.87],[-54.13,48.84],[-56.66,50.06],[-57.97,49.08]]],[[[-87.1,63.54],[-84.65,63.31],[-82.11,64.64],[-85.56,65.86],[-87.1,63.54]]],[[[-71.54,63.36],[-69.16,62.42],[-64.47,63.74],[-67.61,65.91],[-62.84,65.61],[-61.21,66.64],[-68.67,68.72],[-71.25,71.35],[-81.53,73.69],[-88.1,73.64],[-90,71.54],[-87.95,70.38],[-82.27,69.86],[-78.71,70.01],[-73.18,68.3],[-72.3,67.26],[-75.79,65.2],[-71.54,63.36]]],[[[-90,75.97],[-89.7,74.61],[-80.35,74.62],[-81.7,75.87],[-90,75.97]]],[[[-90,82.02],[-85.81,78.91],[-87.27,76.5],[-78.21,76.55],[-78.37,78.03],[-71.45,79.85],[-62.43,82.63],[-76.38,83.15],[-90,82.02]]]]},"properties":{"NAME":"Canada","SUBJECTO":"Canada","BORDERPRECISION":3}},
{"type":"Feature","geometry":{"type":"Polygon","coordinates":[[[5.82,49.51],[2.52,51.09],[0.03,49.33],[-1.89,49.53],[-3.95,47.9],[-1.08,46.01],[-1.91,43.31],[-0.61,42.73],[3.09,42.37],[4.08,43.49],[5.83,43.02],[7.4,43.76],[5.94,46.18],[7.51,47.6],[6.43,49.45],[5.82,49.51]]]},"properties":{"NAME":"France","SUBJECTO":"France","BORDERPRECISION":3}},
{"type":"Feature","geometry":{"type":"Polygon","coordinates":[[[5.94,46.18],[6.38,46.34],[6.36,46.35],[6.74,46.49],[6.75,46.49],[6.78,46.47],[6.83,46.47],[6.86,46.39],[6.81,46.39],[7.79,45.93],[10.4,46.89],[9.54,47.49],[8.98,47.68],[7.51,47.6],[5.94,46.18]]]},"properties":{"NAME":"Switzerland","SUBJECTO":"Switzerland","BORDERPRECISION":3}},
{"type":"Feature","geometry":{"type":"Polygon","coordinates":[[[-57.07,5.84],[-59.4,8.16],[-60.1,6.56],[-58.7,2.77],[-57.9,1.59],[-56.71,1.89],[-58,3.96],[-57.07,5.84]]]},"properties":{"NAME":"British Guiana","SUBJECTO":"British Guiana","BORDERPRECISION":3}},
{"type":"Feature","geometry":{"type":"Polygon","coordinates":[[[-59.4,8.16],[-61.29,8.77],[-61.53,9.85],[-64.07,10.63],[-64.88,10.14],[-67.98,10.54],[-68.69,11.38],[-71.19,11.91],[-72.05,11.72],[-73.02,9.74],[-71.81,6.97],[-70.54,7.05],[-69.3,6.01],[-67.77,6.24],[-67.77,2.82],[-66.85,1.01],[-65.36,0.56],[-63.88,1.88],[-60.52,2.19],[-58.85,1.15],[-57.9,1.59],[-58.7,2.77],[-60.1,6.56],[-59.4,8.16]]]},"properties":{"NAME":"Venezuela","SUBJECTO":"Venezuela","BORDERPRECISION":3}},
{"type":"Feature","geometry":{"type":"Polygon","coordinates":[[[-57.58,-30.4],[-53.89,-32.05],[-53.41,-33.88],[-52.04,-31.56],[-48.94,-28.7],[-48.72,-25.43],[-44.56,-22.99],[-41.96,-22.92],[-39.69,-19.41],[-38.95,-16],[-39.13,-14.32],[-37.19,-10.84],[-35.6,-9.63],[-34.89,-7.61],[-35.46,-5.27],[-37.18,-4.95],[-40.23,-2.85],[-44.22,-2.78],[-44.8,-1.74],[-47.24,-0.68],[-49.22,-2.11],[-50.64,-1.88],[-51.53,-0.43],[-49.88,1.21],[-51.62,4.22],[-52.85,2.09],[-54.39,2.26],[-56.71,1.89],[-57.9,1.59],[-58.85,1.15],[-60.52,2.19],[-63.88,1.88],[-65.36,0.56],[-66.85,1.01],[-66.66,-2.82],[-69.23,-3.48],[-69.9,-4.38],[-72.77,-5.14],[-73.84,-7.58],[-72.92,-9.04],[-66.47,-9.91],[-65.31,-9.82],[-65.27,-11.37],[-64.26,-12.47],[-60.36,-13.9],[-60.03,-16.33],[-58.33,-16.37],[-57.6,-18.04],[-58.14,-19.81],[-57.81,-22.15],[-55.62,-22.45],[-55.35,-23.78],[-54.22,-24.12],[-54.58,-25.74],[-53.62,-26.27],[-57.58,-30.4]]]},"properties":{"NAME":"Kingdom of Brazil","SUBJECTO":"Portugal","BORDERPRECISION":3}},
{"type":"Feature","geometry":{"type":"Polygon","coordinates":[[[-80.23,-3.47],[-79.29,-5.01],[-75.69,-5.06],[-73.59,-4.44],[-72.88,-3.39],[-70.59,-3.79],[-70.92,-2.32],[-72.96,-2.45],[-74.47,-0.57],[-76.85,0.14],[-78.94,1.38],[-80.09,0.82],[-80.97,-1.03],[-80.23,-3.47]]]},"properties":{"NAME":"Ecuador","SUBJECTO":"Ecuador","BORDERPRECISION":3}},
{"type":"Feature","geometry":{"type":"MultiPolygon","coordinates":[[[[-68.48,-25.94],[-70.85,-27.28],[-71.7,-30.85],[-71.62,-33.71],[-73.67,-37.5],[-73.19,-39.57],[-73.91,-40.84],[-72.44,-42.3],[-73,-43.33],[-74.31,-48.75],[-73.41,-52.02],[-70.73,-52.8],[-68.46,-52.42],[-71.79,-52.09],[-73.51,-49.76],[-72.46,-48.85],[-71.32,-44.81],[-71.79,-44.11],[-71.86,-40.75],[-70.84,-38.73],[-71.1,-36.81],[-69.84,-33.76],[-70.5,-31.69],[-69.95,-29.36],[-68.48,-25.94]]],[[[-68.7,-52.72],[-70.33,-53.47],[-68.75,-54.89],[-68.71,-53.23],[-68.7,-52.72]]]]},"properties":{"NAME":"Chile","SUBJECTO":"Chile","BORDERPRECISION":3}},
{"type":"Feature","geometry":{"type":"Polygon","coordinates":[[[-69.9,-4.38],[-70.59,-3.79],[-72.88,-3.39],[-73.59,-4.44],[-75.69,-5.06],[-79.29,-5.01],[-80.23,-3.47],[-81.42,-4.68],[-80.61,-6.37],[-79.06,-8.22],[-76.24,-13.5],[-76.24,-14.11],[-74.05,-16.04],[-71.61,-17.22],[-70.21,-19.07],[-70.2,-22.22],[-67.94,-22.06],[-68.43,-19.46],[-69.52,-17.19],[-68.97,-13.53],[-73.12,-9.4],[-72.92,-9.04],[-73.84,-7.58],[-72.77,-5.14],[-69.9,-4.38]]]},"properties":{"NAME":"Peru","SUBJECTO":"Peru","BORDERPRECISION":3}},
{"type":"Feature","geometry":{"type":"Polygon","coordinates":[[[-2.19,35.05],[-4.59,35.15],[-5.93,35.73],[-7,33.87],[-9.22,32.58],[-9.66,29.95],[-11.58,28.23],[-13.12,27.55],[-8.64,27.57],[-8.59,28.64],[-3.73,30.89],[-2.82,31.99],[-1.23,31.99],[-2.19,35.05]]]},"properties":{"NAME":"Morocco","SUBJECTO":"Morocco","BORDERPRECISION":3}},
{"type":"Feature","geometry":{"type":"Polygon","coordinates":[[[-88.32,18.49],[-87.2,21.53],[-90.3,21.05],[-90.8,19.25],[-94.24,18.24],[-96.01,18.93],[-97.5,21.19],[-97.82,24.21],[-97.26,25.81],[-99.1,26.41],[-101.03,29.33],[-103.59,29.06],[-106.54,31.7],[-108.37,31.28],[-111.09,31.31],[-114.62,32.43],[-117.17,32.52],[-115.6,29.69],[-114.07,28.42],[-114.48,27.24],[-112.41,26.19],[-112.17,25.01],[-110.8,24.88],[-112.87,28.33],[-114.68,30.14],[-113.05,31.14],[-111.69,28.5],[-109.13,26.29],[-105.54,22.28],[-104.95,19.44],[-103.49,18.35],[-97.88,16.05],[-96.33,15.75],[-94.08,16.11],[-92.16,14.54],[-91.01,17.84],[-89.15,17.83],[-88.32,18.49]]]},"properties":{"NAME":"Mexico","SUBJECTO":"Mexico","BORDERPRECISION":3}},
{"type":"Feature","geometry":{"type":"Polygon","coordinates":[[[31.73,-26.15],[31.66,-27.04],[32.83,-27.13],[32.5,-26.07],[34.88,-24.72],[35.26,-22.27],[34.73,-19.86],[37.28,-17.71],[39.47,-16.72],[40.6,-14.4],[40.52,-10.55],[39.06,-11.21],[39.74,-13.71],[39.64,-15.29],[35.55,-16.97],[33.81,-15.73],[33.09,-16.4],[34.27,-17.62],[33.67,-20.32],[33.97,-23.23],[33.47,-24.53],[31.73,-26.15]]]},"properties":{"NAME":"Portuguese East Africa","SUBJECTO":"Portuguese East Africa","BORDERPRECISION":3}},
{"type":"Feature","geometry":{"type":"Polygon","coordinates":[[[16.33,-28.56],[18.18,-31.81],[18.49,-34.4],[20.26,-34.62],[22.68,-34.1],[24.43,-34.33],[26.66,-33.85],[29.97,-31.27],[28.69,-29.97],[26.38,-30.42],[24.17,-29.55],[22.6,-29.66],[21.99,-28.59],[19.13,-28.95],[16.33,-28.56]]]},"properties":{"NAME":"Cape Colony","SUBJECTO":"Cape Colony","BORDERPRECISION":3}},
{"type":"Feature","geometry":{"type":"Polygon","coordinates":[[[29.97,-31.27],[31.33,-29.51],[30.39,-28.5],[29.09,-28.5],[28.69,-29.97],[29.97,-31.27]]]},"properties":{"NAME":"Natal","SUBJECTO":"Natal","BORDERPRECISION":3}},
{"type":"Feature","geometry":{"type":"Polygon","coordinates":[[[28.69,-29.97],[29.09,-28.5],[28.9,-28.51],[27.22,-29.18],[26.38,-30.42],[28.69,-29.97]]]},"properties":{"NAME":"Basutoland","SUBJECTO":"Basutoland","BORDERPRECISION":3}},
{"type":"Feature","geometry":{"type":"Polygon","coordinates":[[[31.33,-29.51],[32.3,-28.13],[31.26,-27.64],[30.69,-27.58],[30.39,-28.5],[31.33,-29.51]]]},"properties":{"NAME":"Zululand","SUBJECTO":"Zululand","BORDERPRECISION":3}},
{"type":"Feature","geometry":{"type":"Polygon","coordinates":[[[31.73,-26.15],[31.26,-25.69],[30.56,-26.84],[30.69,-27.58],[31.26,-27.64],[31.66,-27.04],[31.73,-26.15]]]},"properties":{"NAME":"Swaziland","SUBJECTO":"Swaziland","BORDERPRECISION":3}},
{"type":"Feature","geometry":{"type":"Polygon","coordinates":[[[26.38,-30.42],[27.22,-29.18],[28.9,-28.51],[29.3,-26.98],[28.42,-26.5],[25.13,-27.54],[24.17,-29.55],[26.38,-30.42]]]},"properties":{"NAME":"Orange Free State","SUBJECTO":"Orange Free State","BORDERPRECISION":3}},
{"type":"Feature","geometry":{"type":"Polygon","coordinates":[[[31.26,-25.69],[31.86,-24.82],[31.54,-21.85],[29.46,-21.53],[26.53,-23.32],[25.37,-24.74],[25.13,-27.54],[28.42,-26.5],[29.3,-26.98],[30.56,-26.84],[31.26,-25.69]]]},"properties":{"NAME":"Transvaal","SUBJECTO":"Transvaal","BORDERPRECISION":3}},
{"type":"Feature","geometry":{"type":"Polygon","coordinates":[[[24.17,-29.55],[25.13,-27.54],[23.28,-27.3],[21.99,-28.59],[22.6,-29.66],[24.17,-29.55]]]},"properties":{"NAME":"Griqualand West","SUBJECTO":"Griqualand West","BORDERPRECISION":3}},
{"type":"Feature","geometry":{"type":"Polygon","coordinates":[[[27.96,-18.39],[26.42,-18.6],[25.6,-19.67],[26.78,-20.6],[28.99,-19.47],[27.96,-18.39]]]},"properties":{"NAME":"Ndebele","SUBJECTO":"Ndebele","BORDERPRECISION":3}},
{"type":"Feature","geometry":{"type":"Polygon","coordinates":[[[27.5,-22.24],[25.4,-22.09],[25.86,-23.27],[27.5,-22.24]]]},"properties":{"NAME":"Ngwato","SUBJECTO":"Ngwato","BORDERPRECISION":3}},
{"type":"Feature","geometry":{"type":"Polygon","coordinates":[[[27.48,-16.88],[27.63,-14.41],[25.37,-13.86],[23.91,-14.3],[23.09,-15.46],[24.11,-17.65],[26.42,-17.62],[27.48,-16.88]]]},"properties":{"NAME":"Lozi","SUBJECTO":"Lozi","BORDERPRECISION":3}},
{"type":"Feature","geometry":{"type":"Polygon","coordinates":[[[40.52,-10.55],[39.66,-9.8],[38.92,-6.34],[40.23,-3.19],[43.33,0.41],[41.65,1.2],[39.95,-1.02],[37.74,-2.34],[38.25,-3.9],[37.96,-6.78],[36.18,-7.44],[36.04,-8.55],[38.33,-9.07],[39.06,-11.21],[40.52,-10.55]]]},"properties":{"NAME":"Sultinate of Zanzibar","SUBJECTO":"Sultinate of Zanzibar","BORDERPRECISION":3}},
{"type":"Feature","geometry":{"type":"Polygon","coordinates":[[[33.81,-15.73],[33.67,-13.47],[32.5,-12.53],[30.67,-13.61],[29.96,-14.88],[30.95,-16.71],[33.09,-16.4],[33.81,-15.73]]]},"properties":{"NAME":"Shona","SUBJECTO":"Shona","BORDERPRECISION":3}},
{"type":"Feature","geometry":{"type":"Polygon","coordinates":[[[24.37,-13.65],[26.06,-11.87],[25.03,-10.83],[22.91,-11.49],[22.63,-13.56],[24.37,-13.65]]]},"properties":{"NAME":"Barotse","SUBJECTO":"Barotse","BORDERPRECISION":3}},
{"type":"Feature","geometry":{"type":"Polygon","coordinates":[[[32.88,1.53],[31.37,2.33],[30.24,0.87],[30.9,-0.45],[32.88,1.53]]]},"properties":{"NAME":"Bunyoro","SUBJECTO":"Bunyoro","BORDERPRECISION":3}},
{"type":"Feature","geometry":{"type":"Polygon","coordinates":[[[30.9,-0.45],[30.82,-1.11],[31.14,-1.48],[32.1,-1.47],[33.32,-0.11],[32.88,1.53],[30.9,-0.45]]]},"properties":{"NAME":"Buganda","SUBJECTO":"Buganda","BORDERPRECISION":3}},
{"type":"Feature","geometry":{"type":"Polygon","coordinates":[[[26.78,-11.82],[28.72,-12.64],[31.3,-10.94],[31.13,-9.23],[29.01,-8.18],[27.43,-8.29],[26.78,-11.82]]]},"properties":{"NAME":"Yeke","SUBJECTO":"Yeke","BORDERPRECISION":3}},
{"type":"Feature","geometry":{"type":"Polygon","coordinates":[[[29.42,-4.47],[29.54,-6.41],[31.07,-8.59],[33.18,-7.41],[34.18,-5.41],[31.07,-4.24],[30.66,-3.71],[29.42,-4.47]]]},"properties":{"NAME":"Mirambo Unyanyembe Ukimbu","SUBJECTO":"Mirambo Unyanyembe Ukimbu","BORDERPRECISION":3}},
{"type":"Feature","geometry":{"type":"Polygon","coordinates":[[[30.66,-3.71],[30.19,-3.01],[29.31,-3.89],[29.42,-4.47],[30.66,-3.71]]]},"properties":{"NAME":"Burundi","SUBJECTO":"Burundi","BORDERPRECISION":3}},
{"type":"Feature","geometry":{"type":"Polygon","coordinates":[[[32.83,-3.01],[31.19,-3.12],[31.3,-4.06],[32.65,-4.42],[32.83,-3.01]]]},"properties":{"NAME":"Nguni","SUBJECTO":"Nguni","BORDERPRECISION":3}},
{"type":"Feature","geometry":{"type":"Polygon","coordinates":[[[30.82,-1.11],[29.48,-1.89],[29.66,-2.54],[31.07,-2.36],[31.14,-1.48],[30.82,-1.11]]]},"properties":{"NAME":"Rwanda","SUBJECTO":"Rwanda","BORDERPRECISION":3}},
{"type":"Feature","geometry":{"type":"Polygon","coordinates":[[[27.66,-6.35],[28.78,-3.01],[27.31,-2.65],[27.25,-1.07],[25.9,0.34],[23.25,-0.71],[22.78,-1.36],[24.72,-3.83],[24.58,-5.25],[25.25,-6.18],[27.66,-6.35]]]},"properties":{"NAME":"Sultanate of Utetera","SUBJECTO":"Sultanate of Utetera","BORDERPRECISION":3}},
{"type":"Feature","geometry":{"type":"Polygon","coordinates":[[[25.25,-6.18],[24.49,-6.82],[24.66,-8.47],[27.13,-8.29],[27.66,-6.35],[25.25,-6.18]]]},"properties":{"NAME":"Lunda","SUBJECTO":"Lunda","BORDERPRECISION":3}},
{"type":"Feature","geometry":{"type":"Polygon","coordinates":[[[24.58,-5.25],[24.49,-6.82],[25.25,-6.18],[24.58,-5.25]]]},"properties":{"NAME":"Luba","SUBJECTO":"Luba","BORDERPRECISION":3}},
{"type":"Feature","geometry":{"type":"Polygon","coordinates":[[[22.73,-4.77],[20.91,-4.12],[21.2,-6.71],[22.26,-6.59],[22.73,-4.77]]]},"properties":{"NAME":"Kuba","SUBJECTO":"Kuba","BORDERPRECISION":3}},
{"type":"Feature","geometry":{"type":"Polygon","coordinates":[[[12.3,-14.56],[14.42,-12.66],[14.37,-9.64],[14.09,-7.71],[13.02,-7.61],[13.65,-12.2],[12.3,-14.56]]]},"properties":{"NAME":"Angola","SUBJECTO":"Angola","BORDERPRECISION":3}},
{"type":"Feature","geometry":{"type":"Polygon","coordinates":[[[14.42,-12.66],[16.15,-13.05],[16.09,-9.82],[14.37,-9.64],[14.42,-12.66]]]},"properties":{"NAME":"Ovimbundu","SUBJECTO":"Ovimbundu","BORDERPRECISION":3}},
{"type":"Feature","geometry":{"type":"Polygon","coordinates":[[[14.37,-9.64],[16.09,-9.82],[17.62,-9.29],[16.91,-8.06],[15.56,-7.73],[14.97,-7.71],[14.09,-7.71],[14.37,-9.64]]]},"properties":{"NAME":"Mbailundu","SUBJECTO":"Mbailundu","BORDERPRECISION":3}},
{"type":"Feature","geometry":{"type":"Polygon","coordinates":[[[14.09,-7.71],[14.97,-7.71],[14.57,-6.28],[13.42,-4.56],[11.85,-4.71],[13.02,-7.61],[14.09,-7.71]]]},"properties":{"NAME":"Congo","SUBJECTO":"Congo","BORDERPRECISION":3}},
{"type":"Feature","geometry":{"type":"Polygon","coordinates":[[[14.57,-6.28],[16.03,-4.77],[16.35,-4.45],[15.97,-3.09],[14.38,-3.18],[13.42,-4.56],[14.57,-6.28]]]},"properties":{"NAME":"Teke","SUBJECTO":"Teke","BORDERPRECISION":3}},
{"type":"Feature","geometry":{"type":"Polygon","coordinates":[[[16.91,-8.06],[18.09,-5.83],[16.35,-4.45],[16.03,-4.77],[15.56,-7.73],[16.91,-8.06]]]},"properties":{"NAME":"Yaka","SUBJECTO":"Yaka","BORDERPRECISION":3}},
{"type":"Feature","geometry":{"type":"Polygon","coordinates":[[[54.98,17.02],[55.56,17.94],[57.84,19.03],[59.84,22.28],[57.15,23.98],[56.28,25.46],[56.13,24.1],[58.38,21.98],[54.88,18.16],[54.98,17.02]]]},"properties":{"NAME":"Oman","SUBJECTO":"Oman","BORDERPRECISION":3}},
{"type":"Feature","geometry":{"type":"Polygon","coordinates":[[[56.13,24.1],[54.96,23.45],[51.51,23.37],[50.77,24.15],[49.7,24.41],[49.4,26.08],[48.47,26.7],[46.91,29.44],[44.08,30.34],[40.03,34.39],[38.04,34.6],[37.21,33.57],[36.59,29.79],[37.64,27.36],[39.76,25.43],[40.86,24.99],[41.07,22.26],[41.92,20.77],[45.56,17.2],[45.41,13.09],[46.6,13.4],[52.14,15.69],[52.89,16.61],[54.98,17.02],[54.88,18.16],[58.38,21.98],[56.13,24.1]]]},"properties":{"NAME":"Arabia","SUBJECTO":"Arabia","BORDERPRECISION":3}},
{"type":"Feature","geometry":{"type":"Polygon","coordinates":[[[56.28,25.46],[54.35,24.15],[51.29,24.28],[50.97,24.44],[50.77,24.15],[51.51,23.37],[54.96,23.45],[56.13,24.1],[56.28,25.46]]]},"properties":{"NAME":"Trucial Oman","SUBJECTO":"Trucial Oman","BORDERPRECISION":3}},
{"type":"Feature","geometry":{"type":"Polygon","coordinates":[[[51.29,24.28],[51.59,25.61],[50.85,25.27],[50.97,24.44],[51.29,24.28]]]},"properties":{"NAME":"Qatar","SUBJECTO":"Qatar","BORDERPRECISION":3}},
{"type":"Feature","geometry":{"type":"Polygon","coordinates":[[[32.65,29.85],[32.6,30.96],[31,31.47],[29.25,30.75],[24.29,31.92],[24.29,30.49],[25.25,29.9],[24.81,27.01],[25.92,25.68],[24.81,24.72],[25.62,22.8],[29.32,21.54],[27.77,14.3],[29.47,12.97],[29.32,9.27],[29.62,7.35],[30.95,5.2],[32.2,4.76],[32.72,9.42],[33.83,11.86],[34.98,15.78],[36.82,17.11],[38.96,17.2],[37.4,18.92],[37.13,21.23],[35.75,22.91],[35.19,24.4],[32.32,29.54],[32.65,29.85]]]},"properties":{"NAME":"Egypt","SUBJECTO":"Egypt","BORDERPRECISION":3}},
{"type":"Feature","geometry":{"type":"Polygon","coordinates":[[[8.33,32.65],[9.33,30.15],[11.47,33.14],[10.02,34.08],[11.13,35.24],[10.13,37.1],[8.64,36.89],[8.33,32.65]]]},"properties":{"NAME":"Tunisia","SUBJECTO":"Tunisia","BORDERPRECISION":3}},
{"type":"Feature","geometry":{"type":"Polygon","coordinates":[[[-1.23,31.99],[1.37,30.95],[4.81,33.26],[8.33,32.65],[8.64,36.89],[1.06,36.46],[-2.19,35.05],[-1.23,31.99]]]},"properties":{"NAME":"Algeria","SUBJECTO":"Algeria","BORDERPRECISION":3}},
{"type":"Feature","geometry":{"type":"Polygon","coordinates":[[[12.5,12.22],[16.49,12.01],[17.73,14.59],[17.19,18.25],[15.57,18.57],[15.2,17.28],[13.9,15.94],[12.18,15.5],[11.6,14.06],[12.5,12.22]]]},"properties":{"NAME":"Kanem-Bornu","SUBJECTO":"Kanem-Bornu","BORDERPRECISION":3}},
{"type":"Feature","geometry":{"type":"Polygon","coordinates":[[[6.03,8.19],[3.46,8.34],[3.24,7.31],[5.51,6.87],[6.03,8.19]]]},"properties":{"NAME":"Ibadan","SUBJECTO":"Ibadan","BORDERPRECISION":3}},
{"type":"Feature","geometry":{"type":"Polygon","coordinates":[[[5.42,4.96],[6.1,5.85],[4.63,6.21],[5.42,4.96]]]},"properties":{"NAME":"Benin","SUBJECTO":"Benin","BORDERPRECISION":3}},
{"type":"Feature","geometry":{"type":"Polygon","coordinates":[[[2.83,6.35],[4.07,6.44],[3.32,7.09],[2.83,6.35]]]},"properties":{"NAME":"Lagos","SUBJECTO":"Lagos","BORDERPRECISION":3}},
{"type":"Feature","geometry":{"type":"Polygon","coordinates":[[[2.71,6.35],[2.19,6.77],[2.17,6.29],[2.71,6.35]]]},"properties":{"NAME":"Cotonou","SUBJECTO":"Cotonou","BORDERPRECISION":3}},
{"type":"Feature","geometry":{"type":"Polygon","coordinates":[[[-0.12,5.57],[-0.77,6.24],[-2.72,5.04],[-2.03,4.7],[-0.12,5.57]]]},"properties":{"NAME":"Accra","SUBJECTO":"Accra","BORDERPRECISION":3}},
{"type":"Feature","geometry":{"type":"Polygon","coordinates":[[[-5.24,5.19],[-3.09,5.16],[-4.29,6.2],[-5.24,5.19]]]},"properties":{"NAME":"Ivory Coast","SUBJECTO":"Ivory Coast","BORDERPRECISION":3}},
{"type":"Feature","geometry":{"type":"Polygon","coordinates":[[[-0.12,5.57],[0.8,5.71],[0.24,6.88],[-2.31,7.29],[-2.8,5.19],[-2.72,5.04],[-0.77,6.24],[-0.12,5.57]]]},"properties":{"NAME":"Asante","SUBJECTO":"Asante","BORDERPRECISION":3}},
{"type":"Feature","geometry":{"type":"Polygon","coordinates":[[[-12.31,7.65],[-11.57,8.53],[-13.18,9.09],[-12.31,7.65]]]},"properties":{"NAME":"Sierra Leone","SUBJECTO":"Sierra Leone","BORDERPRECISION":3}},
{"type":"Feature","geometry":{"type":"Polygon","coordinates":[[[-12.31,7.65],[-9.78,5.71],[-10.07,7.59],[-11.57,8.53],[-12.31,7.65]]]},"properties":{"NAME":"Liberia","SUBJECTO":"Liberia","BORDERPRECISION":3}},
{"type":"Feature","geometry":{"type":"Polygon","coordinates":[[[-16.77,13.36],[-15.45,13.33],[-15.92,13.78],[-16.47,13.72],[-16.77,13.36]]]},"properties":{"NAME":"Gambia","SUBJECTO":"Gambia","BORDERPRECISION":3}},
{"type":"Feature","geometry":{"type":"Polygon","coordinates":[[[-16.77,13.36],[-16.42,12.25],[-15.45,13.33],[-16.77,13.36]]]},"properties":{"NAME":"Portuguese Guinea","SUBJECTO":"Portuguese Guinea","BORDERPRECISION":3}},
{"type":"Feature","geometry":{"type":"Polygon","coordinates":[[[-3.55,13.68],[-2.97,15.09],[-3.6,16.49],[-5.11,16.61],[-7.07,15.91],[-9.38,16.06],[-11.01,15.43],[-11.41,13.15],[-9.89,12.28],[-6.38,11.75],[-3.96,13.49],[-3.55,13.68]]]},"properties":{"NAME":"Tukular Caliphate","SUBJECTO":"Tukular Caliphate","BORDERPRECISION":3}},
{"type":"Feature","geometry":{"type":"Polygon","coordinates":[[[-15.92,13.78],[-16.02,14.17],[-15.33,15.55],[-12.78,13.84],[-12.72,16],[-16.13,17.3],[-17.05,14.59],[-16.47,13.72],[-15.92,13.78]]]},"properties":{"NAME":"Senegal","SUBJECTO":"Senegal","BORDERPRECISION":3}},
{"type":"Feature","geometry":{"type":"Polygon","coordinates":[[[-16.02,14.17],[-15.09,14.2],[-13.62,12.97],[-12.78,13.84],[-15.33,15.55],[-16.02,14.17]]]},"properties":{"NAME":"Futa Toro","SUBJECTO":"Futa Toro","BORDERPRECISION":3}},
{"type":"Feature","geometry":{"type":"Polygon","coordinates":[[[-3.96,13.49],[-3.85,12.46],[-3.05,13.21],[-3.55,13.68],[-3.96,13.49]]]},"properties":{"NAME":"Kong","SUBJECTO":"Kong","BORDERPRECISION":3}},
{"type":"Feature","geometry":{"type":"Polygon","coordinates":[[[-2.91,13.87],[-3.24,12.27],[-1.69,10.72],[-1.88,8.8],[-0.09,8.38],[1.22,8.66],[0.98,10.62],[-0.01,11.28],[1.36,13.02],[-1.03,14.53],[-2.91,13.87]]]},"properties":{"NAME":"Mossi States","SUBJECTO":"Mossi States","BORDERPRECISION":3}},
{"type":"Feature","geometry":{"type":"Polygon","coordinates":[[[-14.41,12.7],[-14.51,11.62],[-13.15,10.68],[-12.3,11.57],[-14.41,12.7]]]},"properties":{"NAME":"Futa Jalon","SUBJECTO":"Futa Jalon","BORDERPRECISION":3}},
{"type":"Feature","geometry":{"type":"Polygon","coordinates":[[[-7.51,8.85],[-7.7,8.14],[-6.48,7.63],[-5.07,8],[-6.01,10.02],[-7.51,8.85]]]},"properties":{"NAME":"Second Samori Empire","SUBJECTO":"Second Samori Empire","BORDERPRECISION":3}},
{"type":"Feature","geometry":{"type":"Polygon","coordinates":[[[7.09,6.73],[6.48,6.5],[6.48,5.47],[7.7,5.79],[7.09,6.73]]]},"properties":{"NAME":"Ato trading confederacy","SUBJECTO":"Ato trading confederacy","BORDERPRECISION":3}},
{"type":"Feature","geometry":{"type":"Polygon","coordinates":[[[9.37,1.17],[10.47,1.1],[10.98,1.99],[9.89,2.14],[9.37,1.17]]]},"properties":{"NAME":"Spanish Guinea","SUBJECTO":"Spanish Guinea","BORDERPRECISION":3}},
{"type":"Feature","geometry":{"type":"Polygon","coordinates":[[[9.23,-1.39],[10.7,-0.59],[9.63,0.89],[9.23,-1.39]]]},"properties":{"NAME":"Gabon","SUBJECTO":"Gabon","BORDERPRECISION":3}},
{"type":"Feature","geometry":{"type":"Polygon","coordinates":[[[39.5,15.5],[39.48,14.62],[39.8,15.09],[39.5,15.5]]]},"properties":{"NAME":"Egypt","SUBJECTO":"Egypt","BORDERPRECISION":3}},
{"type":"Feature","geometry":{"type":"Polygon","coordinates":[[[39.48,14.62],[37.65,14.48],[36.9,13.45],[35.12,12.79],[34.69,11.94],[35.73,9.93],[35.96,7.48],[37.79,8.52],[38.73,11.94],[41.17,12.51],[40.23,13.49],[39.8,15.09],[39.48,14.62]]]},"properties":{"NAME":"Ethiopia","SUBJECTO":"Ethiopia","BORDERPRECISION":3}},
{"type":"Feature","geometry":{"type":"Polygon","coordinates":[[[49.65,11.33],[47.39,11.16],[44.28,10.4],[43.37,11.46],[41.95,8.89],[43.01,8.83],[45.36,9.77],[46.53,9.48],[49.64,9.89],[49.65,11.33]]]},"properties":{"NAME":"Harer (Egypt)","SUBJECTO":"Harer (Egypt)","BORDERPRECISION":3}},
{"type":"Feature","geometry":{"type":"Polygon","coordinates":[[[-54.58,-25.74],[-54.22,-24.12],[-55.35,-23.78],[-55.62,-22.45],[-57.81,-22.15],[-62.61,-22.16],[-61.24,-23.62],[-57.71,-25.34],[-58.07,-27.19],[-55.73,-27.45],[-54.58,-25.74]]]},"properties":{"NAME":"Paraguay","SUBJECTO":"Paraguay","BORDERPRECISION":3}},
{"type":"Feature","geometry":{"type":"Polygon","coordinates":[[[-62.61,-22.16],[-57.81,-22.15],[-58.14,-19.81],[-57.6,-18.04],[-58.33,-16.37],[-60.03,-16.33],[-60.36,-13.9],[-64.26,-12.47],[-65.27,-11.37],[-65.31,-9.82],[-66.47,-9.91],[-72.92,-9.04],[-73.12,-9.4],[-68.97,-13.53],[-69.52,-17.19],[-68.43,-19.46],[-67.94,-22.06],[-70.2,-22.22],[-70.85,-27.28],[-68.48,-25.94],[-68.39,-24.6],[-66.15,-21.92],[-62.61,-22.16]]]},"properties":{"NAME":"Bolivia","SUBJECTO":"Bolivia","BORDERPRECISION":3}},
{"type":"Feature","geometry":{"type":"Polygon","coordinates":[[[61.22,35.58],[59.24,37.45],[57.23,38.19],[54.02,37.35],[51.8,36.43],[48.84,37.51],[49.81,40.58],[47.49,43.58],[47.35,41.44],[44.98,42.77],[42.88,41.55],[43.85,40.75],[44.21,37.87],[46.18,35.06],[45.51,33.8],[47.79,31.8],[48.55,29.99],[50.13,30.07],[51.35,28.04],[54.65,26.39],[56.79,26.97],[57.25,25.79],[61.57,25.04],[61.67,25.63],[61.68,25.65],[62.09,28.44],[61.97,28.48],[61.66,28.66],[61.6,28.74],[61.5,28.87],[60.82,29.83],[60.54,32.99],[61.22,35.58]]]},"properties":{"NAME":"Persia","SUBJECTO":"Persia","BORDERPRECISION":3}},
{"type":"Feature","geometry":{"type":"MultiPolygon","coordinates":[[[[65.72,37.49],[64.81,38.24],[61.59,39.35],[57.23,38.19],[59.24,37.45],[61.22,35.58],[62.68,35.27],[65.72,37.49]]],[[[74.73,37.21],[73.88,39.88],[72.07,39.13],[72.71,37.19],[74.73,37.21]]]]},"properties":{"NAME":"central Asian khanates","SUBJECTO":"central Asian khanates","BORDERPRECISION":3}},
{"type":"Feature","geometry":{"type":"Polygon","coordinates":[[[61.68,25.65],[61.81,25.98],[63.24,26.67],[62.49,28.31],[62.09,28.44],[61.68,25.65]]]},"properties":{"NAME":"India","SUBJECTO":"India","BORDERPRECISION":3}},
{"type":"Feature","geometry":{"type":"Polygon","coordinates":[[[30.43,46.18],[28.91,47.82],[26.48,48.59],[26.19,46.81],[24.94,45.96],[22.48,45.73],[22.41,44.75],[22.69,44.26],[25.55,43.81],[28.51,43.74],[30.43,46.18]]]},"properties":{"NAME":"Romania","SUBJECTO":"Romania","BORDERPRECISION":3}},
{"type":"Feature","geometry":{"type":"Polygon","coordinates":[[[22.41,44.75],[19.35,44.89],[19.51,43.58],[20.36,42.86],[22.34,42.67],[22.38,42.71],[22.45,42.8],[22.69,44.26],[22.41,44.75]]]},"properties":{"NAME":"Serbia","SUBJECTO":"Serbia","BORDERPRECISION":3}},
{"type":"Feature","geometry":{"type":"Polygon","coordinates":[[[19.51,43.58],[18.51,42.36],[19.61,41.76],[20.36,42.86],[19.51,43.58]]]},"properties":{"NAME":"Montenegro","SUBJECTO":"Montenegro","BORDERPRECISION":3}},
{"type":"Feature","geometry":{"type":"Polygon","coordinates":[[[19.35,44.89],[15.83,45.2],[17.53,42.93],[18.51,42.36],[19.51,43.58],[19.35,44.89]]]},"properties":{"NAME":"Bosnia-Herzegovina","SUBJECTO":"Bosnia-Herzegovina","BORDERPRECISION":3}},
{"type":"Feature","geometry":{"type":"Polygon","coordinates":[[[-155.95,19.99],[-156.03,19.11],[-154.95,19.48],[-155.95,19.99]]]},"properties":{"NAME":"Kingdom of Hawaii","SUBJECTO":"Kingdom of Hawaii","BORDERPRECISION":3}},
{"type":"Feature","geometry":{"type":"Polygon","coordinates":[[[91.61,27.64],[94.57,29.2],[98.01,28.09],[98.73,26.34],[97.52,24.8],[97.7,23.88],[98.77,24.09],[99.16,22.31],[101.01,21.44],[101.66,22.39],[104.48,22.78],[105.31,23.3],[107.88,21.46],[110.08,20.87],[112.75,21.76],[113.72,22.48],[116.34,22.91],[118.81,24.85],[119.43,26.59],[121.36,28.39],[121.61,31.83],[119.97,34.14],[119.02,34.69],[120.14,36.19],[117.59,38.28],[121.01,40.85],[124.13,39.84],[126.47,41.65],[128.1,41.45],[130.23,42.65],[130.99,44.82],[132.78,44.99],[134.11,48.25],[130.92,47.73],[130.48,48.9],[127.71,49.7],[125.51,53.16],[121.19,53.32],[119.18,50.7],[117.49,49.59],[114.1,50.27],[112.52,49.46],[109.42,49.3],[106.32,50.42],[103.68,50.17],[102.12,51.36],[97.61,52.15],[95.19,53.8],[93.57,52.35],[94.21,51.32],[90,50.31],[86.78,48.99],[85.48,47.09],[83.25,47.29],[82.44,45.74],[80.24,45.12],[80.77,43.38],[80.11,42],[73.88,39.88],[74.73,37.21],[74.52,37],[77.85,35.24],[79.57,32.7],[79.11,31.46],[81.02,30.25],[81.66,30.45],[85.14,28.34],[88.2,27.88],[88.8,27.18],[89.37,27.88],[91.61,27.64]]]},"properties":{"NAME":"Manchu Empire","SUBJECTO":"Manchu Empire","BORDERPRECISION":3}},
{"type":"Feature","geometry":{"type":"Polygon","coordinates":[[[50.11,-14.12],[49.39,-14.42],[46.32,-18.21],[45.87,-20.31],[45.92,-22.91],[47.64,-23.55],[49.34,-18.23],[50.5,-15.31],[50.11,-14.12]]]},"properties":{"NAME":"Imerina","SUBJECTO":"Imerina","BORDERPRECISION":3}},
{"type":"Feature","geometry":{"type":"Polygon","coordinates":[[[50.11,-14.12],[48.75,-13.42],[46.92,-15.36],[44.45,-16.24],[43.97,-17.55],[44.47,-20.17],[43.5,-21.49],[43.67,-24.23],[44.43,-25.31],[46.86,-25.22],[47.64,-23.55],[45.92,-22.91],[45.87,-20.31],[46.32,-18.21],[49.39,-14.42],[50.11,-14.12]]]},"properties":{"NAME":"Madagascar","SUBJECTO":"Madagascar","BORDERPRECISION":3}},
{"type":"Feature","geometry":{"type":"Polygon","coordinates":[[[2.19,6.77],[1.34,6.18],[2.17,6.29],[2.19,6.77]]]},"properties":{"NAME":"Dahomey","SUBJECTO":"Dahomey","BORDERPRECISION":3}},
{"type":"Feature","geometry":{"type":"Polygon","coordinates":[[[11.6,14.06],[11.11,16.15],[9.44,17.01],[9.49,17.98],[7.82,18.73],[6.37,18.63],[4.92,16.85],[3.57,16.69],[1.46,13.67],[4.8,10.95],[4.69,9.29],[6.03,8.19],[6.98,7.24],[11.01,8.05],[12.47,8.85],[13.2,11.2],[12.5,12.22],[11.6,14.06]]]},"properties":{"NAME":"Sokoto Caliphate","SUBJECTO":"Sokoto Caliphate","BORDERPRECISION":3}},
{"type":"Feature","geometry":{"type":"Polygon","coordinates":[[[1.46,13.67],[1.73,12.67],[0.76,11.5],[2.43,8.97],[4.69,9.29],[4.8,10.95],[1.46,13.67]]]},"properties":{"NAME":"Borgu States","SUBJECTO":"Borgu States","BORDERPRECISION":3}},
{"type":"Feature","geometry":{"type":"Polygon","coordinates":[[[6.03,8.19],[4.69,9.29],[2.43,8.97],[3.46,8.34],[6.03,8.19]]]},"properties":{"NAME":"Oyo","SUBJECTO":"Oyo","BORDERPRECISION":3}},
{"type":"Feature","geometry":{"type":"Polygon","coordinates":[[[9.28,4.02],[9.34,5.25],[8.26,4.75],[9.28,4.02]]]},"properties":{"NAME":"Calabar","SUBJECTO":"Calabar","BORDERPRECISION":3}},
{"type":"Feature","geometry":{"type":"Polygon","coordinates":[[[7.05,4.51],[7.89,4.45],[7.79,4.86],[7.07,5.31],[7.05,4.51]]]},"properties":{"NAME":"Opobo","SUBJECTO":"Opobo","BORDERPRECISION":3}},
{"type":"Feature","geometry":{"type":"Polygon","coordinates":[[[-9.89,12.28],[-11.46,11.33],[-11.03,9.08],[-9.63,8.89],[-9.63,7.77],[-7.7,8.14],[-7.51,8.85],[-6.38,11.75],[-9.89,12.28]]]},"properties":{"NAME":"First Samori Empire","SUBJECTO":"First Samori Empire","BORDERPRECISION":3}},
{"type":"Feature","geometry":{"type":"Polygon","coordinates":[[[-61.69,17.02],[-61.79,17.16],[-61.89,17.03],[-61.69,17.02]]]},"properties":{"NAME":"Antigua and Barbuda","SUBJECTO":"Antigua and Barbuda","BORDERPRECISION":3}},
{"type":"Feature","geometry":{"type":"Polygon","coordinates":[[[128.82,-24.94],[128.97,-14.92],[126.85,-13.78],[122.74,-16.58],[122.2,-18.24],[120.87,-19.68],[116.42,-20.84],[113.63,-22.57],[113.43,-26.57],[114.63,-28.9],[115.75,-32.21],[115.05,-34.42],[116.56,-35.19],[118.21,-35.09],[119.77,-34.12],[123.62,-33.92],[126.06,-32.43],[128.72,-31.92],[128.82,-24.94]]]},"properties":{"NAME":"Western Australia (UK)","SUBJECTO":"United Kingdom of Great Britain and Ireland","BORDERPRECISION":3}},
{"type":"Feature","geometry":{"type":"Polygon","coordinates":[[[141.06,-38.38],[143.36,-38.97],[144.97,-38.07],[145.93,-38.88],[148.75,-38.01],[147.71,-35.91],[144.73,-35.96],[143.14,-34.64],[141.02,-34],[141.06,-38.38]]]},"properties":{"NAME":"Victoria (UK)","SUBJECTO":"United Kingdom of Great Britain and Ireland","BORDERPRECISION":3}},
{"type":"Feature","geometry":{"type":"Polygon","coordinates":[[[140.98,-28.86],[149.02,-28.88],[153.4,-28.13],[153.07,-26.23],[150.75,-22.81],[149.56,-22.43],[149.1,-21.06],[146.32,-19.08],[145.18,-15.05],[143.74,-14.47],[143.17,-12.12],[141.68,-12.47],[141.71,-15.23],[140.25,-17.8],[138.07,-16.7],[137.9,-24.94],[137.88,-25.92],[140.95,-25.87],[140.98,-28.86]]]},"properties":{"NAME":"Queensland (UK)","SUBJECTO":"United Kingdom of Great Britain and Ireland","BORDERPRECISION":3}},
{"type":"Feature","geometry":{"type":"Polygon","coordinates":[[[141.02,-34],[143.14,-34.64],[144.73,-35.96],[147.71,-35.91],[148.75,-38.01],[149.98,-37.35],[150.22,-35.69],[151.36,-33.52],[152.97,-31.42],[153.4,-28.13],[149.02,-28.88],[140.98,-28.86],[141.02,-34]]]},"properties":{"NAME":"New South Wales (UK)","SUBJECTO":"United Kingdom of Great Britain and Ireland","BORDERPRECISION":3}},
{"type":"Feature","geometry":{"type":"Polygon","coordinates":[[[137.9,-24.94],[138.07,-16.7],[135.39,-14.9],[136.66,-12.62],[133.56,-11.95],[130.46,-12.76],[128.97,-14.92],[128.82,-24.94],[137.9,-24.94]]]},"properties":{"NAME":"Northern Territory (UK)","SUBJECTO":"United Kingdom of Great Britain and Ireland","BORDERPRECISION":3}},
{"type":"Feature","geometry":{"type":"Polygon","coordinates":[[[-61.36,15.2],[-61.26,15.29],[-61.3,15.57],[-61.47,15.49],[-61.36,15.2]]]},"properties":{"NAME":"Dominica","SUBJECTO":"Dominica","BORDERPRECISION":3}},
{"type":"Feature","geometry":{"type":"Polygon","coordinates":[[[-60.86,14.4],[-60.83,14.57],[-61.03,14.83],[-61.23,14.81],[-61.03,14.47],[-60.86,14.4]]]},"properties":{"NAME":"France","SUBJECTO":"France","BORDERPRECISION":3}},
{"type":"Feature","geometry":{"type":"Polygon","coordinates":[[[-62.17,16.67],[-62.14,16.69],[-62.18,16.81],[-62.24,16.71],[-62.17,16.67]]]},"properties":{"NAME":"Montserrat","SUBJECTO":"Montserrat","BORDERPRECISION":3}},
{"type":"Feature","geometry":{"type":"Polygon","coordinates":[[[-63.17,18.16],[-62.99,18.23],[-63.06,18.26],[-63.17,18.16]]]},"properties":{"NAME":"Anguilla","SUBJECTO":"Anguilla","BORDERPRECISION":3}},
{"type":"Feature","geometry":{"type":"Polygon","coordinates":[[[-62.7,17.34],[-62.81,17.41],[-62.86,17.37],[-62.78,17.29],[-62.7,17.34]]]},"properties":{"NAME":"Saint Kitts and Nevis","SUBJECTO":"Saint Kitts and Nevis","BORDERPRECISION":3}},
{"type":"Feature","geometry":{"type":"Polygon","coordinates":[[[-64.76,17.77],[-64.87,17.77],[-64.89,17.69],[-64.74,17.71],[-64.76,17.77]]]},"properties":{"NAME":"United States Virgin Islands","SUBJECTO":"United States Virgin Islands","BORDERPRECISION":3}},
{"type":"Feature","geometry":{"type":"Polygon","coordinates":[[[-61.35,16.33],[-61.5,16.35],[-61.79,16.24],[-61.7,15.95],[-61.55,16.05],[-61.58,16.2],[-61.35,16.33]]]},"properties":{"NAME":"Guadeloupe","SUBJECTO":"Guadeloupe","BORDERPRECISION":3}},
{"type":"Feature","geometry":{"type":"Polygon","coordinates":[[[-68.97,12.2],[-69.08,12.35],[-69.16,12.31],[-69.06,12.19],[-68.83,12.05],[-68.82,12.16],[-68.97,12.2]]]},"properties":{"NAME":"Netherlands Antilles","SUBJECTO":"Netherlands Antilles","BORDERPRECISION":3}},
{"type":"Feature","geometry":{"type":"Polygon","coordinates":[[[-63.01,18.07],[-63.05,18.12],[-63.14,18.06],[-63.01,18.07]]]},"properties":{"NAME":"Saint Martin","SUBJECTO":"Saint Martin","BORDERPRECISION":3}},
{"type":"Feature","geometry":{"type":"Polygon","coordinates":[[[-63.14,18.06],[-63.03,18.02],[-63.01,18.07],[-63.14,18.06]]]},"properties":{"NAME":"Saint Barthelemy","SUBJECTO":"Saint Barthelemy","BORDERPRECISION":3}},
{"type":"Feature","geometry":{"type":"MultiPolygon","coordinates":[[[[-79.05,42.85],[-82.57,41.4],[-83.06,42.03],[-82.3,43.03],[-83.39,44.31],[-83.82,46.15],[-84.74,46.47],[-87.76,46.86],[-89.62,47.97],[-91.68,48.04],[-94.82,49.05],[-104.26,49.06],[-110.67,49.05],[-115.16,49.06],[-122.9,49.07],[-124.68,48.39],[-123.99,45.76],[-124.63,43.01],[-123.8,39.03],[-121.93,37.01],[-120.53,34.51],[-118.6,34.1],[-117.17,32.52],[-114.62,32.43],[-111.09,31.31],[-108.37,31.28],[-106.54,31.7],[-103.59,29.06],[-101.03,29.33],[-99.1,26.41],[-97.26,25.81],[-97.63,27.23],[-96.83,28.16],[-94.14,29.69],[-90,29.11],[-89.23,30.41],[-86.39,30.47],[-85.3,29.66],[-83.89,30.05],[-82.65,28.91],[-82.84,27.84],[-81.1,25.13],[-80.05,26.55],[-81.51,30.73],[-80.58,32.5],[-76.62,34.76],[-75.73,35.88],[-75.67,37.9],[-73.74,40.98],[-70.3,41.76],[-70.22,43.8],[-67.19,45.25],[-67.7,47.04],[-69.05,47.46],[-70.59,45.29],[-74.78,45.01],[-76.13,44.33],[-76.94,43.24],[-79.14,43.22],[-79.05,42.85]]],[[[-141.06,69.6],[-149.29,70.54],[-156.9,71.35],[-160.24,70.86],[-164.07,69.06],[-166.84,68.41],[-163.74,67.22],[-168.18,65.69],[-166.59,64.73],[-161.13,63.56],[-165.43,62.43],[-165.9,61.27],[-162,58.83],[-158.29,58.73],[-156.68,57.4],[-154.65,58.08],[-154.28,59.25],[-149.33,60.03],[-148.49,61.06],[-144.41,60.09],[-139.57,59.9],[-137.58,58.6],[-134.12,58.24],[-131.77,56.01],[-130,55.29],[-133.5,58.42],[-135.85,59.65],[-140.89,60.39],[-140.97,66.03],[-141.06,69.6]]]]},"properties":{"NAME":"United States of America","SUBJECTO":"United States of America","BORDERPRECISION":3}},
{"type":"Feature","geometry":{"type":"Polygon","coordinates":[[[7.4,43.76],[8.9,44.44],[12.64,41.53],[15.67,40.09],[17.08,40.53],[14.09,42.61],[12.35,44.3],[13.56,45.73],[10.4,46.89],[7.79,45.93],[6.81,46.39],[6.73,46.41],[6.39,46.34],[6.38,46.34],[5.94,46.18],[7.4,43.76]]]},"properties":{"NAME":"Italy","SUBJECTO":"Italy","BORDERPRECISION":3}},
{"type":"Feature","geometry":{"type":"Polygon","coordinates":[[[10.4,46.89],[13.56,45.73],[15.41,43.93],[17.53,42.93],[15.83,45.2],[19.35,44.89],[22.41,44.75],[22.48,45.73],[24.94,45.96],[26.19,46.81],[26.48,48.59],[26.25,49.75],[24.4,50.63],[18.77,50.18],[16.73,50.15],[14.6,51.02],[12.24,50.24],[13.95,48.66],[12.7,47.69],[9.67,47.56],[9.54,47.49],[10.4,46.89]]]},"properties":{"NAME":"Austria Hungary","SUBJECTO":"Austria Hungary","BORDERPRECISION":3}},
{"type":"Feature","geometry":{"type":"Polygon","coordinates":[[[-82.96,8.05],[-80.81,7.27],[-79.07,9.03],[-77.4,6.67],[-77.11,3.79],[-78.94,1.38],[-76.85,0.14],[-74.47,-0.57],[-72.96,-2.45],[-70.92,-2.32],[-70.59,-3.79],[-69.9,-4.38],[-69.23,-3.48],[-66.66,-2.82],[-66.85,1.01],[-67.77,2.82],[-67.77,6.24],[-69.3,6.01],[-70.54,7.05],[-71.81,6.97],[-73.02,9.74],[-72.05,11.72],[-71.19,11.91],[-71.7,12.43],[-73.36,11.32],[-75.45,10.63],[-76.76,8.69],[-79.5,9.64],[-80.96,8.86],[-82.56,9.58],[-82.96,8.05]]]},"properties":{"NAME":"Colombia","SUBJECTO":"Colombia","BORDERPRECISION":3}},
{"type":"Feature","geometry":{"type":"Polygon","coordinates":[[[22.69,44.26],[22.45,42.8],[22.38,42.71],[24.22,42.28],[27.5,42.42],[28.51,43.74],[25.55,43.81],[22.69,44.26]]]},"properties":{"NAME":"Bulgaria","SUBJECTO":"Bulgaria","BORDERPRECISION":3}},
{"type":"Feature","geometry":{"type":"MultiPolygon","coordinates":[[[[50.77,24.15],[50.97,24.44],[48.86,27.52],[48.55,29.99],[47.79,31.8],[45.51,33.8],[46.18,35.06],[44.21,37.87],[43.85,40.75],[42.88,41.55],[41.48,41.44],[40.36,40.96],[36.38,41.24],[33.56,41.98],[30.74,41.04],[26.13,39.88],[27.16,37.36],[30.47,36.19],[31.37,36.71],[33.17,35.97],[35.71,36.21],[35.87,34.42],[34.5,31.62],[32.6,30.96],[32.65,29.85],[34.06,27.79],[34.89,28.36],[39.1,22.4],[39.17,21.22],[40.69,19.87],[42.76,16.65],[42.8,15.47],[43.84,12.66],[45.41,13.09],[45.56,17.2],[41.92,20.77],[41.07,22.26],[40.86,24.99],[39.76,25.43],[37.64,27.36],[36.59,29.79],[37.21,33.57],[38.04,34.6],[40.03,34.39],[44.08,30.34],[46.91,29.44],[48.47,26.7],[49.4,26.08],[49.7,24.41],[50.77,24.15]]],[[[24.29,31.92],[21.67,32.82],[20.37,32.3],[20.12,30.96],[18.92,30.2],[15.84,31.29],[15.01,32.36],[11.47,33.14],[9.33,30.15],[11.35,28.64],[11.43,27.68],[10.02,25.54],[11.8,24.13],[13.13,25.02],[14.09,24.57],[14.61,22.5],[18.6,23.61],[20.15,27.61],[22.15,28.49],[24.81,27.01],[25.25,29.9],[24.29,30.49],[24.29,31.92]]],[[[20.36,42.86],[19.61,41.76],[19.37,40.26],[20.34,39.32],[22.49,40.5],[27.47,40.96],[27.5,42.42],[24.22,42.28],[22.38,42.71],[22.34,42.67],[20.36,42.86]]]]},"properties":{"NAME":"Ottoman Empire","SUBJECTO":"Ottoman Empire","BORDERPRECISION":3}},
{"type":"Feature","geometry":{"type":"Polygon","coordinates":[[[20.34,39.32],[21.23,37.9],[23.56,38.35],[22.49,40.5],[20.34,39.32]]]},"properties":{"NAME":"Greece","SUBJECTO":"Greece","BORDERPRECISION":3}},
{"type":"Feature","geometry":{"type":"Polygon","coordinates":[[[14.56,35.82],[14.51,35.93],[14.37,35.99],[14.33,35.89],[14.42,35.82],[14.56,35.82]]]},"properties":{"NAME":"Malta","SUBJECTO":"Malta","BORDERPRECISION":3}},
{"type":"Feature","geometry":{"type":"Polygon","coordinates":[[[88.8,27.18],[88.2,27.88],[88.09,26.44],[86.78,26.47],[82.81,27.54],[80.1,28.95],[81.02,30.25],[79.11,31.46],[79.57,32.7],[77.85,35.24],[74.52,37],[72.37,36.72],[71.66,35.13],[69.21,31.8],[66.47,30.84],[66.09,29.74],[62.37,29.38],[60.82,29.83],[61.5,28.87],[61.6,28.74],[61.66,28.66],[61.97,28.48],[62.09,28.44],[62.49,28.31],[63.24,26.67],[61.81,25.98],[61.68,25.65],[61.67,25.63],[61.57,25.04],[66.62,25.32],[68.79,23.03],[69.13,21.97],[71.02,20.66],[72.76,20.06],[73.84,15.39],[76.7,8.71],[77.9,8.26],[79.83,10.36],[80.22,12.83],[80.09,15.18],[81.37,16.35],[86.12,19.81],[87.64,21.56],[90,21.93],[91.41,22.72],[92.18,20.89],[94.05,19.06],[95.33,15.68],[97.57,16.45],[98.49,13.11],[98.59,10.12],[99.58,11.89],[98.14,15.19],[98.82,16.32],[97.27,18.5],[97.37,20.78],[98.2,21.61],[97.7,23.88],[97.52,24.8],[98.73,26.34],[98.01,28.09],[94.57,29.2],[91.61,27.64],[90,26.78],[88.8,27.18]]]},"properties":{"NAME":"British Raj","SUBJECTO":"United Kingdom","BORDERPRECISION":3}},
{"type":"Feature","geometry":{"type":"Polygon","coordinates":[[[31.05,69.64],[28.31,70.95],[20.16,69.75],[13.17,66.46],[9.83,63.68],[5.15,61.74],[5.62,58.46],[8.15,58.09],[10.55,59.38],[13.3,55.3],[15.77,56.03],[16.74,58.31],[19.04,59.86],[17.15,60.95],[18.49,62.98],[23.95,65.8],[23.49,67.83],[26.51,69.81],[31.05,69.64]]]},"properties":{"NAME":"Sweden–Norway","SUBJECTO":"Sweden–Norway","BORDERPRECISION":3}},
{"type":"Feature","geometry":{"type":"Polygon","coordinates":[[[10.14,54.34],[10.84,55.29],[8.18,56.43],[8.88,54.23],[10.14,54.34]]]},"properties":{"NAME":"Denmark","SUBJECTO":"Denmark","BORDERPRECISION":3}},
{"type":"Feature","geometry":{"type":"Polygon","coordinates":[[[102.07,6.15],[100.61,6.98],[99.07,9.9],[99.9,12.08],[100.87,12.68],[102.66,12.33],[102.37,13.4],[102.85,14.09],[103.26,14.34],[104.39,14.38],[105.47,15.15],[103.93,18.28],[101.86,18.11],[101.34,17.58],[100.39,19.67],[100.44,20.04],[101.01,21.44],[99.16,22.31],[98.77,24.09],[97.7,23.88],[98.2,21.61],[97.37,20.78],[97.27,18.5],[98.82,16.32],[98.14,15.19],[99.58,11.89],[98.59,10.12],[98.18,8.6],[100.16,6.34],[102.07,6.15]]]},"properties":{"NAME":"Rattanakosin Kingdom","SUBJECTO":"Rattanakosin Kingdom","BORDERPRECISION":3}},
{"type":"Feature","geometry":{"type":"Polygon","coordinates":[[[124.13,39.84],[124.74,38.28],[126.63,37.59],[126.37,34.79],[129.44,35.48],[129.34,37.26],[127.28,39.22],[129.48,40.68],[130.44,42.28],[130.23,42.65],[128.1,41.45],[126.47,41.65],[124.13,39.84]]]},"properties":{"NAME":"Korea","SUBJECTO":"Korea","BORDERPRECISION":3}},
{"type":"Feature","geometry":{"type":"Polygon","coordinates":[[[6.43,49.45],[7.51,47.6],[8.98,47.68],[9.12,47.68],[9.22,47.67],[9.67,47.56],[12.7,47.69],[13.95,48.66],[12.24,50.24],[14.6,51.02],[16.73,50.15],[18.77,50.18],[17.9,52.18],[22.81,53.81],[22.79,54.9],[20.95,56.07],[21.14,54.85],[14.47,53.88],[10.14,54.34],[8.88,54.23],[7.16,53.16],[6,50.74],[6.11,50.12],[6.43,49.45]]]},"properties":{"NAME":"Germany","SUBJECTO":"Germany","BORDERPRECISION":3}},
{"type":"Feature","geometry":{"type":"MultiPolygon","coordinates":[[[[72.71,37.19],[72.07,39.13],[73.88,39.88],[80.11,42],[80.77,43.38],[80.24,45.12],[82.44,45.74],[83.25,47.29],[85.48,47.09],[86.78,48.99],[90,50.31],[94.21,51.32],[93.57,52.35],[95.19,53.8],[97.61,52.15],[102.12,51.36],[103.68,50.17],[106.32,50.42],[109.42,49.3],[112.52,49.46],[114.1,50.27],[117.49,49.59],[119.18,50.7],[121.19,53.32],[125.51,53.16],[127.71,49.7],[130.48,48.9],[130.92,47.73],[134.11,48.25],[132.78,44.99],[130.99,44.82],[130.23,42.65],[130.44,42.28],[132.18,43.19],[134.14,42.99],[137.72,46],[140.08,48.5],[141.12,53.05],[140.1,53.8],[134.99,54.85],[137.23,55.98],[142.85,59.27],[148.42,59.1],[154.32,59.98],[157.1,61.63],[160.64,60.72],[163.33,60.69],[158.33,58.03],[156.78,57.58],[155.47,54.92],[156.7,50.96],[161.5,55.29],[162.51,57.03],[161.8,58.1],[163.39,59.81],[165.78,60.35],[170.34,60.28],[173.48,61.6],[179.29,62.82],[178.15,64.16],[180,64.95],[180,65.07],[180,68.98],[175.61,69.78],[167.32,69.66],[159.44,69.76],[158.41,70.81],[152.13,70.66],[146.92,72.2],[141.29,72.79],[137.63,71.08],[126.22,72.38],[118.46,73.52],[108.34,73.69],[113.63,75.27],[113.53,76.09],[103.39,77.56],[99.47,75.97],[90,75.6],[87.69,73.9],[80.46,73.31],[79.22,72.27],[73.22,71.46],[74.74,67.69],[72.84,67.65],[72.71,72.77],[69.34,72.83],[66.82,71.11],[66.58,68.89],[62.28,69.71],[57.02,68.45],[53.89,68.79],[48.08,67.56],[43.82,68.33],[44.38,66.61],[39.95,65.58],[37.41,63.75],[35.08,64.29],[35.77,66.26],[39.19,66.04],[40.83,67.66],[37.25,68.79],[31.05,69.64],[26.51,69.81],[23.49,67.83],[23.95,65.8],[24.47,64.64],[21.03,62.48],[21.56,60.51],[23.66,59.84],[24.35,57.16],[21.68,57.46],[20.95,56.07],[22.79,54.9],[22.81,53.81],[17.9,52.18],[18.77,50.18],[24.4,50.63],[26.25,49.75],[26.48,48.59],[28.91,47.82],[30.43,46.18],[33.64,45.93],[37.42,47.08],[37.47,44.69],[41.41,42.79],[41.48,41.44],[42.88,41.55],[44.98,42.77],[47.35,41.44],[47.49,43.58],[47.56,45.45],[51.37,47.09],[53.19,46.87],[52.61,45.4],[50.87,44.63],[52.52,42.07],[53.99,42.11],[54.82,40.88],[52.85,40.18],[54.07,38.9],[54.02,37.35],[57.23,38.19],[61.59,39.35],[64.81,38.24],[65.72,37.49],[67.86,36.85],[71.44,37.83],[72.71,37.19]]],[[[-174.37,66.94],[-180,68.98],[-180,65.26],[-179.38,66],[-173.08,64.38],[-171.96,66.96],[-174.37,66.94]]]]},"properties":{"NAME":"Russian Empire","SUBJECTO":"Russian Empire","BORDERPRECISION":3}},
{"type":"Feature","geometry":{"type":"Polygon","coordinates":[[[-170.55,-14.3],[-170.54,-14.29],[-170.55,-14.28],[-170.56,-14.29],[-170.55,-14.3]]]},"properties":{"NAME":"American Samoa","SUBJECTO":"American Samoa","BORDERPRECISION":3}},
{"type":"Feature","geometry":{"type":"Polygon","coordinates":[[[-170.75,-14.37],[-170.64,-14.29],[-170.68,-14.26],[-170.8,-14.3],[-170.75,-14.37]]]},"properties":{"NAME":"American Samoa","SUBJECTO":"American Samoa","BORDERPRECISION":3}},
{"type":"Feature","geometry":{"type":"Polygon","coordinates":[[[-169.51,-14.28],[-169.44,-14.26],[-169.45,-14.23],[-169.52,-14.23],[-169.51,-14.28]]]},"properties":{"NAME":"American Samoa","SUBJECTO":"American Samoa","BORDERPRECISION":3}},
{"type":"Feature","geometry":{"type":"Polygon","coordinates":[[[-169.63,-14.19],[-169.62,-14.17],[-169.64,-14.17],[-169.63,-14.19]]]},"properties":{"NAME":"American Samoa","SUBJECTO":"American Samoa","BORDERPRECISION":3}},
{"type":"Feature","geometry":{"type":"Polygon","coordinates":[[[-169.69,-14.19],[-169.66,-14.18],[-169.68,-14.17],[-169.69,-14.19]]]},"properties":{"NAME":"American Samoa","SUBJECTO":"American Samoa","BORDERPRECISION":3}},
{"type":"Feature","geometry":{"type":"Polygon","coordinates":[[[-178.71,-20.67],[-178.72,-20.65],[-178.73,-20.67],[-178.71,-20.67]]]},"properties":{"NAME":"Fiji","SUBJECTO":"Fiji","BORDERPRECISION":3}},
{"type":"Feature","geometry":{"type":"Polygon","coordinates":[[[-178.2,-19.83],[-178.22,-19.84],[-178.21,-19.85],[-178.2,-19.84],[-178.2,-19.83]]]},"properties":{"NAME":"Fiji","SUBJECTO":"Fiji","BORDERPRECISION":3}},
{"type":"Feature","geometry":{"type":"Polygon","coordinates":[[[-178.39,-19.13],[-178.43,-19.18],[-178.4,-19.19],[-178.39,-19.13]]]},"properties":{"NAME":"Fiji","SUBJECTO":"Fiji","BORDERPRECISION":3}},
{"type":"Feature","geometry":{"type":"Polygon","coordinates":[[[179.76,-19.13],[179.74,-19.18],[179.8,-19.18],[179.76,-19.13]]]},"properties":{"NAME":"Fiji","SUBJECTO":"Fiji","BORDERPRECISION":3}},
{"type":"Feature","geometry":{"type":"Polygon","coordinates":[[[-178.55,-19.18],[-178.55,-19.12],[-178.6,-19.16],[-178.55,-19.18]]]},"properties":{"NAME":"Fiji","SUBJECTO":"Fiji","BORDERPRECISION":3}},
{"type":"Feature","geometry":{"type":"Polygon","coordinates":[[[178.17,-19.07],[178.18,-18.98],[177.96,-19.14],[178.09,-19.16],[178.17,-19.07]]]},"properties":{"NAME":"Fiji","SUBJECTO":"Fiji","BORDERPRECISION":3}},
{"type":"Feature","geometry":{"type":"Polygon","coordinates":[[[-178.94,-18.99],[-178.93,-18.94],[-178.97,-18.95],[-178.94,-18.99]]]},"properties":{"NAME":"Fiji","SUBJECTO":"Fiji","BORDERPRECISION":3}},
{"type":"Feature","geometry":{"type":"Polygon","coordinates":[[[-179.86,-19.01],[-179.85,-18.96],[-179.78,-18.96],[-179.79,-18.94],[-179.85,-18.92],[-179.87,-19],[-179.86,-19.01]]]},"properties":{"NAME":"Fiji","SUBJECTO":"Fiji","BORDERPRECISION":3}},
{"type":"Feature","geometry":{"type":"Polygon","coordinates":[[[178.5,-18.93],[178.54,-18.89],[178.48,-18.88],[178.5,-18.93]]]},"properties":{"NAME":"Fiji","SUBJECTO":"Fiji","BORDERPRECISION":3}},
{"type":"Feature","geometry":{"type":"Polygon","coordinates":[[[-178.5,-18.67],[-178.47,-18.66],[-178.51,-18.64],[-178.52,-18.67],[-178.5,-18.67]]]},"properties":{"NAME":"Fiji","SUBJECTO":"Fiji","BORDERPRECISION":3}},
{"type":"Feature","geometry":{"type":"Polygon","coordinates":[[[179.97,-18.55],[179.84,-18.57],[179.91,-18.64],[179.97,-18.55]]]},"properties":{"NAME":"Fiji","SUBJECTO":"Fiji","BORDERPRECISION":3}},
{"type":"Feature","geometry":{"type":"Polygon","coordinates":[[[177.66,-18.59],[177.65,-18.51],[177.62,-18.54],[177.66,-18.59]]]},"properties":{"NAME":"Fiji","SUBJECTO":"Fiji","BORDERPRECISION":3}},
{"type":"Feature","geometry":{"type":"Polygon","coordinates":[[[178.15,-18.41],[178.16,-18.37],[178.12,-18.36],[178.11,-18.41],[178.15,-18.41]]]},"properties":{"NAME":"Fiji","SUBJECTO":"Fiji","BORDERPRECISION":3}},
{"type":"Feature","geometry":{"type":"Polygon","coordinates":[[[-178.75,-18.2],[-178.83,-18.19],[-178.84,-18.22],[-178.77,-18.25],[-178.75,-18.2]]]},"properties":{"NAME":"Fiji","SUBJECTO":"Fiji","BORDERPRECISION":3}},
{"type":"Feature","geometry":{"type":"Polygon","coordinates":[[[179.37,-18.09],[179.31,-17.95],[179.25,-18.04],[179.37,-18.09]]]},"properties":{"NAME":"Fiji","SUBJECTO":"Fiji","BORDERPRECISION":3}},
{"type":"Feature","geometry":{"type":"Polygon","coordinates":[[[-179,-17.94],[-179.07,-17.93],[-179.06,-17.97],[-179,-17.99],[-179,-17.94]]]},"properties":{"NAME":"Fiji","SUBJECTO":"Fiji","BORDERPRECISION":3}},
{"type":"Feature","geometry":{"type":"Polygon","coordinates":[[[-178.3,-17.89],[-178.34,-17.96],[-178.26,-17.96],[-178.3,-17.89]]]},"properties":{"NAME":"Fiji","SUBJECTO":"Fiji","BORDERPRECISION":3}},
{"type":"Feature","geometry":{"type":"Polygon","coordinates":[[[179.42,-17.85],[179.42,-17.79],[179.39,-17.79],[179.42,-17.85]]]},"properties":{"NAME":"Fiji","SUBJECTO":"Fiji","BORDERPRECISION":3}},
{"type":"Feature","geometry":{"type":"Polygon","coordinates":[[[-179.28,-17.76],[-179.33,-17.74],[-179.33,-17.77],[-179.28,-17.76]]]},"properties":{"NAME":"Fiji","SUBJECTO":"Fiji","BORDERPRECISION":3}},
{"type":"Feature","geometry":{"type":"Polygon","coordinates":[[[178.83,-17.62],[178.76,-17.64],[178.77,-17.75],[178.85,-17.7],[178.83,-17.62]]]},"properties":{"NAME":"Fiji","SUBJECTO":"Fiji","BORDERPRECISION":3}},
{"type":"Feature","geometry":{"type":"Polygon","coordinates":[[[-179.13,-17.45],[-179.18,-17.43],[-179.16,-17.48],[-179.13,-17.45]]]},"properties":{"NAME":"Fiji","SUBJECTO":"Fiji","BORDERPRECISION":3}},
{"type":"Feature","geometry":{"type":"Polygon","coordinates":[[[178.69,-18.03],[178.17,-17.34],[177.51,-17.51],[177.86,-18.26],[178.69,-18.03]]]},"properties":{"NAME":"Fiji","SUBJECTO":"Fiji","BORDERPRECISION":3}},
{"type":"Feature","geometry":{"type":"Polygon","coordinates":[[[177.11,-17.31],[177.14,-17.3],[177.14,-17.25],[177.1,-17.27],[177.11,-17.31]]]},"properties":{"NAME":"Fiji","SUBJECTO":"Fiji","BORDERPRECISION":3}},
{"type":"Feature","geometry":{"type":"Polygon","coordinates":[[[-179.15,-17.25],[-179.15,-17.28],[-179.13,-17.28],[-179.12,-17.26],[-179.15,-17.25]]]},"properties":{"NAME":"Fiji","SUBJECTO":"Fiji","BORDERPRECISION":3}},
{"type":"Feature","geometry":{"type":"Polygon","coordinates":[[[179.42,-17.24],[179.36,-17.26],[179.43,-17.37],[179.45,-17.3],[179.42,-17.24]]]},"properties":{"NAME":"Fiji","SUBJECTO":"Fiji","BORDERPRECISION":3}},
{"type":"Feature","geometry":{"type":"Polygon","coordinates":[[[-179.01,-17.18],[-178.97,-17.29],[-178.92,-17.2],[-179.01,-17.18]]]},"properties":{"NAME":"Fiji","SUBJECTO":"Fiji","BORDERPRECISION":3}},
{"type":"Feature","geometry":{"type":"Polygon","coordinates":[[[177.19,-17.12],[177.26,-17.12],[177.24,-17.06],[177.19,-17.12]]]},"properties":{"NAME":"Fiji","SUBJECTO":"Fiji","BORDERPRECISION":3}},
{"type":"Feature","geometry":{"type":"Polygon","coordinates":[[[178.28,-16.83],[178.34,-16.84],[178.33,-16.8],[178.28,-16.79],[178.28,-16.83]]]},"properties":{"NAME":"Fiji","SUBJECTO":"Fiji","BORDERPRECISION":3}},
{"type":"Feature","geometry":{"type":"Polygon","coordinates":[[[179.88,-16.96],[180,-16.97],[180,-16.79],[179.95,-16.88],[179.88,-16.96]]]},"properties":{"NAME":"Fiji","SUBJECTO":"Fiji","BORDERPRECISION":3}},
{"type":"Feature","geometry":{"type":"Polygon","coordinates":[[[-179.93,-16.71],[-180,-16.79],[-180,-16.97],[-179.99,-16.95],[-179.82,-16.78],[-179.93,-16.71]]]},"properties":{"NAME":"Fiji","SUBJECTO":"Fiji","BORDERPRECISION":3}},
{"type":"Feature","geometry":{"type":"Polygon","coordinates":[[[177.56,-16.72],[177.48,-16.8],[177.52,-16.79],[177.57,-16.74],[177.56,-16.72]]]},"properties":{"NAME":"Fiji","SUBJECTO":"Fiji","BORDERPRECISION":3}},
{"type":"Feature","geometry":{"type":"Polygon","coordinates":[[[179.89,-16.66],[179.94,-16.65],[179.92,-16.63],[179.89,-16.66]]]},"properties":{"NAME":"Fiji","SUBJECTO":"Fiji","BORDERPRECISION":3}},
{"type":"Feature","geometry":{"type":"Polygon","coordinates":[[[179.99,-16.54],[180,-16.54],[180,-16.49],[179.99,-16.5],[179.99,-16.54]]]},"properties":{"NAME":"Fiji","SUBJECTO":"Fiji","BORDERPRECISION":3}},
{"type":"Feature","geometry":{"type":"Polygon","coordinates":[[[-180,-16.49],[-180,-16.54],[-179.93,-16.52],[-179.89,-16.44],[-179.97,-16.46],[-180,-16.49]]]},"properties":{"NAME":"Fiji","SUBJECTO":"Fiji","BORDERPRECISION":3}},
{"type":"Feature","geometry":{"type":"Polygon","coordinates":[[[179.9,-16.24],[180,-16.17],[180,-16.15],[178.98,-16.47],[179.33,-16.8],[179.9,-16.24]]]},"properties":{"NAME":"Fiji","SUBJECTO":"Fiji","BORDERPRECISION":3}},
{"type":"Feature","geometry":{"type":"Polygon","coordinates":[[[-169.89,-19.15],[-169.78,-19.06],[-169.88,-18.96],[-169.95,-19.07],[-169.89,-19.15]]]},"properties":{"NAME":"Niue","SUBJECTO":"Niue","BORDERPRECISION":3}},
{"type":"Feature","geometry":{"type":"Polygon","coordinates":[[[-174.97,-21.37],[-174.91,-21.43],[-174.91,-21.31],[-174.97,-21.37]]]},"properties":{"NAME":"Tonga","SUBJECTO":"Tonga","BORDERPRECISION":3}},
{"type":"Feature","geometry":{"type":"Polygon","coordinates":[[[-175.12,-21.13],[-175.19,-21.25],[-175.12,-21.26],[-175.05,-21.16],[-175.12,-21.13]]]},"properties":{"NAME":"Tonga","SUBJECTO":"Tonga","BORDERPRECISION":3}},
{"type":"Feature","geometry":{"type":"Polygon","coordinates":[[[-174.8,-20.24],[-174.79,-20.27],[-174.76,-20.26],[-174.76,-20.24],[-174.8,-20.24]]]},"properties":{"NAME":"Tonga","SUBJECTO":"Tonga","BORDERPRECISION":3}},
{"type":"Feature","geometry":{"type":"Polygon","coordinates":[[[-174.41,-19.89],[-174.42,-19.91],[-174.41,-19.93],[-174.39,-19.9],[-174.41,-19.89]]]},"properties":{"NAME":"Tonga","SUBJECTO":"Tonga","BORDERPRECISION":3}},
{"type":"Feature","geometry":{"type":"Polygon","coordinates":[[[-174.35,-19.81],[-174.31,-19.81],[-174.32,-19.76],[-174.35,-19.81]]]},"properties":{"NAME":"Tonga","SUBJECTO":"Tonga","BORDERPRECISION":3}},
{"type":"Feature","geometry":{"type":"Polygon","coordinates":[[[-175.09,-19.78],[-175.04,-19.79],[-175.05,-19.73],[-175.1,-19.75],[-175.09,-19.78]]]},"properties":{"NAME":"Tonga","SUBJECTO":"Tonga","BORDERPRECISION":3}},
{"type":"Feature","geometry":{"type":"Polygon","coordinates":[[[-174.31,-19.74],[-174.26,-19.74],[-174.26,-19.69],[-174.31,-19.74]]]},"properties":{"NAME":"Tonga","SUBJECTO":"Tonga","BORDERPRECISION":3}},
{"type":"Feature","geometry":{"type":"Polygon","coordinates":[[[-175.03,-19.69],[-175.01,-19.69],[-175,-19.66],[-175.03,-19.66],[-175.03,-19.69]]]},"properties":{"NAME":"Tonga","SUBJECTO":"Tonga","BORDERPRECISION":3}},
{"type":"Feature","geometry":{"type":"Polygon","coordinates":[[[-174.27,-19.64],[-174.24,-19.64],[-174.28,-19.59],[-174.29,-19.61],[-174.27,-19.64]]]},"properties":{"NAME":"Tonga","SUBJECTO":"Tonga","BORDERPRECISION":3}},
{"type":"Feature","geometry":{"type":"Polygon","coordinates":[[[-174.67,-18.83],[-174.63,-18.82],[-174.65,-18.79],[-174.67,-18.79],[-174.67,-18.83]]]},"properties":{"NAME":"Tonga","SUBJECTO":"Tonga","BORDERPRECISION":3}},
{"type":"Feature","geometry":{"type":"Polygon","coordinates":[[[-174.09,-18.7],[-174.07,-18.71],[-174.07,-18.68],[-174.09,-18.68],[-174.09,-18.7]]]},"properties":{"NAME":"Tonga","SUBJECTO":"Tonga","BORDERPRECISION":3}},
{"type":"Feature","geometry":{"type":"Polygon","coordinates":[[[-174.03,-18.72],[-174.02,-18.71],[-174.03,-18.68],[-174.04,-18.69],[-174.03,-18.72]]]},"properties":{"NAME":"Tonga","SUBJECTO":"Tonga","BORDERPRECISION":3}},
{"type":"Feature","geometry":{"type":"Polygon","coordinates":[[[-174.13,-18.7],[-174.09,-18.67],[-174.11,-18.67],[-174.12,-18.68],[-174.13,-18.7]]]},"properties":{"NAME":"Tonga","SUBJECTO":"Tonga","BORDERPRECISION":3}},
{"type":"Feature","geometry":{"type":"Polygon","coordinates":[[[-173.99,-18.68],[-173.91,-18.64],[-173.94,-18.57],[-174.01,-18.58],[-173.99,-18.68]]]},"properties":{"NAME":"Tonga","SUBJECTO":"Tonga","BORDERPRECISION":3}},
{"type":"Feature","geometry":{"type":"Polygon","coordinates":[[[-175.64,-15.63],[-175.61,-15.57],[-175.67,-15.57],[-175.64,-15.63]]]},"properties":{"NAME":"Tonga","SUBJECTO":"Tonga","BORDERPRECISION":3}},
{"type":"Feature","geometry":{"type":"Polygon","coordinates":[[[-178.04,-14.32],[-178.13,-14.25],[-178.13,-14.32],[-178.04,-14.32]]]},"properties":{"NAME":"Wallis and Futuna Islands","SUBJECTO":"Wallis and Futuna Islands","BORDERPRECISION":3}},
{"type":"Feature","geometry":{"type":"Polygon","coordinates":[[[-176.16,-13.35],[-176.12,-13.26],[-176.18,-13.23],[-176.19,-13.29],[-176.16,-13.35]]]},"properties":{"NAME":"Wallis and Futuna Islands","SUBJECTO":"Wallis and Futuna Islands","BORDERPRECISION":3}},
{"type":"Feature","geometry":{"type":"Polygon","coordinates":[[[-171.43,-14.02],[-171.82,-13.81],[-171.91,-14.01],[-171.43,-14.02]]]},"properties":{"NAME":"Samoa","SUBJECTO":"Samoa","BORDERPRECISION":3}},
{"type":"Feature","geometry":{"type":"Polygon","coordinates":[[[-172.29,-13.49],[-172.78,-13.54],[-172.53,-13.8],[-172.21,-13.81],[-172.29,-13.49]]]},"properties":{"NAME":"Samoa","SUBJECTO":"Samoa","BORDERPRECISION":3}},
{"type":"Feature","geometry":{"type":"Polygon","coordinates":[[[-109.24,-27.13],[-109.37,-27.06],[-109.43,-27.2],[-109.24,-27.13]]]},"properties":{"NAME":"Rapa Nui","SUBJECTO":"Chile","BORDERPRECISION":3}},
{"type":"Feature","geometry":{"type":"Polygon","coordinates":[[[114.03,22.51],[114.33,22.27],[114.31,22.55],[114.03,22.51]]]},"properties":{"NAME":"Hong Kong","SUBJECTO":"United Kingdom","BORDERPRECISION":3}},
{"type":"Feature","geometry":{"type":"Polygon","coordinates":[[[101.01,21.44],[100.44,20.04],[100.39,19.67],[101.34,17.58],[101.86,18.11],[103.93,18.28],[105.47,15.15],[104.39,14.38],[103.26,14.34],[102.85,14.09],[102.37,13.4],[102.66,12.33],[103.04,10.9],[106.48,9.55],[109.07,11.64],[109.31,12.91],[108.24,16.08],[106.43,17.55],[105.53,18.84],[106.81,20.91],[107.88,21.46],[105.31,23.3],[104.48,22.78],[101.66,22.39],[101.01,21.44]]]},"properties":{"NAME":"French Indochina","SUBJECTO":"France","BORDERPRECISION":3}}
]}